{"type":"FeatureCollection","features":[{"type":"Feature","properties":{"corregimiento":"Bastimentos","distrito":"Bocas del Toro","provincia":"Bocas del Toro","bbox":[-82.22085,9.24638,-82.08107,9.36159]},"geometry":{"type":"MultiPolygon","coordinates":[[[[-82.19999,9.36159],[-82.20069,9.35453],[-82.19268,9.34829],[-82.18581,9.35007],[-82.18404,9.34658],[-82.17336,9.34351],[-82.16438,9.34948],[-82.15469,9.34358],[-82.14553,9.34249],[-82.14042,9.33037],[-82.12839,9.31915],[-82.12021,9.31606],[-82.11,9.32019],[-82.09032,9.30871],[-82.08107,9.29044],[-82.0954,9.29276],[-82.10551,9.29099],[-82.10535,9.28886],[-82.11117,9.28974],[-82.1245,9.27844],[-82.13357,9.27739],[-82.13073,9.27466],[-82.13418,9.26973],[-82.14153,9.26998],[-82.13806,9.26556],[-82.14598,9.26233],[-82.14594,9.25655],[-82.13896,9.2539],[-82.13756,9.24912],[-82.14025,9.24638],[-82.14738,9.24777],[-82.1562,9.2601],[-82.15722,9.2573],[-82.15987,9.25981],[-82.15534,9.26402],[-82.15676,9.26819],[-82.15043,9.27263],[-82.15228,9.27963],[-82.14977,9.28178],[-82.15339,9.282],[-82.1545,9.28521],[-82.15652,9.2833],[-82.15969,9.29333],[-82.1581,9.29866],[-82.16215,9.29701],[-82.16291,9.30006],[-82.16556,9.30195],[-82.16391,9.29722],[-82.16828,9.29934],[-82.16712,9.30525],[-82.1727,9.31004],[-82.16991,9.31179],[-82.15511,9.30629],[-82.15073,9.31047],[-82.15733,9.31363],[-82.16029,9.32063],[-82.17118,9.33056],[-82.17353,9.32979],[-82.17408,9.33358],[-82.18076,9.33355],[-82.1754,9.33475],[-82.17736,9.33743],[-82.17806,9.33543],[-82.1777,9.33752],[-82.17952,9.33839],[-82.17847,9.33641],[-82.18249,9.33481],[-82.18129,9.34012],[-82.18588,9.33391],[-82.18731,9.33732],[-82.19539,9.33552],[-82.20674,9.33933],[-82.20849,9.34191],[-82.20562,9.34466],[-82.20911,9.34805],[-82.21467,9.3473],[-82.20812,9.35673],[-82.19999,9.36159]]],[[[-82.21999,9.33436],[-82.19675,9.32177],[-82.18522,9.31974],[-82.18819,9.31765],[-82.18428,9.3185],[-82.17727,9.314],[-82.17913,9.31216],[-82.17566,9.3096],[-82.17883,9.30795],[-82.17345,9.30754],[-82.17528,9.30474],[-82.17194,9.30547],[-82.17053,9.29837],[-82.18517,9.30674],[-82.18547,9.30327],[-82.19659,9.30557],[-82.19333,9.30858],[-82.1966,9.30837],[-82.19516,9.31168],[-82.19983,9.30623],[-82.19953,9.31051],[-82.20192,9.30971],[-82.2032,9.31328],[-82.2074,9.30833],[-82.20948,9.31202],[-82.20255,9.31575],[-82.20591,9.31532],[-82.20671,9.31842],[-82.21065,9.31683],[-82.22085,9.33017],[-82.21999,9.33436]]]]}},{"type":"Feature","properties":{"corregimiento":"Cauchero","distrito":"Bocas del Toro","provincia":"Bocas del Toro","bbox":[-82.43106,9.02012,-82.25322,9.19746]},"geometry":{"type":"Polygon","coordinates":[[[-82.36944,9.1812],[-82.3641,9.17113],[-82.35363,9.16692],[-82.34734,9.16804],[-82.34319,9.1631],[-82.33207,9.17577],[-82.31927,9.17208],[-82.31177,9.17527],[-82.30401,9.17413],[-82.29948,9.1779],[-82.2915,9.17787],[-82.28387,9.18207],[-82.27745,9.17619],[-82.2647,9.1742],[-82.25598,9.16921],[-82.25821,9.16479],[-82.25399,9.16207],[-82.25391,9.15483],[-82.27009,9.15078],[-82.27238,9.14069],[-82.26901,9.13518],[-82.26647,9.13752],[-82.26298,9.13453],[-82.26745,9.13178],[-82.2697,9.1198],[-82.25322,9.11243],[-82.26308,9.11258],[-82.27355,9.12036],[-82.28874,9.12206],[-82.29285,9.13713],[-82.30007,9.14044],[-82.30292,9.14824],[-82.31152,9.1547],[-82.31596,9.14919],[-82.31801,9.15256],[-82.32532,9.14925],[-82.32697,9.15155],[-82.33425,9.14532],[-82.34033,9.14578],[-82.348,9.14191],[-82.34429,9.13351],[-82.34958,9.13051],[-82.34615,9.12721],[-82.35003,9.12747],[-82.3479,9.12149],[-82.35172,9.11561],[-82.35617,9.11711],[-82.35636,9.11175],[-82.36248,9.10701],[-82.36243,9.10424],[-82.35867,9.10452],[-82.35121,9.09559],[-82.36061,9.09081],[-82.3564,9.08172],[-82.3594,9.07835],[-82.35784,9.06508],[-82.36026,9.06257],[-82.35799,9.05599],[-82.36199,9.05121],[-82.36066,9.04173],[-82.364,9.03621],[-82.3703,9.03487],[-82.36618,9.02786],[-82.36914,9.02217],[-82.38449,9.02012],[-82.40118,9.06416],[-82.3981,9.07405],[-82.39851,9.07842],[-82.40375,9.08323],[-82.39932,9.09661],[-82.39954,9.10075],[-82.40445,9.10514],[-82.40115,9.11119],[-82.40504,9.1121],[-82.40259,9.11677],[-82.41005,9.12725],[-82.41608,9.13051],[-82.42218,9.12907],[-82.43106,9.1423],[-82.43102,9.14625],[-82.4276,9.15402],[-82.42357,9.15586],[-82.42545,9.15878],[-82.42257,9.16469],[-82.42563,9.16696],[-82.41797,9.18112],[-82.40251,9.18359],[-82.39907,9.19181],[-82.39178,9.19746],[-82.38536,9.19743],[-82.36944,9.1812]]]}},{"type":"Feature","properties":{"corregimiento":"Punta Laurel","distrito":"Bocas del Toro","provincia":"Bocas del Toro","bbox":[-82.1608,9.12973,-82.00705,9.23521]},"geometry":{"type":"MultiPolygon","coordinates":[[[[-82.05175,9.18311],[-82.03849,9.16999],[-82.03032,9.16912],[-82.03121,9.16106],[-82.0223,9.15454],[-82.02219,9.14862],[-82.01319,9.14893],[-82.00705,9.14367],[-82.0146,9.14247],[-82.01966,9.13358],[-82.02869,9.13052],[-82.06025,9.1526],[-82.05361,9.16901],[-82.05374,9.18063],[-82.05175,9.18311]]],[[[-82.13638,9.23521],[-82.12882,9.23245],[-82.12645,9.22669],[-82.11718,9.23146],[-82.1071,9.22209],[-82.10579,9.21659],[-82.1086,9.20985],[-82.09777,9.19605],[-82.09854,9.19332],[-82.10431,9.19376],[-82.1029,9.19151],[-82.11523,9.19551],[-82.11457,9.18909],[-82.11109,9.19214],[-82.10899,9.18939],[-82.10186,9.18907],[-82.10584,9.18644],[-82.11055,9.18855],[-82.11241,9.18583],[-82.10717,9.18396],[-82.10905,9.18112],[-82.1002,9.17991],[-82.09915,9.18369],[-82.09628,9.18217],[-82.09913,9.17672],[-82.08492,9.18083],[-82.08258,9.17859],[-82.08334,9.17197],[-82.08891,9.16767],[-82.0908,9.17245],[-82.09437,9.16759],[-82.08981,9.16688],[-82.08997,9.16468],[-82.09571,9.16444],[-82.09452,9.16254],[-82.10028,9.15746],[-82.09848,9.15483],[-82.10073,9.15225],[-82.09754,9.14901],[-82.10058,9.14658],[-82.09732,9.14679],[-82.0978,9.13945],[-82.09532,9.13858],[-82.09574,9.13515],[-82.10035,9.13363],[-82.09817,9.12973],[-82.11389,9.136],[-82.11044,9.13961],[-82.11225,9.14144],[-82.11662,9.1413],[-82.11923,9.13658],[-82.12983,9.14097],[-82.13857,9.1515],[-82.14238,9.15168],[-82.14179,9.15394],[-82.15362,9.14814],[-82.15288,9.15305],[-82.1608,9.1621],[-82.15702,9.16585],[-82.15561,9.16338],[-82.1579,9.16198],[-82.15502,9.1624],[-82.1561,9.15952],[-82.15391,9.15927],[-82.15466,9.16217],[-82.15208,9.16293],[-82.15628,9.1703],[-82.15335,9.17095],[-82.15633,9.17295],[-82.15346,9.17469],[-82.15784,9.17798],[-82.15521,9.17745],[-82.15506,9.18014],[-82.1589,9.19158],[-82.15594,9.1889],[-82.15339,9.19142],[-82.15366,9.18665],[-82.15098,9.19011],[-82.15281,9.19662],[-82.15047,9.19763],[-82.14049,9.1907],[-82.13323,9.19989],[-82.14346,9.201],[-82.14033,9.20643],[-82.14353,9.20507],[-82.14603,9.20772],[-82.14323,9.2141],[-82.14755,9.21232],[-82.14925,9.21611],[-82.14769,9.21739],[-82.14609,9.2143],[-82.1451,9.21941],[-82.14176,9.22044],[-82.14379,9.22645],[-82.14551,9.22101],[-82.14631,9.22354],[-82.14663,9.22087],[-82.14932,9.22093],[-82.14702,9.22472],[-82.14018,9.22962],[-82.14171,9.23211],[-82.13828,9.23188],[-82.13638,9.23521]]]]}},{"type":"Feature","properties":{"corregimiento":"Tierra Oscura","distrito":"Bocas del Toro","provincia":"Bocas del Toro","bbox":[-82.29905,9.13228,-82.15305,9.29802]},"geometry":{"type":"MultiPolygon","coordinates":[[[[-82.16075,9.15895],[-82.15446,9.15228],[-82.15775,9.15213],[-82.15496,9.14755],[-82.15733,9.14757],[-82.15305,9.14498],[-82.16103,9.14025],[-82.15876,9.13228],[-82.16678,9.13711],[-82.17447,9.14885],[-82.16903,9.15167],[-82.16498,9.14728],[-82.16483,9.1552],[-82.16241,9.15265],[-82.1608,9.15558],[-82.16334,9.15656],[-82.16075,9.15895]]],[[[-82.29023,9.22629],[-82.28675,9.21702],[-82.28283,9.21549],[-82.28186,9.2107],[-82.27932,9.21101],[-82.279,9.21084],[-82.27861,9.20531],[-82.27341,9.20245],[-82.27632,9.19235],[-82.28096,9.19469],[-82.28112,9.18961],[-82.27355,9.18315],[-82.26835,9.18674],[-82.26208,9.17973],[-82.25671,9.18051],[-82.25592,9.18385],[-82.24875,9.18751],[-82.24789,9.19398],[-82.25356,9.19784],[-82.25142,9.19956],[-82.25525,9.20482],[-82.24892,9.1997],[-82.24765,9.20382],[-82.25239,9.20667],[-82.24813,9.21024],[-82.24196,9.20001],[-82.24592,9.19956],[-82.24528,9.19675],[-82.24247,9.19637],[-82.23944,9.18991],[-82.23157,9.18947],[-82.22078,9.19818],[-82.22516,9.20312],[-82.22371,9.20584],[-82.23009,9.21001],[-82.22843,9.21638],[-82.221,9.22332],[-82.21347,9.22513],[-82.21774,9.21968],[-82.2154,9.22022],[-82.21401,9.21229],[-82.21018,9.2141],[-82.2101,9.20851],[-82.2085,9.21551],[-82.20351,9.21199],[-82.20692,9.22011],[-82.1975,9.21827],[-82.19888,9.21213],[-82.20502,9.20614],[-82.20001,9.20487],[-82.19989,9.20805],[-82.19336,9.20519],[-82.19214,9.19563],[-82.18845,9.19688],[-82.18708,9.19453],[-82.18941,9.19231],[-82.18843,9.18924],[-82.18609,9.19082],[-82.18717,9.18748],[-82.18307,9.18838],[-82.18532,9.19176],[-82.18359,9.19577],[-82.18219,9.19289],[-82.17404,9.19771],[-82.17183,9.19565],[-82.17419,9.19551],[-82.17646,9.18905],[-82.18064,9.19071],[-82.185,9.17679],[-82.17995,9.17635],[-82.1807,9.17151],[-82.1775,9.16563],[-82.17094,9.16777],[-82.1752,9.16378],[-82.17083,9.15517],[-82.17517,9.14911],[-82.18191,9.14935],[-82.18466,9.14627],[-82.18301,9.14962],[-82.18526,9.14839],[-82.1855,9.15113],[-82.18984,9.1518],[-82.19534,9.16155],[-82.20222,9.1594],[-82.20361,9.16324],[-82.20129,9.16654],[-82.20632,9.1676],[-82.20434,9.1707],[-82.2079,9.16768],[-82.20989,9.17116],[-82.21253,9.17027],[-82.2118,9.16811],[-82.21573,9.1659],[-82.224,9.16755],[-82.23418,9.17423],[-82.24158,9.17039],[-82.25596,9.16919],[-82.2647,9.1742],[-82.27745,9.17619],[-82.28369,9.18205],[-82.28959,9.17984],[-82.28906,9.18815],[-82.29237,9.19162],[-82.28614,9.20105],[-82.28269,9.19898],[-82.28132,9.20183],[-82.29179,9.21158],[-82.29367,9.21984],[-82.29023,9.22629]]],[[[-82.29028,9.29802],[-82.28516,9.29109],[-82.2896,9.28948],[-82.2901,9.28692],[-82.28776,9.2874],[-82.29063,9.28333],[-82.28679,9.28571],[-82.28558,9.28077],[-82.28472,9.28769],[-82.28249,9.28474],[-82.28073,9.28675],[-82.28188,9.28962],[-82.26958,9.28601],[-82.26955,9.2951],[-82.26221,9.29535],[-82.25604,9.2803],[-82.25825,9.2777],[-82.24956,9.27585],[-82.24962,9.26909],[-82.24383,9.26231],[-82.2454,9.26616],[-82.24477,9.26913],[-82.24168,9.26235],[-82.24266,9.25656],[-82.23985,9.25835],[-82.23585,9.25526],[-82.23995,9.25423],[-82.23675,9.25311],[-82.24078,9.25077],[-82.23997,9.24679],[-82.24182,9.245],[-82.23955,9.24519],[-82.2394,9.24241],[-82.24116,9.24446],[-82.24075,9.24165],[-82.24339,9.24084],[-82.2432,9.24672],[-82.24821,9.24139],[-82.252,9.24522],[-82.25322,9.24228],[-82.25812,9.24132],[-82.26112,9.23474],[-82.26806,9.23517],[-82.26246,9.23024],[-82.26001,9.2325],[-82.26114,9.22639],[-82.2557,9.22468],[-82.25279,9.21972],[-82.25454,9.21464],[-82.25574,9.2165],[-82.25701,9.21575],[-82.25518,9.21402],[-82.25937,9.21581],[-82.26695,9.21261],[-82.27717,9.22045],[-82.28122,9.21988],[-82.28367,9.22276],[-82.27994,9.2278],[-82.28886,9.23192],[-82.28525,9.23585],[-82.29059,9.23449],[-82.29539,9.23818],[-82.29288,9.24474],[-82.28967,9.24564],[-82.28549,9.24223],[-82.28106,9.24586],[-82.29426,9.24925],[-82.29545,9.25615],[-82.29905,9.25781],[-82.29188,9.26937],[-82.29689,9.27075],[-82.2943,9.27746],[-82.29683,9.28272],[-82.29336,9.28463],[-82.2933,9.29607],[-82.29028,9.29802]]]]}},{"type":"Feature","properties":{"corregimiento":"Bocas del Toro (Cabecera)","distrito":"Bocas del Toro","provincia":"Bocas del Toro","bbox":[-82.33236,9.08968,-81.54021,9.44075]},"geometry":{"type":"MultiPolygon","coordinates":[[[[-81.57448,9.10439],[-81.56631,9.10527],[-81.56013,9.10141],[-81.55235,9.10466],[-81.55128,9.10187],[-81.5464,9.10188],[-81.54865,9.0995],[-81.54021,9.08978],[-81.56476,9.09261],[-81.57109,9.08968],[-81.57448,9.10439]]],[[[-82.28586,9.44075],[-82.27893,9.43805],[-82.27449,9.44072],[-82.27277,9.43731],[-82.27015,9.43874],[-82.26684,9.43476],[-82.26544,9.43664],[-82.26184,9.43515],[-82.26252,9.43301],[-82.25975,9.43365],[-82.25654,9.42791],[-82.25862,9.42342],[-82.25252,9.40927],[-82.2433,9.39571],[-82.23493,9.39053],[-82.23494,9.38428],[-82.23943,9.37839],[-82.23829,9.36411],[-82.24142,9.36052],[-82.24804,9.3614],[-82.25554,9.35276],[-82.25035,9.34454],[-82.23917,9.34188],[-82.24005,9.33507],[-82.248,9.33921],[-82.24621,9.33494],[-82.25193,9.32962],[-82.2591,9.33956],[-82.25861,9.34219],[-82.25339,9.34136],[-82.25196,9.34443],[-82.25963,9.35165],[-82.25871,9.35528],[-82.26206,9.35986],[-82.2621,9.35405],[-82.26721,9.36069],[-82.26451,9.35495],[-82.26979,9.35951],[-82.26195,9.34926],[-82.27041,9.35816],[-82.27478,9.35899],[-82.27085,9.36336],[-82.27794,9.36128],[-82.27121,9.36605],[-82.27599,9.36834],[-82.27515,9.37247],[-82.27874,9.37106],[-82.28054,9.36575],[-82.28339,9.37],[-82.28098,9.36574],[-82.28338,9.36338],[-82.29038,9.3736],[-82.29792,9.37404],[-82.29623,9.37604],[-82.29898,9.37415],[-82.29363,9.38104],[-82.30284,9.37828],[-82.30172,9.38533],[-82.30053,9.38558],[-82.29994,9.38643],[-82.29854,9.38662],[-82.29976,9.38672],[-82.30188,9.38538],[-82.30509,9.38543],[-82.31151,9.39325],[-82.30918,9.39559],[-82.31203,9.39622],[-82.30947,9.39845],[-82.31046,9.40191],[-82.3155,9.40028],[-82.31763,9.40429],[-82.32019,9.40084],[-82.32395,9.40548],[-82.32758,9.40432],[-82.33236,9.41357],[-82.32165,9.41982],[-82.32464,9.42802],[-82.30818,9.42836],[-82.28586,9.44075]]]]}}]}