{"type":"FeatureCollection","features":[{"type":"Feature","properties":{"corregimiento":"Changuinola (Cabecera)","distrito":"Changuinola","provincia":"Bocas del Toro","bbox":[-82.54049,9.42644,-82.50325,9.47276]},"geometry":{"type":"Polygon","coordinates":[[[-82.51816,9.42644],[-82.52333,9.43632],[-82.53352,9.43509],[-82.53568,9.4315],[-82.54049,9.43084],[-82.53809,9.45099],[-82.52294,9.47276],[-82.50325,9.45518],[-82.50867,9.44368],[-82.50925,9.43474],[-82.51816,9.42644]]]}},{"type":"Feature","properties":{"corregimiento":"Guabito","distrito":"Changuinola","provincia":"Bocas del Toro","bbox":[-82.7003,9.39383,-82.50751,9.57234]},"geometry":{"type":"Polygon","coordinates":[[[-82.56166,9.57234],[-82.50751,9.52187],[-82.50989,9.51165],[-82.51707,9.50677],[-82.51919,9.5011],[-82.5268,9.49966],[-82.53701,9.48299],[-82.5398,9.4726],[-82.54811,9.46964],[-82.55206,9.46381],[-82.5572,9.46325],[-82.56155,9.45078],[-82.57341,9.44669],[-82.58489,9.43304],[-82.59752,9.43298],[-82.59961,9.423],[-82.61476,9.41486],[-82.61673,9.40848],[-82.60977,9.40252],[-82.61602,9.39383],[-82.64086,9.42224],[-82.63416,9.42596],[-82.63013,9.43655],[-82.66149,9.4418],[-82.67097,9.44871],[-82.66787,9.44918],[-82.669,9.45116],[-82.67386,9.44808],[-82.67852,9.45295],[-82.68436,9.45208],[-82.68551,9.45666],[-82.6888,9.45455],[-82.69338,9.458],[-82.69593,9.45513],[-82.7003,9.459],[-82.69416,9.47261],[-82.69587,9.47584],[-82.6833,9.48682],[-82.66497,9.48902],[-82.66666,9.4957],[-82.66094,9.504],[-82.66083,9.51054],[-82.64875,9.49717],[-82.63498,9.49369],[-82.63453,9.503],[-82.61867,9.49828],[-82.60738,9.50299],[-82.60383,9.50938],[-82.60452,9.52339],[-82.59768,9.53387],[-82.60413,9.55066],[-82.6039,9.55629],[-82.60013,9.55901],[-82.57898,9.55697],[-82.56548,9.54201],[-82.5581,9.54076],[-82.55287,9.54877],[-82.56537,9.56299],[-82.56166,9.57234]]]}},{"type":"Feature","properties":{"corregimiento":"El Teribe","distrito":"Changuinola","provincia":"Bocas del Toro","bbox":[-82.93522,9.07894,-82.52832,9.49473]},"geometry":{"type":"Polygon","coordinates":[[[-82.7164,9.47362],[-82.69611,9.45517],[-82.69338,9.458],[-82.6888,9.45455],[-82.68551,9.45666],[-82.68436,9.45208],[-82.67852,9.45295],[-82.6738,9.44806],[-82.66892,9.45112],[-82.66787,9.44918],[-82.67097,9.44871],[-82.66149,9.4418],[-82.63013,9.43655],[-82.63416,9.42596],[-82.64086,9.42224],[-82.61602,9.39383],[-82.63417,9.39693],[-82.63275,9.39191],[-82.63572,9.38477],[-82.63383,9.38306],[-82.58428,9.36185],[-82.58221,9.35888],[-82.57847,9.36189],[-82.57687,9.3761],[-82.56,9.38545],[-82.54091,9.374],[-82.52832,9.37027],[-82.53859,9.36027],[-82.53677,9.35685],[-82.5391,9.35199],[-82.55958,9.34757],[-82.56517,9.33766],[-82.57884,9.34254],[-82.58628,9.33329],[-82.59723,9.33423],[-82.59825,9.3303],[-82.60145,9.3296],[-82.60017,9.3233],[-82.60492,9.31245],[-82.61847,9.29525],[-82.61355,9.28406],[-82.61394,9.27344],[-82.60787,9.26581],[-82.60336,9.2441],[-82.59942,9.23858],[-82.61099,9.23121],[-82.60788,9.21831],[-82.61047,9.21369],[-82.61518,9.21234],[-82.6146,9.20634],[-82.62033,9.19214],[-82.62318,9.18898],[-82.62675,9.18983],[-82.62751,9.18511],[-82.63562,9.18239],[-82.64562,9.16965],[-82.65533,9.1906],[-82.66207,9.1973],[-82.67299,9.20354],[-82.69229,9.20812],[-82.70642,9.21838],[-82.71176,9.21592],[-82.725,9.22174],[-82.72755,9.21439],[-82.73455,9.21022],[-82.73362,9.1996],[-82.74251,9.19743],[-82.75591,9.18496],[-82.76534,9.18351],[-82.7757,9.16777],[-82.77455,9.16273],[-82.78254,9.16381],[-82.78886,9.1561],[-82.799,9.15073],[-82.80914,9.13239],[-82.81607,9.12761],[-82.824,9.11416],[-82.84425,9.11378],[-82.85052,9.10802],[-82.86197,9.11031],[-82.87439,9.11701],[-82.87361,9.1026],[-82.88784,9.08813],[-82.89236,9.0887],[-82.90527,9.08204],[-82.91924,9.08427],[-82.92439,9.07928],[-82.933,9.07894],[-82.93522,9.1627],[-82.92433,9.18055],[-82.92621,9.18976],[-82.92215,9.18938],[-82.92214,9.19362],[-82.91738,9.19588],[-82.9194,9.20551],[-82.92279,9.20737],[-82.91255,9.20818],[-82.90896,9.21812],[-82.90446,9.21739],[-82.89499,9.23061],[-82.89432,9.24045],[-82.88927,9.24492],[-82.89094,9.26226],[-82.88535,9.26561],[-82.88533,9.2703],[-82.88133,9.2716],[-82.8819,9.28265],[-82.87789,9.29263],[-82.87184,9.29685],[-82.86679,9.29587],[-82.85456,9.31167],[-82.84597,9.31295],[-82.84228,9.31714],[-82.82901,9.31036],[-82.81767,9.31652],[-82.81331,9.32256],[-82.80509,9.32206],[-82.80157,9.32648],[-82.80346,9.33606],[-82.79929,9.33852],[-82.79845,9.34477],[-82.79273,9.34671],[-82.79663,9.35344],[-82.78771,9.35739],[-82.78759,9.37062],[-82.77767,9.38424],[-82.77067,9.38597],[-82.76545,9.40514],[-82.76718,9.4082],[-82.76121,9.41196],[-82.76022,9.41871],[-82.748,9.42124],[-82.74291,9.42918],[-82.74573,9.43377],[-82.74221,9.46688],[-82.74508,9.49473],[-82.7436,9.48708],[-82.73673,9.48101],[-82.7164,9.47362]]]}},{"type":"Feature","properties":{"corregimiento":"El Empalme","distrito":"Changuinola","provincia":"Bocas del Toro","bbox":[-82.5405,9.3821,-82.4597,9.4386]},"geometry":{"type":"Polygon","coordinates":[[[-82.4597,9.4386],[-82.46333,9.42065],[-82.47042,9.41528],[-82.47542,9.40313],[-82.48073,9.40381],[-82.49077,9.39639],[-82.487,9.39047],[-82.49983,9.39446],[-82.50819,9.3821],[-82.50961,9.38456],[-82.51536,9.38327],[-82.51997,9.38654],[-82.52013,9.39066],[-82.52482,9.3916],[-82.5217,9.39658],[-82.53444,9.39439],[-82.5405,9.43084],[-82.53568,9.4315],[-82.53352,9.43509],[-82.52333,9.43632],[-82.52317,9.43321],[-82.5189,9.43095],[-82.51484,9.41197],[-82.50939,9.41773],[-82.48832,9.42356],[-82.47242,9.43751],[-82.4597,9.4386]]]}},{"type":"Feature","properties":{"corregimiento":"Las Tablas","distrito":"Changuinola","provincia":"Bocas del Toro","bbox":[-82.82984,9.46137,-82.66416,9.59627]},"geometry":{"type":"Polygon","coordinates":[[[-82.66416,9.50097],[-82.66666,9.4957],[-82.66497,9.48902],[-82.6833,9.48682],[-82.69587,9.47584],[-82.69416,9.47261],[-82.69765,9.46335],[-82.70097,9.46137],[-82.7164,9.47362],[-82.72983,9.47731],[-82.7436,9.48708],[-82.7457,9.49592],[-82.73979,9.50116],[-82.74029,9.51028],[-82.74682,9.51837],[-82.76772,9.52702],[-82.77005,9.53339],[-82.78001,9.53996],[-82.80321,9.54104],[-82.82984,9.54846],[-82.79625,9.58356],[-82.78744,9.59627],[-82.77628,9.58469],[-82.7699,9.58639],[-82.76186,9.59455],[-82.75169,9.59003],[-82.74456,9.59402],[-82.74224,9.59014],[-82.74783,9.5823],[-82.74314,9.56871],[-82.73006,9.56558],[-82.72621,9.56089],[-82.72902,9.5545],[-82.71878,9.55105],[-82.71539,9.54596],[-82.71211,9.54738],[-82.71082,9.55393],[-82.70683,9.5546],[-82.70346,9.54621],[-82.69507,9.54378],[-82.69303,9.53985],[-82.69259,9.53484],[-82.6997,9.53178],[-82.70069,9.52824],[-82.69238,9.51975],[-82.69161,9.51236],[-82.68062,9.50721],[-82.67568,9.51369],[-82.67197,9.50149],[-82.66416,9.50097]]]}},{"type":"Feature","properties":{"corregimiento":"Cochigró","distrito":"Changuinola","provincia":"Bocas del Toro","bbox":[-82.62751,9.1545,-82.47153,9.37009]},"geometry":{"type":"Polygon","coordinates":[[[-82.50847,9.34638],[-82.51296,9.346],[-82.51509,9.3385],[-82.52552,9.33061],[-82.52033,9.32235],[-82.49363,9.31366],[-82.47153,9.29543],[-82.47507,9.28617],[-82.47284,9.27255],[-82.48626,9.27313],[-82.49103,9.26856],[-82.49572,9.27093],[-82.49728,9.27821],[-82.50507,9.27625],[-82.51452,9.27938],[-82.51159,9.27257],[-82.52075,9.27196],[-82.52296,9.26949],[-82.52941,9.2588],[-82.52744,9.25076],[-82.53015,9.25124],[-82.53098,9.24814],[-82.52739,9.24543],[-82.5237,9.24643],[-82.51717,9.22661],[-82.52179,9.22045],[-82.52373,9.20672],[-82.52871,9.20541],[-82.53283,9.19454],[-82.53826,9.19509],[-82.53897,9.19823],[-82.54795,9.18771],[-82.56037,9.18825],[-82.5612,9.18425],[-82.56565,9.18219],[-82.57268,9.17026],[-82.57803,9.16643],[-82.57882,9.15984],[-82.59116,9.1545],[-82.60096,9.15757],[-82.62751,9.18511],[-82.62675,9.18983],[-82.62318,9.18898],[-82.62033,9.19214],[-82.6146,9.20634],[-82.61518,9.21234],[-82.61047,9.21369],[-82.60789,9.21826],[-82.61099,9.23121],[-82.59942,9.23858],[-82.60336,9.2441],[-82.60787,9.26581],[-82.61236,9.26895],[-82.61485,9.27622],[-82.61355,9.28406],[-82.61815,9.29667],[-82.60492,9.31245],[-82.60017,9.3233],[-82.60146,9.32957],[-82.59825,9.3303],[-82.59741,9.33412],[-82.58647,9.33319],[-82.57843,9.34261],[-82.56505,9.33772],[-82.5597,9.3475],[-82.53782,9.35304],[-82.53859,9.36027],[-82.5289,9.37009],[-82.50847,9.34638]]]}},{"type":"Feature","properties":{"corregimiento":"La Gloria","distrito":"Changuinola","provincia":"Bocas del Toro","bbox":[-82.52829,9.29543,-82.34137,9.46367]},"geometry":{"type":"Polygon","coordinates":[[[-82.4448,9.46367],[-82.43341,9.45906],[-82.39268,9.42327],[-82.38028,9.41684],[-82.36709,9.41519],[-82.36111,9.4175],[-82.35524,9.42334],[-82.35274,9.43478],[-82.34276,9.43191],[-82.34137,9.42884],[-82.34424,9.41945],[-82.35104,9.41644],[-82.35443,9.39865],[-82.35736,9.3975],[-82.35301,9.38371],[-82.36263,9.37541],[-82.36879,9.37934],[-82.3676,9.37535],[-82.37211,9.36928],[-82.37847,9.37083],[-82.38881,9.34451],[-82.38772,9.3393],[-82.42075,9.35059],[-82.42348,9.35065],[-82.4262,9.34452],[-82.43169,9.34365],[-82.44288,9.34718],[-82.45254,9.35511],[-82.46042,9.35727],[-82.46403,9.35443],[-82.47304,9.36063],[-82.47153,9.29543],[-82.49363,9.31366],[-82.52033,9.32235],[-82.52552,9.33061],[-82.51509,9.3385],[-82.51296,9.346],[-82.50847,9.34638],[-82.52829,9.37028],[-82.52345,9.3704],[-82.52089,9.37428],[-82.52507,9.39197],[-82.52013,9.39066],[-82.51997,9.38654],[-82.51536,9.38327],[-82.50961,9.38456],[-82.50819,9.3821],[-82.49983,9.39446],[-82.487,9.39047],[-82.49082,9.39632],[-82.48073,9.40381],[-82.4753,9.40327],[-82.47024,9.41557],[-82.46333,9.42065],[-82.46187,9.42914],[-82.45874,9.43178],[-82.46007,9.4381],[-82.44749,9.45416],[-82.4448,9.46367]]]}},{"type":"Feature","properties":{"corregimiento":"Las Delicias","distrito":"Changuinola","provincia":"Bocas del Toro","bbox":[-82.94349,9.1627,-82.73977,9.61702]},"geometry":{"type":"Polygon","coordinates":[[[-82.78744,9.59627],[-82.79625,9.58356],[-82.82984,9.54846],[-82.80321,9.54104],[-82.77987,9.5399],[-82.77005,9.53339],[-82.76782,9.52708],[-82.75216,9.52142],[-82.74111,9.51232],[-82.73977,9.50123],[-82.74572,9.49579],[-82.74221,9.46688],[-82.74573,9.43377],[-82.74291,9.42918],[-82.748,9.42124],[-82.76022,9.41871],[-82.76121,9.41196],[-82.76718,9.4082],[-82.76545,9.40514],[-82.77028,9.38679],[-82.77767,9.38424],[-82.78759,9.37062],[-82.78748,9.35778],[-82.79663,9.35344],[-82.79273,9.34671],[-82.79845,9.34477],[-82.79929,9.33852],[-82.80346,9.33606],[-82.80138,9.32702],[-82.80492,9.32217],[-82.81331,9.32256],[-82.81767,9.31652],[-82.82901,9.31036],[-82.84228,9.31714],[-82.84597,9.31295],[-82.85456,9.31167],[-82.86679,9.29587],[-82.87184,9.29685],[-82.87789,9.29263],[-82.8819,9.28265],[-82.88133,9.2716],[-82.88533,9.2703],[-82.88535,9.26561],[-82.89094,9.26226],[-82.88927,9.24492],[-82.89432,9.24045],[-82.89499,9.23061],[-82.90446,9.21739],[-82.90896,9.21812],[-82.91255,9.20818],[-82.92279,9.20737],[-82.9194,9.20551],[-82.91738,9.19588],[-82.92214,9.19362],[-82.92215,9.18938],[-82.92621,9.18976],[-82.92433,9.18055],[-82.93522,9.1627],[-82.94349,9.4728],[-82.84088,9.49713],[-82.84441,9.49936],[-82.84274,9.50482],[-82.84785,9.5086],[-82.84758,9.51489],[-82.85679,9.51118],[-82.8538,9.5157],[-82.85491,9.51972],[-82.86489,9.5182],[-82.8718,9.52383],[-82.8741,9.53853],[-82.8669,9.54521],[-82.87083,9.55204],[-82.8679,9.55336],[-82.881,9.55556],[-82.88187,9.56264],[-82.88543,9.56538],[-82.87686,9.58154],[-82.87776,9.58994],[-82.87537,9.59295],[-82.87232,9.5947],[-82.86542,9.59017],[-82.85903,9.59102],[-82.86331,9.59486],[-82.86431,9.6015],[-82.85871,9.61228],[-82.84671,9.61702],[-82.8403,9.61604],[-82.83328,9.6117],[-82.82569,9.61128],[-82.82453,9.60442],[-82.81839,9.6027],[-82.81624,9.597],[-82.80421,9.59595],[-82.79944,9.59964],[-82.78744,9.59627]]]}},{"type":"Feature","properties":{"corregimiento":"Barriada 4 de Abril","distrito":"Changuinola","provincia":"Bocas del Toro","bbox":[-82.56159,9.45076,-82.52294,9.49539]},"geometry":{"type":"Polygon","coordinates":[[[-82.52294,9.47276],[-82.53808,9.45099],[-82.56159,9.45076],[-82.5572,9.46325],[-82.55206,9.46381],[-82.54811,9.46964],[-82.5398,9.4726],[-82.53701,9.48299],[-82.52885,9.49539],[-82.52294,9.47276]]]}},{"type":"Feature","properties":{"corregimiento":"El Silencio","distrito":"Changuinola","provincia":"Bocas del Toro","bbox":[-82.63549,9.35888,-82.52091,9.43792]},"geometry":{"type":"Polygon","coordinates":[[[-82.58265,9.43792],[-82.5774,9.42386],[-82.56983,9.41398],[-82.56104,9.41016],[-82.53907,9.41389],[-82.53444,9.39439],[-82.5217,9.39658],[-82.52534,9.38981],[-82.52091,9.37676],[-82.52259,9.37105],[-82.54058,9.37385],[-82.56,9.38545],[-82.57687,9.3761],[-82.57847,9.36189],[-82.58221,9.35888],[-82.63549,9.38418],[-82.63275,9.39191],[-82.63417,9.39693],[-82.61602,9.39383],[-82.61147,9.39935],[-82.60983,9.40276],[-82.61673,9.40848],[-82.61485,9.4147],[-82.59961,9.423],[-82.59784,9.43273],[-82.5942,9.43442],[-82.58951,9.43154],[-82.58467,9.4332],[-82.58265,9.43792]]]}},{"type":"Feature","properties":{"corregimiento":"Finca 6","distrito":"Changuinola","provincia":"Bocas del Toro","bbox":[-82.52885,9.45518,-82.45731,9.53044]},"geometry":{"type":"Polygon","coordinates":[[[-82.45731,9.48164],[-82.47881,9.4715],[-82.50325,9.45518],[-82.52294,9.47276],[-82.52885,9.49539],[-82.52637,9.5],[-82.51896,9.50129],[-82.51707,9.50677],[-82.50825,9.51498],[-82.50783,9.52258],[-82.51683,9.53044],[-82.45731,9.48164]]]}},{"type":"Feature","properties":{"corregimiento":"Finca 30","distrito":"Changuinola","provincia":"Bocas del Toro","bbox":[-82.58181,9.41016,-82.53809,9.45099]},"geometry":{"type":"Polygon","coordinates":[[[-82.54049,9.43084],[-82.53891,9.41395],[-82.56104,9.41016],[-82.56983,9.41398],[-82.5774,9.42386],[-82.58181,9.43571],[-82.57341,9.44669],[-82.56207,9.45078],[-82.53809,9.45099],[-82.54049,9.43084]]]}},{"type":"Feature","properties":{"corregimiento":"Finca 60","distrito":"Changuinola","provincia":"Bocas del Toro","bbox":[-82.51816,9.41197,-82.44476,9.48156]},"geometry":{"type":"Polygon","coordinates":[[[-82.45752,9.48156],[-82.44535,9.4721],[-82.44476,9.46387],[-82.4468,9.45542],[-82.4556,9.44163],[-82.4597,9.4386],[-82.47396,9.43688],[-82.48832,9.42356],[-82.50939,9.41773],[-82.51484,9.41197],[-82.51816,9.42644],[-82.50925,9.43474],[-82.50867,9.44368],[-82.50325,9.45518],[-82.47881,9.4715],[-82.45752,9.48156]]]}}]}