{"type":"FeatureCollection","features":[{"type":"Feature","properties":{"corregimiento":"Chiriquí Grande (Cabecera)","distrito":"Chiriquí Grande","provincia":"Bocas del Toro","bbox":[-82.1725,8.89338,-82.00178,8.98777]},"geometry":{"type":"MultiPolygon","coordinates":[[[[-82.01499,8.9549],[-82.00179,8.95705],[-82.00178,8.95479],[-82.00952,8.9543],[-82.01053,8.94977],[-82.0165,8.94528],[-82.01204,8.93679],[-82.01802,8.93122],[-82.01897,8.92518],[-82.01588,8.91774],[-82.01088,8.91982],[-82.01053,8.91666],[-82.01834,8.90973],[-82.02163,8.91111],[-82.02093,8.90507],[-82.02554,8.90244],[-82.02454,8.89848],[-82.02774,8.89689],[-82.03117,8.90399],[-82.031,8.90024],[-82.03599,8.8986],[-82.03517,8.89341],[-82.0401,8.89338],[-82.0426,8.89804],[-82.04105,8.90344],[-82.03627,8.9002],[-82.03389,8.90143],[-82.03604,8.90869],[-82.02714,8.90641],[-82.02629,8.90838],[-82.02276,8.90566],[-82.02225,8.91199],[-82.02704,8.91088],[-82.02816,8.91378],[-82.02702,8.91712],[-82.02287,8.91713],[-82.0193,8.9132],[-82.01793,8.91632],[-82.02227,8.92868],[-82.01615,8.93734],[-82.01868,8.94582],[-82.01499,8.9549]]],[[[-82.05609,8.93755],[-82.03737,8.93728],[-82.03141,8.92999],[-82.05403,8.90611],[-82.06433,8.90825],[-82.06369,8.9049],[-82.06749,8.90419],[-82.07316,8.90869],[-82.07395,8.91419],[-82.07063,8.91598],[-82.0685,8.91326],[-82.06431,8.91849],[-82.06098,8.9119],[-82.06314,8.91008],[-82.05443,8.91372],[-82.0548,8.92201],[-82.0614,8.92716],[-82.05609,8.93755]]],[[[-82.13503,8.98777],[-82.13036,8.97992],[-82.13134,8.96916],[-82.11651,8.95302],[-82.11102,8.95078],[-82.11493,8.95202],[-82.11634,8.95125],[-82.11169,8.94318],[-82.11035,8.9333],[-82.10305,8.9318],[-82.10165,8.92752],[-82.09692,8.93114],[-82.09627,8.92693],[-82.08628,8.92653],[-82.08538,8.92126],[-82.09232,8.91516],[-82.09054,8.91021],[-82.09316,8.90617],[-82.12512,8.90983],[-82.14515,8.90353],[-82.15846,8.90422],[-82.16364,8.90756],[-82.16246,8.91532],[-82.16802,8.9216],[-82.16742,8.92601],[-82.17242,8.9359],[-82.1725,8.94018],[-82.16938,8.94171],[-82.16878,8.95439],[-82.16222,8.95773],[-82.16374,8.96036],[-82.15884,8.96206],[-82.15865,8.96721],[-82.15048,8.96756],[-82.1405,8.98551],[-82.13647,8.985],[-82.13503,8.98777]]]]}},{"type":"Feature","properties":{"corregimiento":"Miramar","distrito":"Chiriquí Grande","provincia":"Bocas del Toro","bbox":[-82.27155,8.95516,-82.17601,9.01309]},"geometry":{"type":"Polygon","coordinates":[[[-82.17996,9.00483],[-82.18331,8.99819],[-82.18036,8.99705],[-82.1806,8.99381],[-82.17844,8.99496],[-82.17601,8.98877],[-82.18335,8.97813],[-82.18117,8.97267],[-82.18612,8.96442],[-82.18688,8.95516],[-82.19877,8.95748],[-82.20202,8.96177],[-82.20818,8.95819],[-82.2079,8.96213],[-82.20094,8.9667],[-82.20945,8.96462],[-82.21172,8.96843],[-82.20747,8.97115],[-82.21028,8.97436],[-82.20641,8.97779],[-82.20751,8.9808],[-82.21447,8.97233],[-82.21868,8.97717],[-82.22336,8.9706],[-82.23369,8.98198],[-82.23997,8.97794],[-82.2576,8.98514],[-82.25859,8.99517],[-82.268,8.98085],[-82.27155,8.98331],[-82.26115,8.99396],[-82.27066,8.99571],[-82.26566,9.0022],[-82.26411,9.01247],[-82.25717,9.01309],[-82.24894,9.00934],[-82.24331,8.99774],[-82.23759,9.00117],[-82.23057,8.99812],[-82.22186,8.99889],[-82.21174,8.98977],[-82.1854,8.99225],[-82.18742,9.00169],[-82.18179,9.00607],[-82.17996,9.00483]]]}},{"type":"Feature","properties":{"corregimiento":"Punta Peña","distrito":"Chiriquí Grande","provincia":"Bocas del Toro","bbox":[-82.19112,8.8528,-82.14515,8.93016]},"geometry":{"type":"Polygon","coordinates":[[[-82.1853,8.93016],[-82.15846,8.90422],[-82.14515,8.90353],[-82.1601,8.89354],[-82.16068,8.88326],[-82.16743,8.88011],[-82.16946,8.87485],[-82.1667,8.86809],[-82.16849,8.86213],[-82.18181,8.8528],[-82.18346,8.86047],[-82.18989,8.86351],[-82.19112,8.87004],[-82.18428,8.88102],[-82.18826,8.89438],[-82.18551,8.90292],[-82.18913,8.91071],[-82.1853,8.93016]]]}},{"type":"Feature","properties":{"corregimiento":"Rambala","distrito":"Chiriquí Grande","provincia":"Bocas del Toro","bbox":[-82.21833,8.89656,-82.13503,9.00483]},"geometry":{"type":"Polygon","coordinates":[[[-82.17881,8.99783],[-82.1675,8.9916],[-82.16033,8.99484],[-82.14693,8.98636],[-82.14241,8.98686],[-82.14025,8.9902],[-82.13503,8.98777],[-82.14524,8.98002],[-82.15048,8.96756],[-82.15865,8.96721],[-82.15884,8.96206],[-82.16374,8.96036],[-82.16222,8.95773],[-82.16878,8.95439],[-82.16938,8.94171],[-82.1725,8.94018],[-82.17242,8.9359],[-82.16742,8.92601],[-82.16802,8.9216],[-82.16246,8.91532],[-82.16364,8.90756],[-82.1853,8.93016],[-82.18913,8.91071],[-82.18551,8.90292],[-82.18738,8.89656],[-82.19246,8.90409],[-82.19713,8.90159],[-82.21506,8.90127],[-82.21833,8.90298],[-82.21426,8.9106],[-82.21463,8.92478],[-82.21041,8.92435],[-82.20883,8.92828],[-82.2059,8.9217],[-82.19868,8.92017],[-82.19709,8.92469],[-82.19982,8.92664],[-82.19414,8.92652],[-82.19644,8.93155],[-82.19231,8.93924],[-82.19738,8.93818],[-82.19861,8.94295],[-82.1897,8.94407],[-82.19084,8.9494],[-82.18571,8.95688],[-82.18633,8.96377],[-82.18117,8.97267],[-82.18335,8.97813],[-82.17601,8.98877],[-82.17844,8.99496],[-82.1806,8.99381],[-82.18036,8.99705],[-82.18331,8.99819],[-82.17996,9.00483],[-82.17881,8.99783]]]}},{"type":"Feature","properties":{"corregimiento":"Punta Róbalo","distrito":"Chiriquí Grande","provincia":"Bocas del Toro","bbox":[-82.32127,8.99702,-82.24362,9.09236]},"geometry":{"type":"Polygon","coordinates":[[[-82.26415,9.09236],[-82.25829,9.09121],[-82.25158,9.08507],[-82.24737,9.08578],[-82.24679,9.09014],[-82.24362,9.08934],[-82.2485,9.06868],[-82.24879,9.01966],[-82.25351,9.01586],[-82.26048,9.01905],[-82.26396,9.0167],[-82.26566,9.0022],[-82.27056,8.99702],[-82.27458,9.00195],[-82.26831,9.00795],[-82.27314,9.01111],[-82.26851,9.01292],[-82.27378,9.01678],[-82.27712,9.01538],[-82.27949,9.00794],[-82.28834,9.01578],[-82.29607,9.0008],[-82.30023,9.00654],[-82.30375,9.00197],[-82.31227,9.00934],[-82.31451,9.00615],[-82.31945,9.01506],[-82.31743,9.0196],[-82.31301,9.01823],[-82.31167,9.02042],[-82.31418,9.02633],[-82.32127,9.02745],[-82.31876,9.03572],[-82.32041,9.03802],[-82.31543,9.03923],[-82.31021,9.04606],[-82.30406,9.04077],[-82.29667,9.04269],[-82.30796,9.05439],[-82.30016,9.05874],[-82.29584,9.05755],[-82.2928,9.06702],[-82.29069,9.06562],[-82.28457,9.07087],[-82.27698,9.0704],[-82.27386,9.0753],[-82.26638,9.07541],[-82.2689,9.07983],[-82.28033,9.07826],[-82.27524,9.0826],[-82.27561,9.08763],[-82.27088,9.08984],[-82.26677,9.08697],[-82.26415,9.09236]]]}},{"type":"Feature","properties":{"corregimiento":"Bajo Cedro","distrito":"Chiriquí Grande","provincia":"Bocas del Toro","bbox":[-82.349,9.08536,-82.25334,9.15465]},"geometry":{"type":"MultiPolygon","coordinates":[[[[-82.25382,9.11171],[-82.25334,9.1091],[-82.2618,9.10919],[-82.2718,9.11531],[-82.27787,9.11386],[-82.28077,9.10677],[-82.27795,9.10168],[-82.2753,9.10254],[-82.27478,9.09761],[-82.2711,9.10011],[-82.27032,9.09556],[-82.26426,9.0938],[-82.26651,9.08709],[-82.27088,9.08984],[-82.27561,9.08763],[-82.27553,9.0926],[-82.28084,9.09141],[-82.28276,9.09489],[-82.28622,9.08536],[-82.29416,9.0879],[-82.29143,9.09673],[-82.29955,9.09719],[-82.30182,9.10002],[-82.30033,9.10351],[-82.30632,9.10273],[-82.30769,9.10604],[-82.32398,9.10953],[-82.32252,9.11362],[-82.31602,9.11542],[-82.31366,9.12195],[-82.31179,9.12166],[-82.31278,9.11418],[-82.30673,9.11166],[-82.30633,9.12156],[-82.30215,9.12779],[-82.30387,9.13068],[-82.30074,9.13051],[-82.30617,9.13636],[-82.31049,9.12972],[-82.31329,9.13229],[-82.3125,9.13961],[-82.31886,9.13959],[-82.31912,9.14167],[-82.31456,9.14756],[-82.33081,9.14295],[-82.33167,9.1473],[-82.32703,9.15154],[-82.32532,9.14925],[-82.31853,9.15257],[-82.31596,9.14919],[-82.31134,9.15465],[-82.30292,9.14824],[-82.30017,9.14053],[-82.29285,9.13713],[-82.28874,9.12206],[-82.27631,9.12121],[-82.26328,9.11266],[-82.25382,9.11171]]],[[[-82.33372,9.14574],[-82.33222,9.14342],[-82.33518,9.13746],[-82.34052,9.13334],[-82.33784,9.13345],[-82.33984,9.12796],[-82.349,9.1288],[-82.34429,9.13351],[-82.34808,9.14185],[-82.33372,9.14574]]]]}}]}