{"type":"FeatureCollection","features":[{"type":"Feature","properties":{"corregimiento":"Valle de Riscó","distrito":"Almirante","provincia":"Bocas del Toro","bbox":[-82.54985,8.81612,-82.33497,9.28615]},"geometry":{"type":"Polygon","coordinates":[[[-82.38709,9.19867],[-82.39822,9.19273],[-82.40251,9.18359],[-82.41797,9.18112],[-82.42563,9.16696],[-82.42257,9.16469],[-82.42545,9.15878],[-82.42357,9.15586],[-82.4278,9.15374],[-82.4311,9.14246],[-82.42182,9.12875],[-82.4163,9.13054],[-82.41005,9.12725],[-82.40259,9.11677],[-82.40504,9.1121],[-82.40115,9.11119],[-82.40445,9.10514],[-82.39954,9.10075],[-82.39932,9.09661],[-82.40375,9.08323],[-82.39851,9.07842],[-82.3981,9.07405],[-82.40118,9.06416],[-82.38449,9.02012],[-82.3954,9.00952],[-82.39664,9.00383],[-82.40203,9.00298],[-82.40384,8.99934],[-82.41457,8.99743],[-82.42319,8.98285],[-82.41409,8.97392],[-82.41035,8.97559],[-82.40594,8.97069],[-82.39665,8.97115],[-82.39096,8.96758],[-82.38261,8.96843],[-82.37514,8.96515],[-82.35424,8.94533],[-82.35051,8.93825],[-82.35054,8.93046],[-82.34512,8.92358],[-82.34519,8.91297],[-82.33672,8.90615],[-82.33497,8.89002],[-82.34538,8.88455],[-82.34946,8.87914],[-82.35046,8.8451],[-82.35417,8.84238],[-82.35595,8.82788],[-82.35907,8.82353],[-82.36613,8.82348],[-82.37181,8.81612],[-82.384,8.81799],[-82.394,8.82667],[-82.40714,8.83218],[-82.41182,8.82984],[-82.42176,8.83503],[-82.42721,8.83399],[-82.43127,8.84045],[-82.43789,8.83953],[-82.4396,8.84387],[-82.45235,8.84692],[-82.4624,8.8622],[-82.47053,8.86321],[-82.47409,8.85913],[-82.47948,8.85999],[-82.4871,8.86691],[-82.50233,8.86761],[-82.51642,8.87568],[-82.52949,8.86771],[-82.53688,8.87604],[-82.53987,8.88421],[-82.54985,8.89233],[-82.54189,8.89144],[-82.53615,8.90018],[-82.51851,8.9052],[-82.51794,8.92384],[-82.51093,8.93947],[-82.50234,8.94505],[-82.49886,8.95131],[-82.49526,8.97245],[-82.48407,8.98628],[-82.47286,8.99273],[-82.48172,9.01277],[-82.49016,9.01607],[-82.49155,9.02237],[-82.49703,9.02476],[-82.50195,9.03783],[-82.52072,9.04519],[-82.53208,9.07108],[-82.52949,9.07235],[-82.53373,9.08309],[-82.53043,9.08889],[-82.53718,9.09654],[-82.52825,9.10338],[-82.52581,9.09996],[-82.53115,9.10829],[-82.53004,9.11168],[-82.52401,9.11424],[-82.52222,9.12089],[-82.51832,9.121],[-82.51,9.13655],[-82.50505,9.13718],[-82.50413,9.14109],[-82.50717,9.14499],[-82.50461,9.15248],[-82.49922,9.15657],[-82.48915,9.17301],[-82.49415,9.18144],[-82.48262,9.18217],[-82.48077,9.19162],[-82.47475,9.19724],[-82.47505,9.2089],[-82.47175,9.21692],[-82.47682,9.22142],[-82.46098,9.23344],[-82.46535,9.23915],[-82.46431,9.24678],[-82.47346,9.25393],[-82.47175,9.25888],[-82.47398,9.26143],[-82.4697,9.26404],[-82.46846,9.26905],[-82.47284,9.27255],[-82.47506,9.28615],[-82.45828,9.26934],[-82.43656,9.25479],[-82.39976,9.22214],[-82.39629,9.20892],[-82.38709,9.19867]]]}},{"type":"Feature","properties":{"corregimiento":"Almirante (Cabecera)","distrito":"Almirante","provincia":"Bocas del Toro","bbox":[-82.42211,9.28903,-82.37689,9.34722]},"geometry":{"type":"Polygon","coordinates":[[[-82.41143,9.34722],[-82.39075,9.34143],[-82.37689,9.32644],[-82.39932,9.28903],[-82.40123,9.29388],[-82.4221,9.29715],[-82.42211,9.30063],[-82.41124,9.30068],[-82.41143,9.34722]]]}},{"type":"Feature","properties":{"corregimiento":"Barrio Francés","distrito":"Almirante","provincia":"Bocas del Toro","bbox":[-82.39932,9.27954,-82.34434,9.32644]},"geometry":{"type":"Polygon","coordinates":[[[-82.37698,9.32644],[-82.34845,9.30691],[-82.34434,9.29696],[-82.35739,9.29396],[-82.35785,9.28325],[-82.36262,9.28377],[-82.36554,9.27954],[-82.3688,9.28264],[-82.37592,9.28159],[-82.38339,9.28523],[-82.38916,9.29189],[-82.39058,9.28977],[-82.39151,9.29088],[-82.39456,9.2917],[-82.38931,9.28749],[-82.39597,9.29086],[-82.39932,9.28903],[-82.37698,9.32644]]]}},{"type":"Feature","properties":{"corregimiento":"Nance de Riscó","distrito":"Almirante","provincia":"Bocas del Toro","bbox":[-82.88794,8.89144,-82.46098,9.27938]},"geometry":{"type":"Polygon","coordinates":[[[-82.47284,9.27255],[-82.46846,9.26893],[-82.4697,9.26404],[-82.47398,9.26143],[-82.47175,9.25888],[-82.47346,9.25393],[-82.46431,9.24678],[-82.46535,9.23915],[-82.46098,9.23344],[-82.47682,9.22142],[-82.47175,9.21692],[-82.47505,9.2089],[-82.47475,9.19724],[-82.48077,9.19162],[-82.48262,9.18217],[-82.49415,9.18144],[-82.48915,9.17301],[-82.49922,9.15657],[-82.50461,9.15248],[-82.50717,9.14499],[-82.50413,9.14109],[-82.50505,9.13718],[-82.51,9.13655],[-82.51832,9.121],[-82.52222,9.12089],[-82.52401,9.11424],[-82.53004,9.11168],[-82.53115,9.10829],[-82.52659,9.10418],[-82.52581,9.09996],[-82.52825,9.10338],[-82.53718,9.09654],[-82.53043,9.08889],[-82.53373,9.08309],[-82.52949,9.07235],[-82.53208,9.07108],[-82.52072,9.04519],[-82.50195,9.03783],[-82.49703,9.02476],[-82.49155,9.02237],[-82.49016,9.01607],[-82.48172,9.01277],[-82.47286,8.99273],[-82.48407,8.98628],[-82.49526,8.97245],[-82.49886,8.95131],[-82.50234,8.94505],[-82.51093,8.93947],[-82.51794,8.92384],[-82.51851,8.9052],[-82.53615,8.90018],[-82.54189,8.89144],[-82.54985,8.89233],[-82.5661,8.90786],[-82.58597,8.90881],[-82.59316,8.91315],[-82.60026,8.90817],[-82.61821,8.90588],[-82.62587,8.91056],[-82.62412,8.9158],[-82.62772,8.91742],[-82.63025,8.91002],[-82.6366,8.90599],[-82.64059,8.89909],[-82.64588,8.90454],[-82.65605,8.9086],[-82.6615,8.9054],[-82.67032,8.90655],[-82.67218,8.90361],[-82.69402,8.89777],[-82.69926,8.91345],[-82.70778,8.91485],[-82.71227,8.92234],[-82.71611,8.94852],[-82.73835,8.96616],[-82.7371,8.97723],[-82.74061,8.98532],[-82.76221,8.99846],[-82.78119,9.0039],[-82.80006,9.00427],[-82.80556,9.00997],[-82.80553,9.0162],[-82.81555,9.01907],[-82.81317,9.02327],[-82.81696,9.02961],[-82.82797,9.03475],[-82.83575,9.03453],[-82.83873,9.03919],[-82.8546,9.04655],[-82.85963,9.056],[-82.86884,9.05435],[-82.87756,9.06105],[-82.87807,9.0682],[-82.88775,9.08207],[-82.88794,9.08812],[-82.87361,9.1026],[-82.87439,9.11701],[-82.86197,9.11031],[-82.85052,9.10802],[-82.84425,9.11378],[-82.824,9.11416],[-82.81607,9.12761],[-82.80914,9.13239],[-82.799,9.15073],[-82.78886,9.1561],[-82.78254,9.16381],[-82.77455,9.16273],[-82.7757,9.16777],[-82.76534,9.18351],[-82.75591,9.18496],[-82.74251,9.19743],[-82.73362,9.1996],[-82.73455,9.21022],[-82.72755,9.21439],[-82.725,9.22174],[-82.71176,9.21592],[-82.70642,9.21838],[-82.69229,9.20812],[-82.67299,9.20354],[-82.66207,9.1973],[-82.65533,9.1906],[-82.64562,9.16965],[-82.63562,9.18239],[-82.62747,9.18511],[-82.60096,9.15757],[-82.59116,9.1545],[-82.57872,9.15992],[-82.57803,9.16643],[-82.57268,9.17026],[-82.56565,9.18219],[-82.5612,9.18425],[-82.56037,9.18825],[-82.54795,9.18771],[-82.53897,9.19823],[-82.53826,9.19509],[-82.53283,9.19454],[-82.52871,9.20541],[-82.52368,9.20678],[-82.52179,9.22045],[-82.51717,9.22661],[-82.5237,9.24643],[-82.52739,9.24543],[-82.53098,9.24814],[-82.53015,9.25124],[-82.52744,9.25076],[-82.52941,9.2588],[-82.52296,9.26949],[-82.52075,9.27196],[-82.51159,9.27257],[-82.51452,9.27938],[-82.50507,9.27625],[-82.49728,9.27821],[-82.49572,9.27093],[-82.49103,9.26856],[-82.48626,9.27313],[-82.47284,9.27255]]]}},{"type":"Feature","properties":{"corregimiento":"Valle de Aguas Arriba","distrito":"Almirante","provincia":"Bocas del Toro","bbox":[-82.47503,9.16311,-82.28747,9.28627]},"geometry":{"type":"MultiPolygon","coordinates":[[[[-82.47062,9.28209],[-82.46746,9.28422],[-82.43983,9.2706],[-82.43826,9.27361],[-82.44118,9.27876],[-82.42082,9.26909],[-82.40047,9.25472],[-82.39123,9.26207],[-82.38744,9.25749],[-82.38044,9.25632],[-82.37975,9.25355],[-82.37505,9.25439],[-82.37025,9.24884],[-82.3626,9.24875],[-82.36092,9.24557],[-82.37053,9.24371],[-82.3661,9.23837],[-82.36948,9.2359],[-82.36696,9.23394],[-82.3687,9.22979],[-82.36807,9.22732],[-82.36341,9.22736],[-82.36462,9.2207],[-82.36179,9.21684],[-82.3608,9.21903],[-82.35553,9.21372],[-82.35212,9.21546],[-82.35326,9.2123],[-82.35272,9.21461],[-82.35637,9.21219],[-82.35512,9.20681],[-82.34925,9.2059],[-82.33774,9.19609],[-82.33428,9.19661],[-82.32703,9.19156],[-82.31942,9.18964],[-82.31632,9.19292],[-82.31281,9.18796],[-82.3066,9.19308],[-82.31185,9.20536],[-82.30093,9.20004],[-82.29299,9.20035],[-82.28747,9.1968],[-82.29244,9.19143],[-82.28906,9.18815],[-82.28959,9.17984],[-82.29948,9.1779],[-82.30412,9.1741],[-82.31177,9.17527],[-82.31927,9.17208],[-82.33207,9.17577],[-82.34302,9.16311],[-82.34734,9.16804],[-82.35363,9.16692],[-82.3641,9.17113],[-82.36944,9.1812],[-82.39557,9.20774],[-82.39961,9.22198],[-82.43656,9.25479],[-82.45828,9.26934],[-82.47225,9.2815],[-82.47503,9.28627],[-82.47062,9.28209]]],[[[-82.34759,9.24335],[-82.3285,9.23697],[-82.325,9.22405],[-82.33333,9.2334],[-82.34063,9.23179],[-82.35078,9.2382],[-82.35195,9.24152],[-82.34759,9.24335]]]]}},{"type":"Feature","properties":{"corregimiento":"Barriada Guaymí","distrito":"Almirante","provincia":"Bocas del Toro","bbox":[-82.47503,9.25499,-82.39112,9.36063]},"geometry":{"type":"Polygon","coordinates":[[[-82.47304,9.36063],[-82.46389,9.35445],[-82.46031,9.35727],[-82.45265,9.35515],[-82.44288,9.34718],[-82.43032,9.34334],[-82.4262,9.34452],[-82.42348,9.35065],[-82.41143,9.34722],[-82.41124,9.30068],[-82.42211,9.30063],[-82.4221,9.29715],[-82.41123,9.29703],[-82.40185,9.29322],[-82.40335,9.28995],[-82.39801,9.2871],[-82.39786,9.27873],[-82.39277,9.2729],[-82.39776,9.27578],[-82.39704,9.27293],[-82.40024,9.27175],[-82.39499,9.26835],[-82.39782,9.26375],[-82.39112,9.26237],[-82.39934,9.25499],[-82.44118,9.27876],[-82.43826,9.27361],[-82.43983,9.2706],[-82.46746,9.28422],[-82.47116,9.28221],[-82.47503,9.28627],[-82.47152,9.29553],[-82.47304,9.36063]]]}}]}