{"type":"FeatureCollection","features":[{"type":"Feature","properties":{"corregimiento":"Aguadulce (Cabecera)","distrito":"Aguadulce","provincia":"Coclé","bbox":[-80.6132,8.17371,-80.48611,8.28]},"geometry":{"type":"Polygon","coordinates":[[[-80.5135,8.28],[-80.50124,8.27962],[-80.49802,8.27742],[-80.49842,8.27414],[-80.49327,8.27663],[-80.49369,8.2724],[-80.49051,8.27404],[-80.4878,8.27005],[-80.49018,8.2684],[-80.49273,8.2706],[-80.4907,8.26636],[-80.49516,8.26351],[-80.48611,8.25418],[-80.49339,8.251],[-80.49142,8.24416],[-80.50025,8.24294],[-80.49935,8.24048],[-80.50173,8.24178],[-80.50411,8.23592],[-80.50558,8.23821],[-80.50334,8.23962],[-80.50405,8.24505],[-80.50408,8.24234],[-80.5074,8.24333],[-80.50626,8.23983],[-80.51048,8.24026],[-80.51092,8.2367],[-80.51703,8.23691],[-80.5243,8.24535],[-80.53933,8.23833],[-80.5436,8.24011],[-80.5469,8.23755],[-80.55322,8.24074],[-80.5521,8.23443],[-80.56177,8.23218],[-80.55787,8.22413],[-80.56324,8.2027],[-80.5671,8.20076],[-80.56207,8.1954],[-80.56597,8.18461],[-80.56962,8.18218],[-80.56833,8.17453],[-80.57267,8.17371],[-80.57863,8.17992],[-80.58355,8.18068],[-80.58393,8.18356],[-80.5871,8.18203],[-80.59022,8.18434],[-80.59474,8.18163],[-80.59752,8.18934],[-80.6101,8.19115],[-80.6132,8.19678],[-80.61015,8.20135],[-80.61278,8.20483],[-80.60698,8.21155],[-80.6078,8.22117],[-80.56335,8.2458],[-80.54374,8.25252],[-80.53453,8.25148],[-80.52535,8.27264],[-80.51935,8.27226],[-80.51993,8.27518],[-80.5135,8.28]]]}},{"type":"Feature","properties":{"corregimiento":"El Cristo","distrito":"Aguadulce","provincia":"Coclé","bbox":[-80.66208,8.20316,-80.58629,8.30862]},"geometry":{"type":"Polygon","coordinates":[[[-80.64944,8.30565],[-80.6463,8.30101],[-80.64272,8.3047],[-80.63471,8.30329],[-80.63128,8.30741],[-80.62227,8.29946],[-80.61205,8.29622],[-80.60858,8.28562],[-80.60215,8.28261],[-80.59527,8.28372],[-80.59164,8.2783],[-80.58665,8.2769],[-80.58847,8.27225],[-80.60817,8.25903],[-80.58763,8.23926],[-80.58629,8.23398],[-80.6078,8.22117],[-80.60698,8.21155],[-80.61541,8.20316],[-80.61964,8.21389],[-80.61462,8.21871],[-80.61738,8.22207],[-80.63621,8.22053],[-80.65299,8.21425],[-80.66168,8.22709],[-80.66208,8.27097],[-80.6519,8.26689],[-80.64687,8.26654],[-80.64447,8.27038],[-80.63949,8.27111],[-80.63134,8.26757],[-80.63384,8.27426],[-80.64283,8.27712],[-80.64499,8.28364],[-80.65614,8.29076],[-80.65845,8.30006],[-80.65388,8.30862],[-80.64944,8.30565]]]}},{"type":"Feature","properties":{"corregimiento":"El Roble","distrito":"Aguadulce","provincia":"Coclé","bbox":[-80.68631,8.09122,-80.47846,8.21407]},"geometry":{"type":"Polygon","coordinates":[[[-80.61585,8.2031],[-80.61321,8.2051],[-80.61045,8.20268],[-80.6132,8.19685],[-80.61007,8.19112],[-80.59752,8.18934],[-80.59474,8.18163],[-80.59022,8.18434],[-80.5871,8.18203],[-80.58393,8.18356],[-80.58355,8.18068],[-80.57863,8.17992],[-80.57267,8.17371],[-80.56411,8.17729],[-80.5599,8.17518],[-80.55994,8.17239],[-80.54974,8.17821],[-80.54318,8.17694],[-80.5376,8.16826],[-80.53973,8.16291],[-80.53341,8.16349],[-80.53435,8.16079],[-80.53224,8.1604],[-80.53521,8.15915],[-80.52981,8.15938],[-80.53028,8.1574],[-80.52688,8.16051],[-80.52903,8.16241],[-80.5255,8.16233],[-80.52398,8.16641],[-80.52634,8.16979],[-80.52876,8.16686],[-80.53344,8.16913],[-80.52742,8.17352],[-80.53185,8.17575],[-80.5293,8.1812],[-80.52493,8.17714],[-80.52396,8.17985],[-80.51544,8.18296],[-80.51173,8.1784],[-80.50866,8.18437],[-80.50461,8.17903],[-80.49484,8.17401],[-80.49201,8.17979],[-80.48699,8.18132],[-80.48922,8.16075],[-80.48683,8.13389],[-80.47846,8.10232],[-80.48449,8.09122],[-80.49736,8.09444],[-80.49769,8.10267],[-80.5052,8.10521],[-80.50627,8.11201],[-80.51067,8.11003],[-80.50851,8.10525],[-80.51014,8.10195],[-80.51701,8.10099],[-80.51904,8.10463],[-80.51737,8.11017],[-80.52574,8.11088],[-80.5231,8.11912],[-80.52542,8.12382],[-80.52701,8.11714],[-80.5338,8.11575],[-80.53179,8.12113],[-80.53907,8.12401],[-80.54054,8.11328],[-80.55109,8.11774],[-80.5527,8.10787],[-80.55678,8.10581],[-80.5614,8.10977],[-80.5568,8.1214],[-80.56717,8.12973],[-80.56655,8.13295],[-80.57302,8.13248],[-80.57761,8.13848],[-80.58443,8.13],[-80.59861,8.13448],[-80.59765,8.13802],[-80.58795,8.13918],[-80.5882,8.14498],[-80.59285,8.14523],[-80.59804,8.13994],[-80.61593,8.14097],[-80.63336,8.13657],[-80.6459,8.14025],[-80.64663,8.14692],[-80.65878,8.15884],[-80.67773,8.16058],[-80.67956,8.16319],[-80.6792,8.17551],[-80.68631,8.1916],[-80.67011,8.17986],[-80.66371,8.18695],[-80.66051,8.18126],[-80.65561,8.1865],[-80.63753,8.1909],[-80.6196,8.21407],[-80.61547,8.20774],[-80.61585,8.2031]]]}},{"type":"Feature","properties":{"corregimiento":"Pocrí","distrito":"Aguadulce","provincia":"Coclé","bbox":[-80.56009,8.24906,-80.52535,8.27537]},"geometry":{"type":"Polygon","coordinates":[[[-80.52535,8.27264],[-80.53453,8.25148],[-80.54374,8.25252],[-80.56009,8.24906],[-80.55449,8.25454],[-80.5546,8.26028],[-80.54067,8.27453],[-80.53175,8.27537],[-80.52535,8.27264]]]}},{"type":"Feature","properties":{"corregimiento":"Barrios Unidos","distrito":"Aguadulce","provincia":"Coclé","bbox":[-80.56965,8.15735,-80.47086,8.24535]},"geometry":{"type":"Polygon","coordinates":[[[-80.50029,8.24291],[-80.49359,8.2384],[-80.48686,8.23871],[-80.4912,8.22794],[-80.48934,8.2245],[-80.48373,8.228],[-80.48555,8.23816],[-80.47532,8.23665],[-80.4718,8.23118],[-80.47086,8.22432],[-80.47545,8.22302],[-80.48341,8.20296],[-80.48309,8.19863],[-80.47668,8.19324],[-80.48221,8.18166],[-80.49162,8.18006],[-80.49484,8.17401],[-80.50461,8.17903],[-80.50866,8.18437],[-80.51173,8.1784],[-80.51544,8.18296],[-80.52396,8.17985],[-80.52493,8.17714],[-80.5293,8.1812],[-80.53185,8.17575],[-80.52742,8.17352],[-80.53344,8.16913],[-80.52876,8.16686],[-80.52634,8.16979],[-80.52398,8.16641],[-80.5255,8.16233],[-80.52903,8.16241],[-80.52688,8.16051],[-80.52919,8.15735],[-80.53518,8.15911],[-80.53224,8.1604],[-80.53435,8.16079],[-80.53341,8.16349],[-80.53973,8.16291],[-80.5376,8.16826],[-80.54326,8.17698],[-80.54974,8.17821],[-80.55988,8.17238],[-80.5599,8.17518],[-80.5642,8.17729],[-80.56794,8.17393],[-80.56965,8.18206],[-80.56597,8.18461],[-80.56207,8.1954],[-80.5671,8.20076],[-80.56324,8.2027],[-80.55787,8.22413],[-80.56177,8.23218],[-80.5521,8.23443],[-80.55322,8.24074],[-80.5469,8.23755],[-80.5436,8.24011],[-80.53933,8.23833],[-80.5243,8.24535],[-80.51703,8.23691],[-80.51092,8.2367],[-80.51048,8.24026],[-80.50626,8.23983],[-80.5074,8.24333],[-80.50408,8.24234],[-80.50405,8.24505],[-80.50411,8.23592],[-80.50173,8.24178],[-80.49963,8.24029],[-80.50029,8.24291]]]}},{"type":"Feature","properties":{"corregimiento":"Pueblos Unidos","distrito":"Aguadulce","provincia":"Coclé","bbox":[-80.74654,8.1232,-80.61462,8.27645]},"geometry":{"type":"Polygon","coordinates":[[[-80.71006,8.27645],[-80.70747,8.27335],[-80.6986,8.27323],[-80.70376,8.24767],[-80.69134,8.23567],[-80.67937,8.22981],[-80.67681,8.22303],[-80.67026,8.22353],[-80.66335,8.21419],[-80.65829,8.21262],[-80.63589,8.22057],[-80.61738,8.22207],[-80.61462,8.21871],[-80.63753,8.1909],[-80.65561,8.1865],[-80.66051,8.18126],[-80.66371,8.18695],[-80.67011,8.17986],[-80.68631,8.1916],[-80.6793,8.17591],[-80.67794,8.16918],[-80.68024,8.16523],[-80.67788,8.16068],[-80.65878,8.15884],[-80.64663,8.14692],[-80.6459,8.14025],[-80.63433,8.13849],[-80.6332,8.13654],[-80.6433,8.1291],[-80.65014,8.13137],[-80.6648,8.1232],[-80.66551,8.12926],[-80.67979,8.13247],[-80.67709,8.1351],[-80.67144,8.13311],[-80.67598,8.13842],[-80.69428,8.13966],[-80.70238,8.14733],[-80.70091,8.15427],[-80.70504,8.1558],[-80.71074,8.15275],[-80.71963,8.15903],[-80.72064,8.16215],[-80.71488,8.16485],[-80.73418,8.17461],[-80.74654,8.18861],[-80.74413,8.19415],[-80.74124,8.19439],[-80.74159,8.19784],[-80.73443,8.19829],[-80.73377,8.20384],[-80.72317,8.21202],[-80.72417,8.22117],[-80.71655,8.23803],[-80.71727,8.24455],[-80.71165,8.2507],[-80.71721,8.25658],[-80.71638,8.26945],[-80.71386,8.27146],[-80.71621,8.27114],[-80.71635,8.27456],[-80.71006,8.27645]]]}},{"type":"Feature","properties":{"corregimiento":"Virgen del Carmen","distrito":"Aguadulce","provincia":"Coclé","bbox":[-80.60816,8.23398,-80.54412,8.2741]},"geometry":{"type":"Polygon","coordinates":[[[-80.56394,8.27196],[-80.55472,8.2664],[-80.54836,8.27057],[-80.54716,8.2675],[-80.5466,8.26891],[-80.54412,8.26915],[-80.55461,8.26025],[-80.55449,8.25454],[-80.56009,8.24906],[-80.55757,8.24778],[-80.58629,8.23398],[-80.58763,8.23926],[-80.60816,8.25884],[-80.58737,8.2741],[-80.58143,8.26885],[-80.57804,8.27148],[-80.56394,8.27196]]]}},{"type":"Feature","properties":{"corregimiento":"El Hato de San Juan de Dios","distrito":"Aguadulce","provincia":"Coclé","bbox":[-80.71213,8.21412,-80.63134,8.32664]},"geometry":{"type":"Polygon","coordinates":[[[-80.70214,8.32664],[-80.6851,8.31956],[-80.67562,8.32146],[-80.6693,8.31546],[-80.66114,8.31482],[-80.65872,8.30978],[-80.65388,8.30862],[-80.65845,8.30006],[-80.65602,8.29054],[-80.64968,8.28817],[-80.64291,8.2772],[-80.63571,8.27554],[-80.6314,8.26999],[-80.63134,8.26757],[-80.63762,8.27106],[-80.64387,8.27064],[-80.64717,8.26645],[-80.66208,8.27097],[-80.66293,8.23193],[-80.65299,8.21425],[-80.66321,8.21412],[-80.67026,8.22353],[-80.67669,8.22295],[-80.67937,8.22981],[-80.69134,8.23567],[-80.70376,8.24767],[-80.6986,8.27323],[-80.70735,8.27332],[-80.71213,8.27637],[-80.70904,8.29168],[-80.7036,8.29859],[-80.70505,8.30976],[-80.70214,8.32664]]]}}]}