{"type":"FeatureCollection","features":[{"type":"Feature","properties":{"corregimiento":"Antón (Cabecera)","distrito":"Antón","provincia":"Coclé","bbox":[-80.36329,8.2946,-80.24106,8.50811]},"geometry":{"type":"Polygon","coordinates":[[[-80.24403,8.45464],[-80.24361,8.43221],[-80.24727,8.42465],[-80.24412,8.42087],[-80.24488,8.41649],[-80.24844,8.41416],[-80.24809,8.40681],[-80.25402,8.4078],[-80.25851,8.39949],[-80.25671,8.39297],[-80.25126,8.39144],[-80.25157,8.38835],[-80.24437,8.38312],[-80.24496,8.377],[-80.24974,8.37481],[-80.24422,8.36962],[-80.24474,8.36273],[-80.24673,8.35981],[-80.24886,8.36402],[-80.25221,8.3614],[-80.25115,8.35056],[-80.26005,8.34964],[-80.26282,8.34661],[-80.26152,8.33222],[-80.26436,8.32366],[-80.26054,8.31416],[-80.26641,8.31022],[-80.26233,8.30951],[-80.2653,8.30886],[-80.26425,8.30386],[-80.26128,8.30456],[-80.26274,8.30139],[-80.27366,8.30337],[-80.27874,8.29904],[-80.30345,8.29608],[-80.31038,8.29732],[-80.31798,8.30094],[-80.30442,8.29785],[-80.3005,8.3007],[-80.2919,8.29963],[-80.29489,8.30252],[-80.29273,8.30255],[-80.29359,8.30513],[-80.3058,8.30628],[-80.35087,8.2946],[-80.36329,8.29485],[-80.34906,8.29632],[-80.33427,8.30361],[-80.3225,8.30498],[-80.32246,8.30875],[-80.326,8.30995],[-80.32291,8.31384],[-80.32567,8.31661],[-80.32408,8.31827],[-80.32663,8.31821],[-80.3248,8.3199],[-80.32732,8.33305],[-80.32419,8.34395],[-80.32681,8.34818],[-80.32072,8.35569],[-80.30971,8.36013],[-80.30576,8.36597],[-80.30619,8.37074],[-80.30075,8.37037],[-80.29647,8.37719],[-80.29754,8.3804],[-80.29228,8.38299],[-80.29635,8.40029],[-80.28998,8.40626],[-80.29152,8.41364],[-80.28527,8.41575],[-80.28604,8.41843],[-80.28076,8.42429],[-80.28752,8.42931],[-80.27993,8.43438],[-80.28225,8.43882],[-80.28196,8.44362],[-80.27906,8.44434],[-80.28078,8.45303],[-80.27413,8.45649],[-80.27512,8.45901],[-80.26965,8.45923],[-80.27316,8.466],[-80.2768,8.46723],[-80.27665,8.47309],[-80.27451,8.47225],[-80.27404,8.47602],[-80.27116,8.47514],[-80.26801,8.47831],[-80.2693,8.48959],[-80.26363,8.49104],[-80.26131,8.49573],[-80.25367,8.49948],[-80.25398,8.50244],[-80.24457,8.50811],[-80.24106,8.50222],[-80.24826,8.47861],[-80.24363,8.47035],[-80.24727,8.46443],[-80.24403,8.45464]]]}},{"type":"Feature","properties":{"corregimiento":"El Chirú","distrito":"Antón","provincia":"Coclé","bbox":[-80.26641,8.29991,-80.16377,8.46044]},"geometry":{"type":"Polygon","coordinates":[[[-80.2199,8.44728],[-80.22155,8.436],[-80.22635,8.43036],[-80.22366,8.42827],[-80.2249,8.42325],[-80.21687,8.41169],[-80.2191,8.40852],[-80.21478,8.3896],[-80.20948,8.40273],[-80.20181,8.40703],[-80.19473,8.43019],[-80.1912,8.43056],[-80.19181,8.42722],[-80.18471,8.41859],[-80.17717,8.41711],[-80.18087,8.41507],[-80.17703,8.40877],[-80.18359,8.40729],[-80.17342,8.38919],[-80.17385,8.38074],[-80.17911,8.37633],[-80.17428,8.36731],[-80.1761,8.36504],[-80.17206,8.35649],[-80.17298,8.35276],[-80.16377,8.33985],[-80.18456,8.32575],[-80.22675,8.30691],[-80.24812,8.29991],[-80.26106,8.30032],[-80.2614,8.30481],[-80.26413,8.30377],[-80.26515,8.30622],[-80.26515,8.30922],[-80.26237,8.3096],[-80.26641,8.31022],[-80.26054,8.31416],[-80.26436,8.32366],[-80.26152,8.33222],[-80.26282,8.34661],[-80.26005,8.34964],[-80.25115,8.35056],[-80.25221,8.3614],[-80.24886,8.36402],[-80.24673,8.35981],[-80.24474,8.36273],[-80.24422,8.36962],[-80.24974,8.37481],[-80.24496,8.377],[-80.24437,8.38312],[-80.25157,8.38835],[-80.25126,8.39144],[-80.25671,8.39297],[-80.25851,8.39949],[-80.25402,8.4078],[-80.24809,8.40681],[-80.24844,8.41416],[-80.24488,8.41649],[-80.24412,8.42087],[-80.24727,8.42465],[-80.24361,8.43221],[-80.24397,8.45497],[-80.23836,8.46044],[-80.23213,8.44549],[-80.2199,8.44728]]]}},{"type":"Feature","properties":{"corregimiento":"El Retiro","distrito":"Antón","provincia":"Coclé","bbox":[-80.22635,8.3896,-80.13098,8.50416]},"geometry":{"type":"Polygon","coordinates":[[[-80.15066,8.48197],[-80.14657,8.48464],[-80.13788,8.48416],[-80.13424,8.48327],[-80.13326,8.47969],[-80.13648,8.465],[-80.13565,8.45487],[-80.14104,8.44342],[-80.13845,8.43683],[-80.14024,8.42961],[-80.13442,8.41357],[-80.13098,8.41128],[-80.13296,8.40576],[-80.13119,8.40378],[-80.13826,8.39923],[-80.14117,8.39252],[-80.14421,8.39389],[-80.14042,8.40366],[-80.14496,8.40749],[-80.145,8.41143],[-80.14711,8.41103],[-80.14523,8.41312],[-80.14966,8.41512],[-80.14843,8.42222],[-80.15308,8.42539],[-80.14973,8.43242],[-80.15252,8.43189],[-80.16002,8.44358],[-80.167,8.44518],[-80.16213,8.43913],[-80.16698,8.42008],[-80.16331,8.41138],[-80.17122,8.39838],[-80.17696,8.39433],[-80.17998,8.39824],[-80.18358,8.40741],[-80.17703,8.40877],[-80.18087,8.41507],[-80.17717,8.41711],[-80.18471,8.41859],[-80.19181,8.42722],[-80.1912,8.43056],[-80.19473,8.43019],[-80.20181,8.40703],[-80.20948,8.40273],[-80.21478,8.3896],[-80.2191,8.40852],[-80.21687,8.41169],[-80.2249,8.42325],[-80.22366,8.42827],[-80.22635,8.43036],[-80.22155,8.436],[-80.22228,8.44084],[-80.21912,8.44468],[-80.22332,8.44858],[-80.21913,8.45039],[-80.21731,8.45906],[-80.21043,8.46701],[-80.20602,8.46826],[-80.19666,8.46487],[-80.19213,8.46623],[-80.18455,8.46112],[-80.18328,8.47731],[-80.17571,8.47854],[-80.18087,8.48817],[-80.17807,8.50294],[-80.15611,8.50416],[-80.15066,8.48197]]]}},{"type":"Feature","properties":{"corregimiento":"Juan Díaz","distrito":"Antón","provincia":"Coclé","bbox":[-80.39021,8.29018,-80.26293,8.50773]},"geometry":{"type":"Polygon","coordinates":[[[-80.26293,8.49187],[-80.26939,8.48944],[-80.26805,8.47823],[-80.27669,8.47299],[-80.2768,8.46723],[-80.27316,8.466],[-80.26965,8.45923],[-80.27512,8.45901],[-80.27413,8.45649],[-80.28078,8.45303],[-80.27906,8.44434],[-80.28196,8.44362],[-80.28225,8.43882],[-80.27993,8.43438],[-80.28752,8.42931],[-80.28082,8.42411],[-80.28604,8.41843],[-80.28527,8.41575],[-80.29152,8.41364],[-80.28998,8.40626],[-80.29633,8.40045],[-80.29228,8.38299],[-80.29754,8.3804],[-80.29647,8.37719],[-80.30075,8.37037],[-80.30619,8.37074],[-80.30576,8.36597],[-80.30971,8.36013],[-80.32072,8.35569],[-80.32681,8.34818],[-80.32419,8.34395],[-80.32732,8.33305],[-80.3248,8.3199],[-80.32663,8.31821],[-80.32408,8.31827],[-80.32567,8.31661],[-80.32291,8.31384],[-80.326,8.30995],[-80.32246,8.30875],[-80.32257,8.30485],[-80.33427,8.30361],[-80.34163,8.29961],[-80.34646,8.3023],[-80.35973,8.30062],[-80.37603,8.29076],[-80.38448,8.29018],[-80.38255,8.2941],[-80.38658,8.30082],[-80.39021,8.30116],[-80.38026,8.30344],[-80.375,8.30847],[-80.37028,8.30321],[-80.36502,8.30153],[-80.3632,8.3046],[-80.36024,8.30254],[-80.35882,8.30802],[-80.35536,8.3077],[-80.3592,8.31633],[-80.35519,8.31363],[-80.35286,8.31894],[-80.35812,8.31805],[-80.36143,8.32786],[-80.35854,8.32604],[-80.35999,8.32893],[-80.35555,8.3299],[-80.35557,8.33477],[-80.33637,8.33964],[-80.33148,8.36916],[-80.33416,8.37331],[-80.33038,8.37776],[-80.3344,8.38772],[-80.32769,8.39607],[-80.32435,8.39533],[-80.32634,8.41155],[-80.32088,8.41379],[-80.32243,8.42683],[-80.31573,8.43475],[-80.31802,8.43897],[-80.31416,8.44951],[-80.32017,8.45747],[-80.31372,8.46307],[-80.31554,8.46542],[-80.31359,8.4704],[-80.30355,8.4807],[-80.30376,8.48304],[-80.30736,8.48327],[-80.30533,8.48768],[-80.30719,8.49033],[-80.30378,8.49952],[-80.30557,8.50128],[-80.30071,8.50496],[-80.30187,8.50773],[-80.29255,8.50043],[-80.26906,8.49606],[-80.26293,8.49187]]]}},{"type":"Feature","properties":{"corregimiento":"San Juan de Dios","distrito":"Antón","provincia":"Coclé","bbox":[-80.30133,8.49187,-80.15367,8.61875]},"geometry":{"type":"Polygon","coordinates":[[[-80.16979,8.59675],[-80.18128,8.57593],[-80.18433,8.57626],[-80.19099,8.56887],[-80.1959,8.56988],[-80.20031,8.56706],[-80.20491,8.55013],[-80.21815,8.53732],[-80.21956,8.52955],[-80.22399,8.52391],[-80.22516,8.52551],[-80.23088,8.51775],[-80.24012,8.51402],[-80.26293,8.49187],[-80.26906,8.49606],[-80.29255,8.50043],[-80.30133,8.50831],[-80.29795,8.51633],[-80.29045,8.51911],[-80.28061,8.52798],[-80.27843,8.54343],[-80.2645,8.54543],[-80.2573,8.54259],[-80.24669,8.54654],[-80.24536,8.55063],[-80.23955,8.55263],[-80.23358,8.55956],[-80.22897,8.56851],[-80.21888,8.57046],[-80.18805,8.58654],[-80.18007,8.61657],[-80.15415,8.61875],[-80.15367,8.61273],[-80.16268,8.60684],[-80.16366,8.60096],[-80.16979,8.59675]]]}},{"type":"Feature","properties":{"corregimiento":"Santa Rita","distrito":"Antón","provincia":"Coclé","bbox":[-80.23836,8.44537,-80.14144,8.54316]},"geometry":{"type":"Polygon","coordinates":[[[-80.18283,8.54316],[-80.17856,8.52188],[-80.17362,8.51892],[-80.17424,8.51547],[-80.14758,8.51904],[-80.14728,8.52427],[-80.14489,8.52215],[-80.14144,8.49572],[-80.15161,8.48189],[-80.15611,8.50416],[-80.17807,8.50294],[-80.18087,8.48817],[-80.17571,8.47854],[-80.18328,8.47731],[-80.18455,8.46112],[-80.19213,8.46623],[-80.20958,8.46734],[-80.21731,8.45906],[-80.21913,8.45039],[-80.22325,8.44881],[-80.22277,8.44752],[-80.22031,8.44773],[-80.2201,8.44762],[-80.2199,8.44728],[-80.23188,8.44537],[-80.23836,8.46044],[-80.23178,8.46104],[-80.2297,8.46432],[-80.23395,8.46964],[-80.23295,8.47435],[-80.22903,8.47685],[-80.22878,8.48303],[-80.21699,8.49734],[-80.20368,8.52329],[-80.19661,8.52982],[-80.18865,8.53185],[-80.18283,8.54316]]]}},{"type":"Feature","properties":{"corregimiento":"Caballero","distrito":"Antón","provincia":"Coclé","bbox":[-80.24824,8.45508,-80.15398,8.60084]},"geometry":{"type":"Polygon","coordinates":[[[-80.15428,8.58372],[-80.15715,8.57436],[-80.16534,8.56862],[-80.17033,8.54841],[-80.17923,8.54686],[-80.18015,8.5433],[-80.18451,8.54243],[-80.18865,8.53185],[-80.20172,8.5254],[-80.21699,8.49734],[-80.22417,8.49102],[-80.22982,8.48042],[-80.22906,8.47679],[-80.23376,8.47226],[-80.22961,8.46489],[-80.23132,8.46147],[-80.24113,8.4595],[-80.24496,8.45508],[-80.24727,8.46448],[-80.24363,8.47035],[-80.24824,8.47898],[-80.24084,8.50453],[-80.24457,8.50811],[-80.24012,8.51402],[-80.22546,8.52232],[-80.22516,8.52551],[-80.22399,8.52391],[-80.21956,8.52955],[-80.21815,8.53732],[-80.20491,8.55013],[-80.20031,8.56706],[-80.1959,8.56988],[-80.19099,8.56887],[-80.18433,8.57626],[-80.18128,8.57593],[-80.17065,8.59605],[-80.15398,8.60084],[-80.15667,8.59278],[-80.15428,8.58372]]]}},{"type":"Feature","properties":{"corregimiento":"Cabuya","distrito":"Antón","provincia":"Coclé","bbox":[-80.18283,8.48197,-80.09054,8.59209]},"geometry":{"type":"Polygon","coordinates":[[[-80.12221,8.58919],[-80.11203,8.57879],[-80.10956,8.56929],[-80.11157,8.56233],[-80.10663,8.55139],[-80.10167,8.54953],[-80.10043,8.54288],[-80.09664,8.54181],[-80.09833,8.53428],[-80.09478,8.53629],[-80.09582,8.53357],[-80.09054,8.52926],[-80.09271,8.51596],[-80.09666,8.50833],[-80.11766,8.54487],[-80.11441,8.51846],[-80.12756,8.50722],[-80.13015,8.49658],[-80.13466,8.49336],[-80.13424,8.48327],[-80.14532,8.48484],[-80.15066,8.48197],[-80.14143,8.49577],[-80.14164,8.50664],[-80.14536,8.5126],[-80.14255,8.51401],[-80.14428,8.52131],[-80.14728,8.52427],[-80.14758,8.51904],[-80.17424,8.51547],[-80.17362,8.51892],[-80.17856,8.52188],[-80.18283,8.54316],[-80.18015,8.5433],[-80.17919,8.54689],[-80.17033,8.54841],[-80.16534,8.56862],[-80.1571,8.57442],[-80.15309,8.58707],[-80.14852,8.59209],[-80.12221,8.58919]]]}},{"type":"Feature","properties":{"corregimiento":"El Valle","distrito":"Antón","provincia":"Coclé","bbox":[-80.16979,8.58372,-80.09866,8.65747]},"geometry":{"type":"Polygon","coordinates":[[[-80.10389,8.63578],[-80.10145,8.62164],[-80.10423,8.6167],[-80.09866,8.6122],[-80.10621,8.58997],[-80.11052,8.59284],[-80.12278,8.58916],[-80.14616,8.59339],[-80.15428,8.58372],[-80.15667,8.59278],[-80.15398,8.60084],[-80.1617,8.59693],[-80.16979,8.59675],[-80.16366,8.60096],[-80.16268,8.60684],[-80.15367,8.61273],[-80.15541,8.62727],[-80.13687,8.64781],[-80.1337,8.64386],[-80.11664,8.65747],[-80.11007,8.64779],[-80.11234,8.63772],[-80.10389,8.63578]]]}},{"type":"Feature","properties":{"corregimiento":"Río Hato","distrito":"Antón","provincia":"Coclé","bbox":[-80.17913,8.33773,-80.04286,8.54487]},"geometry":{"type":"Polygon","coordinates":[[[-80.09666,8.50833],[-80.09496,8.50075],[-80.09945,8.48913],[-80.09495,8.48745],[-80.09673,8.48442],[-80.09327,8.47584],[-80.08869,8.47539],[-80.08754,8.46551],[-80.08075,8.4638],[-80.07187,8.44785],[-80.06885,8.44675],[-80.06518,8.43719],[-80.06622,8.4298],[-80.06382,8.43097],[-80.06062,8.4272],[-80.05828,8.41835],[-80.05496,8.41496],[-80.05175,8.41951],[-80.04725,8.41403],[-80.0502,8.41215],[-80.04286,8.40947],[-80.07366,8.39414],[-80.11878,8.36524],[-80.12558,8.36398],[-80.1434,8.34992],[-80.1654,8.33773],[-80.16389,8.34069],[-80.17298,8.35276],[-80.17206,8.35649],[-80.1761,8.36504],[-80.17428,8.36731],[-80.17913,8.37649],[-80.17307,8.38436],[-80.17694,8.39439],[-80.17122,8.39838],[-80.16333,8.41117],[-80.16698,8.42008],[-80.16213,8.43913],[-80.16773,8.44493],[-80.16002,8.44358],[-80.15252,8.43189],[-80.14973,8.43242],[-80.15243,8.42988],[-80.14979,8.42816],[-80.15312,8.42552],[-80.14843,8.42222],[-80.14966,8.41512],[-80.14523,8.41312],[-80.14711,8.41103],[-80.145,8.41143],[-80.14496,8.40749],[-80.14045,8.40382],[-80.14073,8.39877],[-80.1447,8.39536],[-80.14128,8.39245],[-80.13826,8.39923],[-80.13119,8.40378],[-80.13296,8.40576],[-80.13062,8.40925],[-80.1381,8.42243],[-80.14025,8.42969],[-80.13854,8.43828],[-80.14095,8.44103],[-80.13565,8.45487],[-80.13544,8.47361],[-80.13252,8.47564],[-80.13473,8.493],[-80.12674,8.5033],[-80.12748,8.50733],[-80.11439,8.51852],[-80.11766,8.54487],[-80.09666,8.50833]]]}}]}