{"type":"FeatureCollection","features":[{"type":"Feature","properties":{"corregimiento":"La Pintada (Cabecera)","distrito":"La Pintada","provincia":"Coclé","bbox":[-80.51503,8.5132,-80.40236,8.6319]},"geometry":{"type":"Polygon","coordinates":[[[-80.40968,8.62268],[-80.40236,8.57273],[-80.40888,8.56496],[-80.42114,8.56836],[-80.43725,8.562],[-80.43705,8.55157],[-80.44159,8.55323],[-80.44696,8.54677],[-80.43778,8.53516],[-80.4342,8.52461],[-80.4666,8.5132],[-80.47367,8.5178],[-80.47449,8.52407],[-80.47062,8.53265],[-80.47208,8.54158],[-80.46638,8.54831],[-80.48244,8.55488],[-80.48649,8.55345],[-80.49156,8.5586],[-80.49058,8.57301],[-80.50007,8.58366],[-80.50233,8.5803],[-80.50583,8.58176],[-80.51503,8.59215],[-80.50976,8.59457],[-80.50968,8.60943],[-80.48879,8.6107],[-80.4688,8.621],[-80.46378,8.6319],[-80.45298,8.62776],[-80.44763,8.61965],[-80.43294,8.61407],[-80.42617,8.62063],[-80.41604,8.6173],[-80.40968,8.62268]]]}},{"type":"Feature","properties":{"corregimiento":"El Potrero","distrito":"La Pintada","provincia":"Coclé","bbox":[-80.55649,8.48741,-80.46638,8.60338]},"geometry":{"type":"Polygon","coordinates":[[[-80.51503,8.59215],[-80.50583,8.58176],[-80.50233,8.5803],[-80.50007,8.58366],[-80.49058,8.57301],[-80.49293,8.5632],[-80.48843,8.5548],[-80.46638,8.54831],[-80.47208,8.54158],[-80.47062,8.53265],[-80.47449,8.52407],[-80.47367,8.5178],[-80.4666,8.5132],[-80.5251,8.48741],[-80.52714,8.49874],[-80.5441,8.52247],[-80.54316,8.55709],[-80.55649,8.5638],[-80.55325,8.57051],[-80.55628,8.57261],[-80.555,8.57986],[-80.55115,8.58338],[-80.55462,8.59386],[-80.54692,8.59305],[-80.55083,8.59946],[-80.54859,8.60338],[-80.52786,8.60077],[-80.52644,8.59591],[-80.51503,8.59215]]]}},{"type":"Feature","properties":{"corregimiento":"El Harino","distrito":"La Pintada","provincia":"Coclé","bbox":[-80.70959,8.56084,-80.53836,8.78948]},"geometry":{"type":"Polygon","coordinates":[[[-80.57128,8.78929],[-80.57759,8.77579],[-80.59076,8.76781],[-80.58826,8.76204],[-80.5835,8.76069],[-80.58436,8.75145],[-80.59746,8.74236],[-80.59373,8.73957],[-80.58654,8.74019],[-80.58084,8.73153],[-80.58149,8.7209],[-80.57364,8.71924],[-80.5711,8.71562],[-80.57096,8.69674],[-80.575,8.68978],[-80.56817,8.69398],[-80.55272,8.6927],[-80.54655,8.68993],[-80.5418,8.68101],[-80.54537,8.6711],[-80.54277,8.65857],[-80.53836,8.65384],[-80.54525,8.63524],[-80.55004,8.63333],[-80.55642,8.62151],[-80.55487,8.61667],[-80.5459,8.61104],[-80.55085,8.59961],[-80.54692,8.59305],[-80.55462,8.59386],[-80.55115,8.58338],[-80.555,8.57986],[-80.55628,8.57261],[-80.55325,8.57051],[-80.55651,8.5639],[-80.55316,8.56084],[-80.56609,8.56645],[-80.57522,8.56706],[-80.58086,8.57872],[-80.58024,8.5878],[-80.58803,8.59037],[-80.58821,8.59403],[-80.5823,8.59978],[-80.57252,8.60139],[-80.57504,8.60648],[-80.58744,8.60994],[-80.59389,8.61664],[-80.59918,8.61484],[-80.6102,8.62336],[-80.61136,8.6272],[-80.61875,8.6276],[-80.63391,8.64101],[-80.63555,8.64794],[-80.65047,8.64474],[-80.6597,8.65273],[-80.67235,8.65398],[-80.67685,8.65093],[-80.67864,8.64541],[-80.68549,8.64314],[-80.69418,8.65089],[-80.69551,8.66805],[-80.70538,8.67244],[-80.70959,8.68889],[-80.70716,8.71245],[-80.69914,8.71752],[-80.69895,8.72164],[-80.68953,8.73174],[-80.69051,8.7377],[-80.68621,8.7408],[-80.69239,8.748],[-80.69154,8.76033],[-80.68335,8.76102],[-80.67826,8.76722],[-80.65556,8.77676],[-80.65343,8.77956],[-80.65566,8.78815],[-80.65308,8.78641],[-80.65384,8.78932],[-80.65165,8.78948],[-80.64851,8.78455],[-80.64545,8.78768],[-80.64186,8.78435],[-80.63376,8.78705],[-80.63137,8.78293],[-80.6242,8.78717],[-80.62182,8.78417],[-80.62573,8.78264],[-80.62384,8.77574],[-80.57128,8.78929]]]}},{"type":"Feature","properties":{"corregimiento":"Llano Grande","distrito":"La Pintada","provincia":"Coclé","bbox":[-80.5028,8.61425,-80.38124,8.70905]},"geometry":{"type":"Polygon","coordinates":[[[-80.40736,8.62623],[-80.41604,8.6173],[-80.42617,8.62063],[-80.4336,8.61425],[-80.44763,8.61965],[-80.45298,8.62776],[-80.4668,8.63235],[-80.47591,8.64122],[-80.47902,8.64028],[-80.48926,8.64768],[-80.49543,8.64655],[-80.49862,8.65307],[-80.49717,8.66499],[-80.5028,8.66617],[-80.49979,8.68544],[-80.47396,8.69826],[-80.4535,8.685],[-80.44506,8.69472],[-80.43656,8.69517],[-80.43115,8.69855],[-80.42679,8.70905],[-80.39258,8.69983],[-80.38495,8.69176],[-80.38124,8.6727],[-80.38346,8.66073],[-80.38505,8.65977],[-80.38472,8.66261],[-80.39118,8.66111],[-80.39462,8.65585],[-80.39662,8.65679],[-80.40152,8.64863],[-80.40085,8.64478],[-80.40541,8.64254],[-80.40537,8.63597],[-80.40906,8.63402],[-80.40736,8.62623]]]}},{"type":"Feature","properties":{"corregimiento":"Piedras Gordas","distrito":"La Pintada","provincia":"Coclé","bbox":[-80.59746,8.59233,-80.46413,8.79348]},"geometry":{"type":"Polygon","coordinates":[[[-80.54878,8.78975],[-80.55369,8.78356],[-80.54866,8.76872],[-80.5507,8.76588],[-80.55221,8.76789],[-80.55209,8.76546],[-80.54713,8.75909],[-80.53761,8.76365],[-80.53239,8.75929],[-80.53255,8.75336],[-80.5288,8.74836],[-80.5099,8.74899],[-80.50185,8.75292],[-80.49783,8.74794],[-80.50346,8.72892],[-80.49979,8.68544],[-80.5028,8.66617],[-80.49717,8.66499],[-80.49862,8.65307],[-80.49552,8.64663],[-80.48926,8.64768],[-80.46413,8.63182],[-80.4688,8.621],[-80.48879,8.6107],[-80.50957,8.60952],[-80.50971,8.59477],[-80.51209,8.59233],[-80.52606,8.59566],[-80.52786,8.60077],[-80.54859,8.60338],[-80.5459,8.61104],[-80.55487,8.61667],[-80.55642,8.62151],[-80.55004,8.63333],[-80.54525,8.63524],[-80.53836,8.65384],[-80.54277,8.65857],[-80.54537,8.6711],[-80.54182,8.68107],[-80.54655,8.68993],[-80.55272,8.6927],[-80.56817,8.69398],[-80.575,8.68978],[-80.57096,8.69674],[-80.5711,8.71562],[-80.57364,8.71924],[-80.58149,8.7209],[-80.58084,8.73153],[-80.58654,8.74019],[-80.59373,8.73957],[-80.59746,8.74236],[-80.58436,8.75145],[-80.5835,8.76069],[-80.58826,8.76204],[-80.59076,8.76781],[-80.57759,8.77579],[-80.57128,8.78929],[-80.55483,8.79348],[-80.54878,8.78975]]]}},{"type":"Feature","properties":{"corregimiento":"Las Lomas","distrito":"La Pintada","provincia":"Coclé","bbox":[-80.72441,8.56283,-80.57252,8.65398]},"geometry":{"type":"Polygon","coordinates":[[[-80.57323,8.5655],[-80.58213,8.56283],[-80.58192,8.56719],[-80.59836,8.57863],[-80.60753,8.57481],[-80.61453,8.5776],[-80.61858,8.58529],[-80.62521,8.59037],[-80.65125,8.58036],[-80.65364,8.58627],[-80.66165,8.5907],[-80.68799,8.59041],[-80.6944,8.59734],[-80.69988,8.59691],[-80.70391,8.60545],[-80.72441,8.62421],[-80.71745,8.64596],[-80.69499,8.65187],[-80.68554,8.64317],[-80.68251,8.64327],[-80.67235,8.65398],[-80.6597,8.65273],[-80.65047,8.64474],[-80.63552,8.64793],[-80.63391,8.64101],[-80.61875,8.6276],[-80.61136,8.6272],[-80.6102,8.62336],[-80.59918,8.61484],[-80.59389,8.61664],[-80.58744,8.60994],[-80.57495,8.60639],[-80.57252,8.60139],[-80.58218,8.59985],[-80.58841,8.59245],[-80.58743,8.5896],[-80.5817,8.59013],[-80.58024,8.5878],[-80.57937,8.57345],[-80.57323,8.5655]]]}},{"type":"Feature","properties":{"corregimiento":"Llano Norte","distrito":"La Pintada","provincia":"Coclé","bbox":[-80.56191,8.685,-80.41641,8.94152]},"geometry":{"type":"Polygon","coordinates":[[[-80.42089,8.88782],[-80.41641,8.83166],[-80.41975,8.76619],[-80.44001,8.7297],[-80.42679,8.70905],[-80.43029,8.6996],[-80.43656,8.69517],[-80.44506,8.69472],[-80.4535,8.685],[-80.47396,8.69826],[-80.49979,8.68544],[-80.50346,8.72892],[-80.49783,8.74794],[-80.50185,8.75292],[-80.5099,8.74899],[-80.52871,8.74833],[-80.53255,8.75336],[-80.53239,8.75929],[-80.53748,8.76359],[-80.54679,8.75893],[-80.55213,8.76565],[-80.54866,8.76872],[-80.55368,8.78365],[-80.54779,8.79028],[-80.5535,8.79947],[-80.55139,8.80188],[-80.55632,8.80529],[-80.55379,8.80824],[-80.54942,8.80576],[-80.54799,8.8113],[-80.54076,8.81732],[-80.54445,8.82912],[-80.54273,8.83642],[-80.54616,8.83971],[-80.54291,8.8468],[-80.54622,8.85968],[-80.5426,8.86308],[-80.55012,8.86622],[-80.5459,8.87777],[-80.55627,8.87204],[-80.55609,8.87712],[-80.56069,8.87994],[-80.56191,8.88462],[-80.5589,8.88766],[-80.55253,8.88743],[-80.5564,8.89406],[-80.5509,8.89546],[-80.55344,8.90725],[-80.54777,8.90993],[-80.54793,8.91667],[-80.54365,8.92038],[-80.54966,8.92534],[-80.54999,8.93266],[-80.54873,8.93431],[-80.54201,8.93061],[-80.5457,8.93588],[-80.53228,8.94152],[-80.53329,8.9359],[-80.52781,8.92834],[-80.51962,8.926],[-80.51462,8.92915],[-80.51115,8.92542],[-80.5119,8.92157],[-80.50852,8.92072],[-80.50539,8.92412],[-80.50293,8.91789],[-80.49747,8.92294],[-80.48393,8.91202],[-80.46587,8.91462],[-80.46269,8.91142],[-80.45754,8.91525],[-80.43906,8.89929],[-80.43994,8.89608],[-80.43499,8.89459],[-80.43372,8.89013],[-80.42089,8.88782]]]}}]}