{"type":"FeatureCollection","features":[{"type":"Feature","properties":{"corregimiento":"Natá (Cabecera)","distrito":"Natá","provincia":"Coclé","bbox":[-80.57132,8.22012,-80.38633,8.39455]},"geometry":{"type":"Polygon","coordinates":[[[-80.49213,8.38563],[-80.48668,8.38362],[-80.48954,8.38079],[-80.48454,8.38029],[-80.48722,8.37066],[-80.48547,8.36386],[-80.48303,8.36651],[-80.47876,8.36546],[-80.47868,8.36834],[-80.47636,8.36563],[-80.47737,8.3584],[-80.48222,8.35436],[-80.47928,8.34959],[-80.48287,8.34362],[-80.47893,8.33813],[-80.47466,8.33913],[-80.47427,8.33627],[-80.479,8.33509],[-80.47791,8.3329],[-80.47158,8.3335],[-80.471,8.32988],[-80.4751,8.32778],[-80.47352,8.32449],[-80.46957,8.32756],[-80.4571,8.32737],[-80.4548,8.3302],[-80.45642,8.33384],[-80.44739,8.34108],[-80.44205,8.339],[-80.43968,8.34106],[-80.43653,8.33682],[-80.43418,8.33973],[-80.43144,8.33551],[-80.43055,8.34262],[-80.42557,8.34119],[-80.42138,8.33583],[-80.42043,8.34309],[-80.41735,8.33938],[-80.41516,8.34054],[-80.41724,8.34795],[-80.41467,8.3487],[-80.41036,8.34311],[-80.40987,8.34749],[-80.40578,8.34737],[-80.40995,8.34956],[-80.40818,8.35066],[-80.39767,8.34621],[-80.40314,8.33904],[-80.40322,8.33411],[-80.39873,8.32866],[-80.40115,8.32234],[-80.39641,8.32391],[-80.39395,8.33383],[-80.38899,8.33298],[-80.38633,8.32751],[-80.39469,8.31615],[-80.39039,8.30082],[-80.39313,8.30081],[-80.39399,8.29012],[-80.40722,8.29108],[-80.42027,8.27612],[-80.42757,8.27216],[-80.43208,8.25886],[-80.44757,8.24881],[-80.44521,8.24098],[-80.45092,8.23513],[-80.4542,8.22241],[-80.45987,8.22012],[-80.47086,8.22432],[-80.47337,8.23494],[-80.48076,8.23838],[-80.48604,8.23719],[-80.48466,8.22613],[-80.49098,8.22589],[-80.48686,8.23871],[-80.49359,8.2384],[-80.49759,8.24206],[-80.49134,8.2443],[-80.49327,8.25118],[-80.48614,8.25393],[-80.49235,8.2581],[-80.4912,8.26173],[-80.49518,8.26293],[-80.4907,8.26636],[-80.49273,8.2706],[-80.49018,8.2684],[-80.48777,8.26997],[-80.49051,8.27404],[-80.49369,8.2724],[-80.49327,8.27663],[-80.49842,8.27414],[-80.49802,8.27742],[-80.50124,8.27962],[-80.50649,8.27754],[-80.50902,8.2862],[-80.52012,8.29574],[-80.51845,8.32378],[-80.52522,8.3253],[-80.5224,8.32124],[-80.53125,8.31787],[-80.53378,8.32223],[-80.53479,8.31825],[-80.53784,8.31746],[-80.54143,8.32623],[-80.54269,8.32363],[-80.54637,8.325],[-80.5464,8.32047],[-80.54983,8.31973],[-80.56052,8.32634],[-80.57132,8.32709],[-80.55422,8.39394],[-80.54976,8.39455],[-80.54785,8.38962],[-80.54329,8.39084],[-80.5409,8.3887],[-80.5389,8.39166],[-80.53652,8.38802],[-80.53357,8.38924],[-80.52509,8.38525],[-80.52347,8.38115],[-80.51534,8.38202],[-80.50879,8.38803],[-80.50677,8.38241],[-80.50126,8.38625],[-80.50063,8.38293],[-80.49584,8.38155],[-80.49213,8.38563]]]}},{"type":"Feature","properties":{"corregimiento":"Capellanía","distrito":"Natá","provincia":"Coclé","bbox":[-80.59193,8.2664,-80.50726,8.32623]},"geometry":{"type":"Polygon","coordinates":[[[-80.54143,8.32623],[-80.53753,8.31746],[-80.53378,8.32223],[-80.53125,8.31787],[-80.5224,8.32124],[-80.52522,8.3253],[-80.51845,8.32378],[-80.52012,8.29574],[-80.50902,8.2862],[-80.50726,8.2776],[-80.51495,8.27951],[-80.51993,8.27518],[-80.51943,8.27225],[-80.53956,8.27512],[-80.54673,8.26754],[-80.54835,8.27058],[-80.55472,8.2664],[-80.57884,8.28181],[-80.58438,8.28135],[-80.58723,8.2841],[-80.58549,8.29095],[-80.58761,8.3026],[-80.59193,8.30724],[-80.58726,8.3159],[-80.57679,8.31272],[-80.57046,8.31822],[-80.56331,8.31688],[-80.55683,8.32056],[-80.55218,8.31666],[-80.55122,8.32003],[-80.5464,8.32047],[-80.54637,8.325],[-80.54269,8.32363],[-80.54143,8.32623]]]}},{"type":"Feature","properties":{"corregimiento":"Villarreal","distrito":"Natá","provincia":"Coclé","bbox":[-80.72575,8.26888,-80.55088,8.37868]},"geometry":{"type":"Polygon","coordinates":[[[-80.71681,8.37868],[-80.70708,8.36404],[-80.709,8.35656],[-80.70146,8.35426],[-80.70278,8.35011],[-80.69002,8.33727],[-80.68569,8.33962],[-80.67704,8.33577],[-80.67614,8.33897],[-80.66589,8.34126],[-80.66121,8.33628],[-80.65616,8.33777],[-80.65185,8.33492],[-80.64884,8.3373],[-80.63511,8.33176],[-80.63215,8.33641],[-80.62267,8.33999],[-80.6125,8.3488],[-80.60898,8.34319],[-80.59933,8.3443],[-80.59762,8.3383],[-80.57884,8.33402],[-80.57132,8.32709],[-80.55755,8.32455],[-80.55088,8.31969],[-80.55165,8.31677],[-80.55683,8.32056],[-80.56331,8.31688],[-80.57046,8.31822],[-80.57679,8.31272],[-80.58613,8.31637],[-80.59192,8.30742],[-80.58761,8.3026],[-80.58549,8.29095],[-80.58723,8.2841],[-80.58438,8.28135],[-80.57884,8.28181],[-80.56394,8.27196],[-80.57804,8.27148],[-80.58151,8.26888],[-80.5877,8.27254],[-80.5868,8.27713],[-80.59164,8.2783],[-80.59527,8.28372],[-80.60215,8.28261],[-80.60858,8.28562],[-80.61205,8.29622],[-80.62227,8.29946],[-80.62834,8.30614],[-80.63224,8.30723],[-80.63482,8.30327],[-80.64295,8.30465],[-80.64696,8.30106],[-80.64996,8.30616],[-80.65882,8.30987],[-80.66157,8.3151],[-80.6693,8.31546],[-80.67562,8.32146],[-80.6851,8.31956],[-80.70214,8.32664],[-80.70531,8.33559],[-80.7174,8.34165],[-80.72575,8.3523],[-80.72525,8.3766],[-80.71681,8.37868]]]}},{"type":"Feature","properties":{"corregimiento":"Las Huacas","distrito":"Natá","provincia":"Coclé","bbox":[-80.8329,8.37602,-80.70704,8.5647]},"geometry":{"type":"Polygon","coordinates":[[[-80.78478,8.55678],[-80.78312,8.55431],[-80.77628,8.55518],[-80.75899,8.54858],[-80.74387,8.55368],[-80.74066,8.54416],[-80.73673,8.54393],[-80.7432,8.4813],[-80.73823,8.45023],[-80.72296,8.41508],[-80.70791,8.41048],[-80.70704,8.40885],[-80.71078,8.4099],[-80.70858,8.40341],[-80.71595,8.39729],[-80.71476,8.39311],[-80.7216,8.38859],[-80.71607,8.38667],[-80.71414,8.39057],[-80.70934,8.38825],[-80.71531,8.37746],[-80.72529,8.37602],[-80.75486,8.42857],[-80.75241,8.43048],[-80.75866,8.43813],[-80.75576,8.44153],[-80.75743,8.44684],[-80.75543,8.45129],[-80.76131,8.4596],[-80.7693,8.46468],[-80.76798,8.46809],[-80.77537,8.4732],[-80.78688,8.47597],[-80.78307,8.50011],[-80.79351,8.50911],[-80.80106,8.52161],[-80.80571,8.52312],[-80.80651,8.52794],[-80.81978,8.53384],[-80.82516,8.54416],[-80.8329,8.54903],[-80.82532,8.55214],[-80.82333,8.55729],[-80.81396,8.5647],[-80.79174,8.55491],[-80.78478,8.55678]]]}},{"type":"Feature","properties":{"corregimiento":"Toza","distrito":"Natá","provincia":"Coclé","bbox":[-80.7216,8.32709,-80.55422,8.41044]},"geometry":{"type":"Polygon","coordinates":[[[-80.70973,8.41044],[-80.68908,8.38513],[-80.6201,8.36723],[-80.58616,8.39878],[-80.5886,8.40886],[-80.58363,8.40737],[-80.57844,8.41025],[-80.57446,8.40465],[-80.56507,8.40148],[-80.56141,8.40278],[-80.55422,8.39394],[-80.57132,8.32709],[-80.57884,8.33402],[-80.59762,8.3383],[-80.59917,8.34424],[-80.60898,8.34319],[-80.6125,8.3488],[-80.62267,8.33999],[-80.63215,8.33641],[-80.63511,8.33176],[-80.64884,8.3373],[-80.65185,8.33492],[-80.65616,8.33777],[-80.66121,8.33628],[-80.66589,8.34126],[-80.67614,8.33897],[-80.67704,8.33577],[-80.68569,8.33962],[-80.69018,8.33733],[-80.69485,8.34465],[-80.69778,8.34428],[-80.70278,8.35011],[-80.70146,8.35426],[-80.70907,8.3567],[-80.70708,8.36404],[-80.71553,8.37646],[-80.70941,8.38839],[-80.71414,8.39057],[-80.71585,8.38674],[-80.7216,8.38803],[-80.71476,8.39311],[-80.71595,8.39729],[-80.70876,8.40308],[-80.70973,8.41044]]]}},{"type":"Feature","properties":{"corregimiento":"El Caño","distrito":"Natá","provincia":"Coclé","bbox":[-80.58938,8.38117,-80.49063,8.502]},"geometry":{"type":"Polygon","coordinates":[[[-80.52548,8.48868],[-80.52048,8.47118],[-80.51745,8.47112],[-80.50685,8.45485],[-80.50946,8.44844],[-80.50553,8.44355],[-80.50863,8.43378],[-80.49915,8.42135],[-80.49822,8.41372],[-80.50338,8.40861],[-80.4998,8.40578],[-80.50383,8.40141],[-80.49243,8.39481],[-80.49686,8.39208],[-80.49722,8.38516],[-80.4931,8.39173],[-80.49063,8.38889],[-80.49573,8.38157],[-80.49924,8.38175],[-80.50126,8.38625],[-80.50687,8.38243],[-80.50873,8.38804],[-80.51534,8.38202],[-80.52358,8.38117],[-80.52509,8.38525],[-80.53357,8.38924],[-80.53652,8.38802],[-80.5389,8.39166],[-80.5409,8.3887],[-80.54329,8.39084],[-80.54798,8.38966],[-80.54963,8.39445],[-80.55574,8.39477],[-80.55578,8.39814],[-80.56141,8.40278],[-80.56507,8.40148],[-80.57446,8.40465],[-80.57844,8.41025],[-80.58363,8.40737],[-80.5886,8.40886],[-80.56246,8.43657],[-80.57686,8.4528],[-80.57882,8.47921],[-80.58938,8.47567],[-80.58744,8.49208],[-80.5735,8.4949],[-80.56939,8.50085],[-80.55653,8.497],[-80.5524,8.502],[-80.536,8.49676],[-80.5336,8.49232],[-80.52548,8.48868]]]}},{"type":"Feature","properties":{"corregimiento":"Guzmán","distrito":"Natá","provincia":"Coclé","bbox":[-80.65154,8.48868,-80.52548,8.59037]},"geometry":{"type":"Polygon","coordinates":[[[-80.58213,8.56283],[-80.56609,8.56645],[-80.5586,8.56139],[-80.54324,8.55725],[-80.5441,8.52247],[-80.52714,8.49874],[-80.52548,8.48868],[-80.5336,8.49232],[-80.536,8.49676],[-80.5524,8.502],[-80.55653,8.497],[-80.56939,8.50085],[-80.5735,8.4949],[-80.58744,8.49208],[-80.58636,8.51032],[-80.61977,8.53855],[-80.63096,8.54232],[-80.63623,8.54846],[-80.64271,8.55125],[-80.65085,8.54818],[-80.64666,8.5675],[-80.65154,8.58051],[-80.64569,8.58058],[-80.64016,8.58535],[-80.62521,8.59037],[-80.61858,8.58529],[-80.61453,8.5776],[-80.60753,8.57481],[-80.59836,8.57863],[-80.58192,8.56719],[-80.58213,8.56283]]]}}]}