{"type":"FeatureCollection","features":[{"type":"Feature","properties":{"corregimiento":"Olá (Cabecera)","distrito":"Olá","provincia":"Coclé","bbox":[-80.70851,8.39102,-80.60683,8.54376]},"geometry":{"type":"Polygon","coordinates":[[[-80.63325,8.52999],[-80.63177,8.51878],[-80.63659,8.51997],[-80.65075,8.51611],[-80.64563,8.49822],[-80.6476,8.47104],[-80.63941,8.4497],[-80.62857,8.44408],[-80.61854,8.44993],[-80.62453,8.43729],[-80.62084,8.42108],[-80.62698,8.41422],[-80.61877,8.40601],[-80.60976,8.40761],[-80.60683,8.40461],[-80.61032,8.40214],[-80.60933,8.3996],[-80.6177,8.39778],[-80.62263,8.39102],[-80.62573,8.39112],[-80.63014,8.39976],[-80.64203,8.40281],[-80.65239,8.41109],[-80.65543,8.4187],[-80.66235,8.40293],[-80.67584,8.39845],[-80.68686,8.40355],[-80.69475,8.39254],[-80.70851,8.41126],[-80.70739,8.41442],[-80.69602,8.41725],[-80.68238,8.43008],[-80.67675,8.42578],[-80.66467,8.42578],[-80.67363,8.43491],[-80.67613,8.4657],[-80.68077,8.47434],[-80.67885,8.4826],[-80.68214,8.48649],[-80.68254,8.49651],[-80.69011,8.5048],[-80.68746,8.51248],[-80.69018,8.52184],[-80.69952,8.53462],[-80.68693,8.54264],[-80.68121,8.54108],[-80.67825,8.54376],[-80.67069,8.53712],[-80.66153,8.54218],[-80.65339,8.54308],[-80.64716,8.53915],[-80.64269,8.53109],[-80.6378,8.53254],[-80.63325,8.52999]]]}},{"type":"Feature","properties":{"corregimiento":"El Copé","distrito":"Olá","provincia":"Coclé","bbox":[-80.7432,8.41048,-80.66467,8.536]},"geometry":{"type":"Polygon","coordinates":[[[-80.69952,8.53462],[-80.69018,8.52184],[-80.68746,8.51248],[-80.69011,8.5048],[-80.68254,8.49651],[-80.68214,8.48649],[-80.67885,8.4826],[-80.68077,8.47434],[-80.67613,8.4657],[-80.67363,8.43491],[-80.66467,8.42578],[-80.67675,8.42578],[-80.68238,8.43008],[-80.69602,8.41725],[-80.7073,8.4145],[-80.70791,8.41048],[-80.72296,8.41508],[-80.73823,8.45023],[-80.7432,8.4813],[-80.74075,8.5041],[-80.73845,8.49754],[-80.73505,8.49695],[-80.73279,8.50219],[-80.73481,8.5042],[-80.72673,8.51202],[-80.72617,8.51925],[-80.71983,8.52557],[-80.71871,8.53208],[-80.7131,8.536],[-80.69952,8.53462]]]}},{"type":"Feature","properties":{"corregimiento":"El Palmar","distrito":"Olá","provincia":"Coclé","bbox":[-80.78478,8.49607,-80.61971,8.62823]},"geometry":{"type":"Polygon","coordinates":[[[-80.72441,8.62421],[-80.70391,8.60545],[-80.69999,8.59698],[-80.6944,8.59734],[-80.68812,8.59044],[-80.68066,8.59166],[-80.67693,8.58877],[-80.6669,8.59195],[-80.65364,8.58627],[-80.64667,8.56766],[-80.65085,8.54818],[-80.6425,8.5512],[-80.61971,8.53668],[-80.62909,8.5348],[-80.63115,8.53004],[-80.6378,8.53254],[-80.64179,8.5309],[-80.6533,8.54305],[-80.66153,8.54218],[-80.67069,8.53712],[-80.67829,8.54377],[-80.68121,8.54108],[-80.68693,8.54264],[-80.69952,8.53462],[-80.71321,8.53598],[-80.71871,8.53208],[-80.71983,8.52557],[-80.72617,8.51925],[-80.72673,8.51202],[-80.73444,8.50487],[-80.73308,8.50009],[-80.73725,8.49607],[-80.74075,8.5041],[-80.73673,8.54393],[-80.74066,8.54416],[-80.74356,8.55348],[-80.75899,8.54858],[-80.77628,8.55518],[-80.78312,8.55431],[-80.78478,8.55678],[-80.77986,8.56488],[-80.77878,8.57411],[-80.77467,8.57638],[-80.77038,8.58496],[-80.76065,8.59322],[-80.75217,8.59414],[-80.74992,8.59845],[-80.74907,8.60395],[-80.75667,8.61917],[-80.75304,8.62823],[-80.72441,8.62421]]]}},{"type":"Feature","properties":{"corregimiento":"El Picacho","distrito":"Olá","provincia":"Coclé","bbox":[-80.69475,8.36723,-80.58616,8.4187]},"geometry":{"type":"Polygon","coordinates":[[[-80.60683,8.40461],[-80.59643,8.40277],[-80.5886,8.40886],[-80.58616,8.39878],[-80.6201,8.36723],[-80.68908,8.38513],[-80.69475,8.39254],[-80.68686,8.40355],[-80.67584,8.39845],[-80.66235,8.40293],[-80.65543,8.4187],[-80.65239,8.41109],[-80.64203,8.40281],[-80.63014,8.39976],[-80.62573,8.39112],[-80.62263,8.39102],[-80.6177,8.39778],[-80.60933,8.3996],[-80.61032,8.40214],[-80.60683,8.40461]]]}},{"type":"Feature","properties":{"corregimiento":"La Pava","distrito":"Olá","provincia":"Coclé","bbox":[-80.65075,8.40225,-80.56304,8.53855]},"geometry":{"type":"Polygon","coordinates":[[[-80.58636,8.51032],[-80.58938,8.47567],[-80.57882,8.47921],[-80.57686,8.4528],[-80.57463,8.4477],[-80.56463,8.44069],[-80.56304,8.43427],[-80.59336,8.40399],[-80.59909,8.40225],[-80.60773,8.40453],[-80.60976,8.40761],[-80.61877,8.40601],[-80.62698,8.41422],[-80.62084,8.42108],[-80.62453,8.43729],[-80.61854,8.44993],[-80.62857,8.44408],[-80.63941,8.4497],[-80.6476,8.47104],[-80.64563,8.49822],[-80.65075,8.51611],[-80.63659,8.51997],[-80.63177,8.51878],[-80.63348,8.52977],[-80.62917,8.53475],[-80.62282,8.53459],[-80.61977,8.53855],[-80.58636,8.51032]]]}}]}