{"type":"FeatureCollection","features":[{"type":"Feature","properties":{"corregimiento":"Penonomé (Cabecera)","distrito":"Penonomé","provincia":"Coclé","bbox":[-80.40198,8.47113,-80.32248,8.59261]},"geometry":{"type":"Polygon","coordinates":[[[-80.32469,8.53419],[-80.33137,8.51905],[-80.33813,8.5193],[-80.34209,8.51066],[-80.34186,8.50143],[-80.34617,8.49632],[-80.34493,8.4843],[-80.34159,8.47895],[-80.34434,8.47113],[-80.35018,8.47313],[-80.34893,8.47588],[-80.35392,8.48839],[-80.37985,8.48452],[-80.38436,8.48832],[-80.39042,8.47505],[-80.40198,8.47821],[-80.40109,8.48593],[-80.39726,8.49049],[-80.39941,8.49281],[-80.3964,8.49481],[-80.39777,8.50391],[-80.39382,8.51249],[-80.39087,8.51249],[-80.3914,8.51561],[-80.38523,8.52096],[-80.3781,8.52107],[-80.37708,8.51626],[-80.37319,8.51653],[-80.36438,8.52512],[-80.37767,8.5452],[-80.37004,8.54993],[-80.36538,8.57533],[-80.35946,8.5759],[-80.35287,8.58503],[-80.34218,8.58449],[-80.33355,8.59104],[-80.32248,8.59261],[-80.32832,8.58404],[-80.33207,8.56882],[-80.33961,8.56051],[-80.33641,8.55459],[-80.3376,8.54563],[-80.32664,8.54022],[-80.32469,8.53419]]]}},{"type":"Feature","properties":{"corregimiento":"Cañaveral","distrito":"Penonomé","provincia":"Coclé","bbox":[-80.4666,8.47002,-80.36438,8.57273]},"geometry":{"type":"Polygon","coordinates":[[[-80.37767,8.5452],[-80.36438,8.52512],[-80.37319,8.51653],[-80.37708,8.51626],[-80.3781,8.52107],[-80.38523,8.52096],[-80.3914,8.51561],[-80.39087,8.51249],[-80.39382,8.51249],[-80.39777,8.50391],[-80.3964,8.49481],[-80.39935,8.49296],[-80.39729,8.49037],[-80.40203,8.48037],[-80.4049,8.48328],[-80.41125,8.48087],[-80.41312,8.47578],[-80.41337,8.47825],[-80.41715,8.47788],[-80.41965,8.47384],[-80.42386,8.47395],[-80.42515,8.47002],[-80.4261,8.47251],[-80.43128,8.47236],[-80.43096,8.48009],[-80.43419,8.48712],[-80.44608,8.48894],[-80.45256,8.48664],[-80.45819,8.49674],[-80.46504,8.50249],[-80.4666,8.5132],[-80.4342,8.52461],[-80.43778,8.53516],[-80.44696,8.54677],[-80.44159,8.55323],[-80.43705,8.55157],[-80.43588,8.56308],[-80.42114,8.56836],[-80.40888,8.56496],[-80.40236,8.57273],[-80.39839,8.57259],[-80.39241,8.55748],[-80.38836,8.55834],[-80.38743,8.54933],[-80.39663,8.53989],[-80.39348,8.53755],[-80.38816,8.53858],[-80.38103,8.54656],[-80.37767,8.5452]]]}},{"type":"Feature","properties":{"corregimiento":"Coclé","distrito":"Penonomé","provincia":"Coclé","bbox":[-80.48228,8.32453,-80.35504,8.48832]},"geometry":{"type":"Polygon","coordinates":[[[-80.35504,8.48821],[-80.36601,8.45801],[-80.38141,8.43975],[-80.39477,8.4139],[-80.40017,8.39535],[-80.39769,8.37873],[-80.40169,8.36579],[-80.39998,8.34713],[-80.40628,8.35049],[-80.40954,8.35053],[-80.40578,8.34737],[-80.40987,8.34749],[-80.41061,8.3431],[-80.41644,8.34861],[-80.41801,8.34606],[-80.41516,8.34054],[-80.41735,8.33938],[-80.42043,8.34309],[-80.42176,8.33575],[-80.42557,8.34119],[-80.43055,8.34262],[-80.43144,8.33551],[-80.43418,8.33973],[-80.43653,8.33682],[-80.43968,8.34106],[-80.44205,8.339],[-80.44739,8.34108],[-80.45642,8.33384],[-80.4548,8.3302],[-80.4571,8.32737],[-80.46957,8.32756],[-80.4736,8.32453],[-80.4751,8.32778],[-80.471,8.32988],[-80.47154,8.33339],[-80.47704,8.33234],[-80.47898,8.33464],[-80.4741,8.33689],[-80.48228,8.34143],[-80.47928,8.34959],[-80.48222,8.35436],[-80.47737,8.3584],[-80.47851,8.36256],[-80.47505,8.36839],[-80.46708,8.3728],[-80.46787,8.38008],[-80.46444,8.38182],[-80.4627,8.39046],[-80.45628,8.39173],[-80.45634,8.39916],[-80.45188,8.3999],[-80.44995,8.39754],[-80.44885,8.41237],[-80.44455,8.41703],[-80.45031,8.42446],[-80.44732,8.42703],[-80.44903,8.42927],[-80.44423,8.42809],[-80.43978,8.43114],[-80.44848,8.436],[-80.44555,8.44149],[-80.44124,8.44042],[-80.43749,8.44447],[-80.43437,8.4527],[-80.43893,8.46971],[-80.42823,8.47277],[-80.42502,8.47002],[-80.42376,8.47403],[-80.41965,8.47384],[-80.41673,8.47802],[-80.41337,8.47825],[-80.41321,8.47573],[-80.41141,8.48076],[-80.40496,8.48327],[-80.40131,8.47756],[-80.39058,8.47498],[-80.38436,8.48832],[-80.37985,8.48452],[-80.35504,8.48821]]]}},{"type":"Feature","properties":{"corregimiento":"El Coco","distrito":"Penonomé","provincia":"Coclé","bbox":[-80.40347,8.30084,-80.30066,8.54257]},"geometry":{"type":"Polygon","coordinates":[[[-80.30066,8.51183],[-80.30073,8.50491],[-80.30557,8.50128],[-80.30378,8.49952],[-80.30719,8.49033],[-80.30533,8.48768],[-80.30736,8.48327],[-80.30376,8.48304],[-80.30355,8.4807],[-80.31359,8.4704],[-80.31554,8.46542],[-80.31372,8.46307],[-80.32017,8.45747],[-80.31416,8.44951],[-80.31802,8.43897],[-80.31573,8.43475],[-80.32243,8.42683],[-80.32088,8.41379],[-80.32634,8.41155],[-80.32435,8.39533],[-80.32769,8.39607],[-80.3344,8.38772],[-80.33038,8.37776],[-80.33416,8.37331],[-80.33148,8.36916],[-80.33637,8.33964],[-80.35557,8.33477],[-80.35555,8.3299],[-80.35999,8.32893],[-80.35854,8.32604],[-80.36143,8.32786],[-80.35812,8.31805],[-80.35286,8.31894],[-80.35519,8.31363],[-80.3592,8.31633],[-80.35536,8.3077],[-80.35882,8.30802],[-80.36024,8.30254],[-80.3632,8.3046],[-80.36502,8.30153],[-80.37028,8.30321],[-80.375,8.30847],[-80.38026,8.30344],[-80.39041,8.30084],[-80.39483,8.31533],[-80.39283,8.32034],[-80.3868,8.32424],[-80.3867,8.32881],[-80.38926,8.33317],[-80.39436,8.33368],[-80.39614,8.3244],[-80.40054,8.32195],[-80.39873,8.32866],[-80.40347,8.33548],[-80.39765,8.34598],[-80.40217,8.35439],[-80.40169,8.36579],[-80.39769,8.37873],[-80.40008,8.39614],[-80.39447,8.41475],[-80.38141,8.43975],[-80.36601,8.45801],[-80.35504,8.48821],[-80.35048,8.48154],[-80.35008,8.47302],[-80.34434,8.47113],[-80.3427,8.47314],[-80.34166,8.47961],[-80.34493,8.4843],[-80.34618,8.49612],[-80.34186,8.50143],[-80.34209,8.51066],[-80.33813,8.5193],[-80.33137,8.51905],[-80.32943,8.52808],[-80.3171,8.54257],[-80.30066,8.51183]]]}},{"type":"Feature","properties":{"corregimiento":"Pajonal","distrito":"Penonomé","provincia":"Coclé","bbox":[-80.33948,8.50831,-80.15415,8.68402]},"geometry":{"type":"Polygon","coordinates":[[[-80.15541,8.62727],[-80.15415,8.61875],[-80.18007,8.61657],[-80.18816,8.58644],[-80.21888,8.57046],[-80.22897,8.56851],[-80.23358,8.55956],[-80.23955,8.55263],[-80.24536,8.55063],[-80.24663,8.54658],[-80.2573,8.54259],[-80.2645,8.54543],[-80.27843,8.54343],[-80.28061,8.52798],[-80.29045,8.51911],[-80.29795,8.51633],[-80.29947,8.5101],[-80.30133,8.50831],[-80.30066,8.51183],[-80.3171,8.54257],[-80.32689,8.53046],[-80.32469,8.53419],[-80.32719,8.5412],[-80.3376,8.54563],[-80.33641,8.55459],[-80.33948,8.56125],[-80.3288,8.57544],[-80.32836,8.58395],[-80.32251,8.59185],[-80.32203,8.60083],[-80.31187,8.60455],[-80.2928,8.59802],[-80.27672,8.60287],[-80.27502,8.6096],[-80.2709,8.6102],[-80.26871,8.61551],[-80.25856,8.62119],[-80.26835,8.62712],[-80.26639,8.63388],[-80.23599,8.66956],[-80.23337,8.68402],[-80.23168,8.67828],[-80.22424,8.67404],[-80.21624,8.65886],[-80.20687,8.65356],[-80.20497,8.64588],[-80.23191,8.63901],[-80.22725,8.62663],[-80.22187,8.63045],[-80.19795,8.62707],[-80.17155,8.63682],[-80.16973,8.62666],[-80.15541,8.62727]]]}},{"type":"Feature","properties":{"corregimiento":"Río Grande","distrito":"Penonomé","provincia":"Coclé","bbox":[-80.5251,8.36376,-80.43128,8.5132]},"geometry":{"type":"Polygon","coordinates":[[[-80.43128,8.47236],[-80.43958,8.46805],[-80.43451,8.45856],[-80.43497,8.44955],[-80.44093,8.44062],[-80.44537,8.44162],[-80.44848,8.436],[-80.43978,8.43114],[-80.44423,8.42809],[-80.44903,8.42927],[-80.44732,8.42703],[-80.45031,8.42446],[-80.44455,8.41703],[-80.44885,8.41237],[-80.45002,8.39737],[-80.45603,8.39942],[-80.45628,8.39173],[-80.4627,8.39046],[-80.46444,8.38182],[-80.46787,8.38008],[-80.46726,8.37256],[-80.47064,8.37225],[-80.47549,8.36607],[-80.47868,8.36834],[-80.47876,8.36546],[-80.48303,8.36651],[-80.48535,8.36376],[-80.48722,8.37066],[-80.48463,8.38057],[-80.48967,8.38092],[-80.48664,8.38352],[-80.49227,8.38582],[-80.49161,8.39177],[-80.49722,8.38516],[-80.49686,8.39208],[-80.49243,8.39481],[-80.50383,8.40141],[-80.4998,8.40578],[-80.50338,8.40861],[-80.49822,8.41372],[-80.49915,8.42135],[-80.50863,8.43378],[-80.50553,8.44355],[-80.50946,8.44844],[-80.50688,8.45495],[-80.51745,8.47112],[-80.52048,8.47118],[-80.5251,8.48741],[-80.4666,8.5132],[-80.46504,8.50249],[-80.45819,8.49674],[-80.45388,8.48733],[-80.43905,8.48908],[-80.43413,8.48705],[-80.43128,8.47236]]]}},{"type":"Feature","properties":{"corregimiento":"Tulú","distrito":"Penonomé","provincia":"Coclé","bbox":[-80.44001,8.53755,-80.34877,8.88782]},"geometry":{"type":"Polygon","coordinates":[[[-80.3659,8.86148],[-80.37028,8.84394],[-80.36567,8.83858],[-80.36806,8.83715],[-80.36607,8.83515],[-80.37699,8.82351],[-80.36555,8.82691],[-80.36415,8.82015],[-80.37198,8.81966],[-80.36658,8.81407],[-80.38159,8.8114],[-80.38361,8.80198],[-80.37778,8.79211],[-80.38028,8.78777],[-80.37403,8.77498],[-80.36908,8.77772],[-80.36369,8.77687],[-80.36118,8.78125],[-80.35723,8.77591],[-80.35861,8.76833],[-80.35029,8.76886],[-80.34892,8.76628],[-80.34877,8.75026],[-80.35996,8.75213],[-80.35938,8.74502],[-80.35195,8.7356],[-80.35645,8.72479],[-80.36066,8.72143],[-80.36707,8.7212],[-80.37558,8.7124],[-80.37322,8.70308],[-80.36235,8.69348],[-80.35649,8.65152],[-80.36228,8.64393],[-80.35883,8.6371],[-80.36061,8.6258],[-80.35634,8.62409],[-80.35468,8.60831],[-80.35217,8.60552],[-80.35456,8.59804],[-80.35151,8.59204],[-80.35647,8.57857],[-80.3665,8.57352],[-80.36515,8.56835],[-80.37006,8.54989],[-80.37767,8.5452],[-80.38103,8.54656],[-80.38613,8.53987],[-80.39348,8.53755],[-80.39663,8.53989],[-80.38749,8.54903],[-80.38832,8.55824],[-80.39231,8.55738],[-80.39839,8.57259],[-80.40236,8.57273],[-80.40991,8.62373],[-80.40736,8.62623],[-80.40906,8.63402],[-80.40537,8.63597],[-80.40541,8.64254],[-80.40085,8.64478],[-80.40152,8.64863],[-80.39662,8.65679],[-80.39462,8.65585],[-80.39118,8.66111],[-80.38472,8.66261],[-80.38505,8.65977],[-80.38346,8.66073],[-80.38124,8.6727],[-80.38495,8.69176],[-80.39377,8.70036],[-80.42679,8.70905],[-80.44001,8.7297],[-80.41975,8.76619],[-80.41641,8.83166],[-80.42089,8.88782],[-80.41694,8.88385],[-80.4128,8.88483],[-80.41071,8.87979],[-80.38803,8.88197],[-80.37681,8.87959],[-80.37229,8.87234],[-80.36755,8.87141],[-80.3659,8.86148]]]}},{"type":"Feature","properties":{"corregimiento":"Chiguirí Arriba","distrito":"Penonomé","provincia":"Coclé","bbox":[-80.24674,8.62549,-80.10995,8.8019]},"geometry":{"type":"Polygon","coordinates":[[[-80.11664,8.65747],[-80.1337,8.64386],[-80.13687,8.64781],[-80.15973,8.62549],[-80.16985,8.62675],[-80.17155,8.63682],[-80.19795,8.62707],[-80.22187,8.63045],[-80.22725,8.62663],[-80.23191,8.63901],[-80.20497,8.64588],[-80.20687,8.65356],[-80.21624,8.65886],[-80.22608,8.67639],[-80.23168,8.67828],[-80.23313,8.68413],[-80.23528,8.67821],[-80.24201,8.69947],[-80.23175,8.70168],[-80.22542,8.7109],[-80.23189,8.71633],[-80.23387,8.725],[-80.23647,8.72703],[-80.24329,8.72555],[-80.24674,8.73107],[-80.24534,8.73443],[-80.23518,8.73638],[-80.23192,8.742],[-80.2355,8.75525],[-80.23101,8.77452],[-80.2213,8.77228],[-80.21125,8.77606],[-80.19709,8.79233],[-80.19438,8.80011],[-80.17729,8.79573],[-80.15931,8.8019],[-80.1587,8.79293],[-80.15324,8.79264],[-80.1498,8.78863],[-80.1536,8.78637],[-80.14698,8.77505],[-80.14016,8.76839],[-80.12677,8.76196],[-80.12153,8.73287],[-80.11554,8.73086],[-80.1141,8.72499],[-80.11777,8.72009],[-80.1126,8.71454],[-80.11492,8.70632],[-80.10995,8.69305],[-80.11271,8.69049],[-80.11237,8.68201],[-80.11895,8.67341],[-80.11664,8.65747]]]}},{"type":"Feature","properties":{"corregimiento":"Río Indio","distrito":"Penonomé","provincia":"Coclé","bbox":[-80.35179,8.79133,-80.13411,9.05795]},"geometry":{"type":"Polygon","coordinates":[[[-80.14033,8.94856],[-80.14205,8.94623],[-80.1398,8.94486],[-80.14454,8.94017],[-80.13939,8.93818],[-80.14146,8.93388],[-80.13411,8.93583],[-80.13429,8.93052],[-80.13909,8.92887],[-80.13653,8.92442],[-80.14076,8.92325],[-80.14076,8.92719],[-80.14492,8.91892],[-80.14829,8.92404],[-80.14846,8.91261],[-80.1526,8.91495],[-80.15894,8.91176],[-80.15751,8.90732],[-80.16101,8.90662],[-80.16565,8.89768],[-80.16924,8.90046],[-80.169,8.89777],[-80.17368,8.89467],[-80.17055,8.89306],[-80.17005,8.88242],[-80.16654,8.87689],[-80.17097,8.87745],[-80.16817,8.87101],[-80.16917,8.85791],[-80.16639,8.85718],[-80.16981,8.84911],[-80.17547,8.84459],[-80.16747,8.83831],[-80.16893,8.83334],[-80.16335,8.8255],[-80.16608,8.8173],[-80.15848,8.80889],[-80.16227,8.80535],[-80.15931,8.8019],[-80.17729,8.79573],[-80.19438,8.80011],[-80.19845,8.79133],[-80.20407,8.79651],[-80.21842,8.79562],[-80.22355,8.79957],[-80.22133,8.81312],[-80.22537,8.81876],[-80.22261,8.82142],[-80.23333,8.83765],[-80.23768,8.83685],[-80.23668,8.84017],[-80.24738,8.84413],[-80.25058,8.8481],[-80.25103,8.84504],[-80.25194,8.85053],[-80.25889,8.85897],[-80.2643,8.85451],[-80.27059,8.85975],[-80.27328,8.85884],[-80.27571,8.85121],[-80.28713,8.84913],[-80.28564,8.84741],[-80.28847,8.84328],[-80.29296,8.84075],[-80.29737,8.84677],[-80.30097,8.8464],[-80.30096,8.84989],[-80.30981,8.84956],[-80.31055,8.8594],[-80.31984,8.85724],[-80.32636,8.86505],[-80.34011,8.86214],[-80.34291,8.86477],[-80.34216,8.87547],[-80.3451,8.87755],[-80.35179,8.87545],[-80.23939,8.9875],[-80.23368,8.98974],[-80.23116,8.97884],[-80.22116,8.98015],[-80.21814,8.9918],[-80.21415,8.99264],[-80.21041,9.00053],[-80.20954,9.01203],[-80.20461,9.01974],[-80.20718,9.02395],[-80.20369,9.03347],[-80.20583,9.04613],[-80.19933,9.05661],[-80.19491,9.05795],[-80.19484,9.04996],[-80.18979,9.04628],[-80.18919,9.04046],[-80.18308,9.0409],[-80.18437,9.0337],[-80.17954,9.03106],[-80.17848,9.02614],[-80.18516,9.01929],[-80.18178,9.01545],[-80.18455,9.00906],[-80.17703,8.99763],[-80.18116,8.99508],[-80.17712,8.99203],[-80.18124,8.98696],[-80.17706,8.98258],[-80.17296,8.98491],[-80.17111,8.98319],[-80.1759,8.97479],[-80.17555,8.96868],[-80.16644,8.97154],[-80.16776,8.96777],[-80.16319,8.96896],[-80.16072,8.96245],[-80.15246,8.96625],[-80.15432,8.96205],[-80.14573,8.95729],[-80.14563,8.95127],[-80.14033,8.94856]]]}},{"type":"Feature","properties":{"corregimiento":"Toabré","distrito":"Penonomé","provincia":"Coclé","bbox":[-80.38361,8.58449,-80.19859,8.87751]},"geometry":{"type":"Polygon","coordinates":[[[-80.19859,8.79132],[-80.21125,8.77606],[-80.2213,8.77228],[-80.23101,8.77452],[-80.2355,8.75525],[-80.23192,8.742],[-80.23518,8.73638],[-80.24534,8.73443],[-80.24674,8.73107],[-80.24329,8.72555],[-80.23647,8.72703],[-80.23387,8.725],[-80.23189,8.71633],[-80.2254,8.71104],[-80.23175,8.70168],[-80.24201,8.69947],[-80.23523,8.67804],[-80.23597,8.6696],[-80.26639,8.63388],[-80.26835,8.62712],[-80.25856,8.62119],[-80.26871,8.61551],[-80.2709,8.6102],[-80.27502,8.6096],[-80.27681,8.60281],[-80.2928,8.59802],[-80.30145,8.60253],[-80.3056,8.60098],[-80.31172,8.60454],[-80.31746,8.60353],[-80.32203,8.60083],[-80.32248,8.59261],[-80.33355,8.59104],[-80.34218,8.58449],[-80.35319,8.58487],[-80.35151,8.5922],[-80.35457,8.59813],[-80.35219,8.60564],[-80.35468,8.60831],[-80.35642,8.62431],[-80.36061,8.6258],[-80.35883,8.6371],[-80.36229,8.64301],[-80.35648,8.65144],[-80.36235,8.69348],[-80.37322,8.70308],[-80.37558,8.7124],[-80.36707,8.7212],[-80.36066,8.72143],[-80.35645,8.72479],[-80.35195,8.7356],[-80.35938,8.74502],[-80.35996,8.75213],[-80.34877,8.75026],[-80.34892,8.76628],[-80.35029,8.76886],[-80.35861,8.76833],[-80.35723,8.77591],[-80.36118,8.78125],[-80.36369,8.77687],[-80.36908,8.77772],[-80.37403,8.77498],[-80.38028,8.78777],[-80.37778,8.79211],[-80.38361,8.80198],[-80.38159,8.8114],[-80.36658,8.81407],[-80.37198,8.81966],[-80.36415,8.82015],[-80.36555,8.82691],[-80.37699,8.82351],[-80.36607,8.83515],[-80.36806,8.83715],[-80.36567,8.83858],[-80.37028,8.84394],[-80.36688,8.85138],[-80.36694,8.8607],[-80.35179,8.87545],[-80.34489,8.87751],[-80.34212,8.87539],[-80.34291,8.86477],[-80.34026,8.86222],[-80.32636,8.86505],[-80.31984,8.85724],[-80.31067,8.85948],[-80.30981,8.84956],[-80.30096,8.84989],[-80.30097,8.8464],[-80.29737,8.84677],[-80.29296,8.84075],[-80.28847,8.84328],[-80.28564,8.84741],[-80.28713,8.84913],[-80.27571,8.85121],[-80.27328,8.85884],[-80.27059,8.85975],[-80.2643,8.85451],[-80.25889,8.85897],[-80.25194,8.85053],[-80.25103,8.84504],[-80.25058,8.8481],[-80.24738,8.84413],[-80.23668,8.84017],[-80.23768,8.83685],[-80.23333,8.83765],[-80.22261,8.82142],[-80.22537,8.81876],[-80.22133,8.81312],[-80.22349,8.79944],[-80.21717,8.79531],[-80.20392,8.79646],[-80.19859,8.79132]]]}}]}