{"type":"FeatureCollection","features":[{"type":"Feature","properties":{"corregimiento":"Ciricito","distrito":"Colón","provincia":"Colón","bbox":[-80.10917,8.96242,-79.9935,9.11415]},"geometry":{"type":"MultiPolygon","coordinates":[[[[-80.03669,9.02145],[-80.03709,9.0164],[-80.03318,9.01014],[-80.03139,9.01231],[-80.03508,9.0164],[-80.03095,9.01293],[-80.03335,9.01668],[-80.0281,9.01643],[-80.032,9.00768],[-80.02675,9.01106],[-80.02667,9.01491],[-80.02507,9.01281],[-80.02186,9.01504],[-80.02411,9.0095],[-80.02257,9.00822],[-80.021,9.01111],[-80.02141,9.00524],[-80.01951,9.00932],[-80.01275,8.99378],[-80.01648,8.98988],[-80.01095,8.98472],[-80.01066,8.98693],[-80.00088,8.98755],[-79.9935,8.98004],[-79.99572,8.97163],[-80.05441,8.96242],[-80.05544,8.96351],[-80.05249,8.9731],[-80.04765,8.97609],[-80.04527,8.97174],[-80.04347,8.97608],[-80.04044,8.97342],[-80.0408,8.96874],[-80.04456,8.96818],[-80.04337,8.96653],[-80.04472,8.96608],[-80.0448,8.96567],[-80.04448,8.96504],[-80.03745,8.96735],[-80.03874,8.96948],[-80.03689,8.96871],[-80.0347,8.97481],[-80.03867,8.97957],[-80.03731,8.99374],[-80.0406,8.9946],[-80.03715,9.00213],[-80.03935,9.00981],[-80.03619,9.00929],[-80.03859,9.01256],[-80.04046,9.01052],[-80.04238,9.01558],[-80.03744,9.01407],[-80.03669,9.02145]]],[[[-80.04343,9.11415],[-80.04535,9.10127],[-80.04208,9.09514],[-80.04324,9.09224],[-80.04463,9.09604],[-80.04724,9.09598],[-80.04487,9.09365],[-80.04913,9.08974],[-80.04108,9.0884],[-80.03958,9.08642],[-80.04764,9.08865],[-80.04322,9.08479],[-80.04907,9.0875],[-80.04674,9.08502],[-80.04975,9.08325],[-80.04825,9.08062],[-80.05197,9.08676],[-80.05658,9.08325],[-80.04802,9.07801],[-80.04997,9.07777],[-80.05273,9.08017],[-80.05446,9.07997],[-80.05466,9.08102],[-80.05585,9.08119],[-80.05527,9.07932],[-80.04772,9.07664],[-80.0462,9.0747],[-80.05473,9.07759],[-80.04755,9.07234],[-80.05651,9.07542],[-80.05769,9.07823],[-80.05726,9.07505],[-80.06,9.0784],[-80.06306,9.0786],[-80.06339,9.0778],[-80.05999,9.07666],[-80.06252,9.07603],[-80.06216,9.07299],[-80.05948,9.07663],[-80.05459,9.07192],[-80.05854,9.07248],[-80.05837,9.07139],[-80.04878,9.06768],[-80.05097,9.06528],[-80.05283,9.06919],[-80.05409,9.06913],[-80.05336,9.06488],[-80.0592,9.06893],[-80.05806,9.06588],[-80.04948,9.06292],[-80.05032,9.06048],[-80.05682,9.06409],[-80.05808,9.06248],[-80.06264,9.07024],[-80.0596,9.06247],[-80.06304,9.06505],[-80.06319,9.06447],[-80.05871,9.06108],[-80.06377,9.06223],[-80.06557,9.0641],[-80.06517,9.06632],[-80.06519,9.0667],[-80.06542,9.06683],[-80.06643,9.06394],[-80.0603,9.05938],[-80.05507,9.06016],[-80.05288,9.05699],[-80.06878,9.06178],[-80.07027,9.06594],[-80.07227,9.06312],[-80.07253,9.06531],[-80.07316,9.06533],[-80.07319,9.06669],[-80.07364,9.06687],[-80.07726,9.06119],[-80.0741,9.06398],[-80.07426,9.06117],[-80.07023,9.06263],[-80.0641,9.05848],[-80.06935,9.05956],[-80.07097,9.05899],[-80.06015,9.05678],[-80.05907,9.05537],[-80.06234,9.05641],[-80.06114,9.05313],[-80.07021,9.05702],[-80.06714,9.05506],[-80.06404,9.0476],[-80.06767,9.05208],[-80.06774,9.04888],[-80.0693,9.04982],[-80.06894,9.05249],[-80.0704,9.05453],[-80.07263,9.05571],[-80.07437,9.0552],[-80.06966,9.05237],[-80.07208,9.05259],[-80.07083,9.04912],[-80.07495,9.05245],[-80.0761,9.05217],[-80.07075,9.04665],[-80.07206,9.0434],[-80.07307,9.04721],[-80.07703,9.05169],[-80.07829,9.05169],[-80.07812,9.05257],[-80.07763,9.05339],[-80.07734,9.05427],[-80.07735,9.05452],[-80.07879,9.05187],[-80.07741,9.05016],[-80.07848,9.04948],[-80.07564,9.0481],[-80.07567,9.04222],[-80.07782,9.04284],[-80.07727,9.04677],[-80.08064,9.04209],[-80.08059,9.04962],[-80.08494,9.04642],[-80.08256,9.0493],[-80.08621,9.04927],[-80.08579,9.0457],[-80.08193,9.04176],[-80.08713,9.04402],[-80.08795,9.04348],[-80.08411,9.04174],[-80.08468,9.03962],[-80.07835,9.03937],[-80.07899,9.03209],[-80.08028,9.03824],[-80.08171,9.03328],[-80.08218,9.0385],[-80.08466,9.03494],[-80.08559,9.04071],[-80.08997,9.03927],[-80.09294,9.04248],[-80.09508,9.04005],[-80.09233,9.03953],[-80.09324,9.03583],[-80.09531,9.03679],[-80.09187,9.03318],[-80.09388,9.0276],[-80.08953,9.02685],[-80.08835,9.03331],[-80.08403,9.03369],[-80.08515,9.02989],[-80.08305,9.03199],[-80.08064,9.03019],[-80.08142,9.0278],[-80.08483,9.02949],[-80.08029,9.02572],[-80.08532,9.02742],[-80.08824,9.02537],[-80.08771,9.02193],[-80.09188,9.02235],[-80.09361,9.01985],[-80.08829,9.02134],[-80.09132,9.01835],[-80.09177,9.01589],[-80.08928,9.0191],[-80.0857,9.01762],[-80.08091,9.01],[-80.08305,9.00775],[-80.08075,9.0],[-80.08531,9.00201],[-80.08722,9.00003],[-80.08693,8.99682],[-80.10483,9.01748],[-80.10084,9.02121],[-80.1066,9.03061],[-80.09777,9.04881],[-80.10917,9.06325],[-80.10595,9.06836],[-80.08887,9.07153],[-80.08604,9.07431],[-80.07864,9.0738],[-80.06895,9.07876],[-80.06625,9.08536],[-80.05481,9.0887],[-80.05543,9.09664],[-80.04947,9.10008],[-80.05091,9.10755],[-80.04343,9.11415]]],[[[-80.07166,9.03296],[-80.06786,9.02943],[-80.06874,9.03226],[-80.06736,9.03272],[-80.06688,9.02927],[-80.06448,9.02933],[-80.06819,9.02674],[-80.06493,9.02493],[-80.06632,9.02293],[-80.06555,9.02228],[-80.05919,9.02346],[-80.06121,9.02473],[-80.05878,9.02704],[-80.055,9.02028],[-80.05428,9.02334],[-80.05031,9.02036],[-80.04801,9.02355],[-80.05231,9.01732],[-80.04607,9.01809],[-80.04624,9.02569],[-80.04522,9.02487],[-80.04452,9.0263],[-80.04157,9.02612],[-80.0445,9.02389],[-80.04437,9.02157],[-80.042,9.02229],[-80.04497,9.02126],[-80.04497,9.01606],[-80.04793,9.01676],[-80.0494,9.01584],[-80.04623,9.01512],[-80.0465,9.01022],[-80.04322,9.01247],[-80.04288,9.00889],[-80.04639,9.00691],[-80.03972,9.00338],[-80.04511,8.99979],[-80.04597,9.00146],[-80.04668,9.00153],[-80.04728,8.99876],[-80.04465,8.99546],[-80.04205,8.99956],[-80.0414,8.99572],[-80.04325,8.99271],[-80.04797,8.99579],[-80.05178,8.99439],[-80.04652,8.99338],[-80.04737,8.98989],[-80.04303,8.9916],[-80.04051,8.98738],[-80.04631,8.98573],[-80.04666,8.9839],[-80.04394,8.98489],[-80.04721,8.98034],[-80.0509,8.98263],[-80.04952,8.97962],[-80.05628,8.98393],[-80.05654,8.9802],[-80.0525,8.9805],[-80.05651,8.97823],[-80.0533,8.97517],[-80.05389,8.96856],[-80.05744,8.96563],[-80.08687,8.99777],[-80.08558,9.00029],[-80.07966,8.99717],[-80.07791,9.00412],[-80.0753,9.00236],[-80.07697,8.99923],[-80.07199,8.99887],[-80.0743,8.99552],[-80.07324,8.99356],[-80.07342,8.99594],[-80.06836,8.99847],[-80.07221,9.00113],[-80.06964,9.0021],[-80.07261,9.00589],[-80.07486,9.00337],[-80.07841,9.00483],[-80.07858,9.01423],[-80.08197,9.01885],[-80.08001,9.0212],[-80.07769,9.0186],[-80.07745,9.00893],[-80.07322,9.01021],[-80.0746,9.00671],[-80.07145,9.00961],[-80.07424,9.01259],[-80.07138,9.01294],[-80.07449,9.01742],[-80.06919,9.01388],[-80.07173,9.01801],[-80.06965,9.01915],[-80.06667,9.01579],[-80.06705,9.01256],[-80.06687,9.01159],[-80.06659,9.01152],[-80.06316,9.01708],[-80.06584,9.01606],[-80.06655,9.01986],[-80.0694,9.02012],[-80.06805,9.02285],[-80.06815,9.02393],[-80.07467,9.01828],[-80.07228,9.02248],[-80.07592,9.02069],[-80.07449,9.02376],[-80.07689,9.02101],[-80.07904,9.024],[-80.06893,9.0266],[-80.07036,9.02941],[-80.0707,9.02734],[-80.0778,9.02611],[-80.07512,9.02909],[-80.07152,9.02839],[-80.07166,9.03296]]]]}},{"type":"Feature","properties":{"corregimiento":"Cristóbal","distrito":"Colón","provincia":"Colón","bbox":[-80.09531,8.96351,-79.60014,9.37159]},"geometry":{"type":"MultiPolygon","coordinates":[[[[-79.60306,9.23332],[-79.60014,9.23081],[-79.60663,9.22815],[-79.60471,9.23096],[-79.60653,9.23127],[-79.60964,9.22918],[-79.60905,9.22597],[-79.61296,9.22778],[-79.61781,9.2223],[-79.62134,9.22289],[-79.61971,9.21314],[-79.61376,9.21719],[-79.61365,9.21133],[-79.6191,9.21039],[-79.62121,9.20341],[-79.62741,9.20539],[-79.62623,9.22038],[-79.62099,9.22898],[-79.61489,9.23231],[-79.60406,9.23107],[-79.60358,9.23297],[-79.60306,9.23332]]],[[[-79.81407,9.26168],[-79.81071,9.2611],[-79.81046,9.25972],[-79.81351,9.26157],[-79.81235,9.25954],[-79.8137,9.26121],[-79.81352,9.25961],[-79.81533,9.25908],[-79.81598,9.25952],[-79.81631,9.25894],[-79.81184,9.25869],[-79.81684,9.25638],[-79.81589,9.25565],[-79.81418,9.25703],[-79.81301,9.25688],[-79.81373,9.25539],[-79.81493,9.25495],[-79.81412,9.25279],[-79.81364,9.25481],[-79.81153,9.25496],[-79.8112,9.25732],[-79.80898,9.2571],[-79.80994,9.25848],[-79.80922,9.26001],[-79.80606,9.25731],[-79.80639,9.25964],[-79.80578,9.25958],[-79.80552,9.25918],[-79.80541,9.26054],[-79.80362,9.26211],[-79.80156,9.26245],[-79.8045,9.26005],[-79.80411,9.25914],[-79.80503,9.25725],[-79.80435,9.25699],[-79.80206,9.25958],[-79.79536,9.26155],[-79.7949,9.26435],[-79.79374,9.26285],[-79.78445,9.26828],[-79.7826,9.27136],[-79.77906,9.26948],[-79.77819,9.27168],[-79.78209,9.27251],[-79.77521,9.2741],[-79.77836,9.27709],[-79.77527,9.27698],[-79.77489,9.27817],[-79.77693,9.2798],[-79.77712,9.28023],[-79.77707,9.28056],[-79.77683,9.28079],[-79.7745,9.279],[-79.77456,9.27546],[-79.77183,9.27464],[-79.7717,9.27775],[-79.76885,9.27346],[-79.76813,9.27736],[-79.77375,9.28306],[-79.77299,9.29552],[-79.77774,9.29846],[-79.77452,9.29958],[-79.77598,9.30162],[-79.77617,9.3048],[-79.77413,9.29979],[-79.77466,9.29899],[-79.77584,9.2986],[-79.77594,9.29829],[-79.77124,9.29644],[-79.77102,9.2934],[-79.76567,9.30051],[-79.76451,9.30076],[-79.76364,9.29974],[-79.76366,9.29652],[-79.75942,9.29891],[-79.75979,9.3005],[-79.76081,9.30123],[-79.7607,9.30166],[-79.75888,9.30274],[-79.75677,9.30118],[-79.75527,9.30575],[-79.75438,9.30616],[-79.75189,9.30557],[-79.75147,9.30844],[-79.75057,9.30895],[-79.7487,9.30856],[-79.7516,9.30547],[-79.75496,9.30571],[-79.75593,9.30107],[-79.75695,9.30085],[-79.75949,9.30217],[-79.75862,9.29689],[-79.76418,9.29622],[-79.765,9.30025],[-79.76795,9.2936],[-79.77216,9.29128],[-79.77105,9.28893],[-79.77003,9.29091],[-79.76898,9.29041],[-79.77059,9.28685],[-79.76685,9.28812],[-79.77098,9.28447],[-79.76741,9.28004],[-79.76679,9.28242],[-79.76519,9.2831],[-79.76521,9.2765],[-79.76194,9.27713],[-79.76099,9.28098],[-79.76055,9.2788],[-79.75884,9.28134],[-79.75999,9.27723],[-79.74941,9.28014],[-79.75243,9.27646],[-79.75099,9.2724],[-79.75445,9.27272],[-79.75348,9.26845],[-79.75585,9.26854],[-79.75404,9.2651],[-79.74583,9.26414],[-79.75414,9.26342],[-79.75516,9.26551],[-79.75537,9.26362],[-79.75597,9.2666],[-79.75803,9.26532],[-79.7563,9.26227],[-79.76139,9.26171],[-79.7587,9.27502],[-79.76328,9.27431],[-79.76468,9.27122],[-79.76244,9.26974],[-79.76546,9.26963],[-79.76458,9.26655],[-79.76582,9.26793],[-79.76628,9.26711],[-79.7661,9.2664],[-79.76636,9.26581],[-79.76614,9.26502],[-79.76627,9.26484],[-79.76718,9.26676],[-79.77077,9.26381],[-79.77566,9.26538],[-79.77334,9.26371],[-79.77458,9.26091],[-79.7713,9.26259],[-79.7739,9.25771],[-79.77213,9.25688],[-79.76254,9.26307],[-79.76204,9.26034],[-79.7659,9.25797],[-79.76262,9.25706],[-79.76555,9.25516],[-79.76065,9.25296],[-79.76604,9.25439],[-79.76535,9.24818],[-79.76933,9.24917],[-79.76947,9.24573],[-79.77375,9.25213],[-79.77294,9.24941],[-79.77699,9.25117],[-79.77516,9.24856],[-79.77934,9.2513],[-79.77863,9.24582],[-79.77045,9.24548],[-79.77732,9.24395],[-79.77574,9.24135],[-79.77329,9.24312],[-79.77466,9.23989],[-79.77128,9.24097],[-79.77511,9.23941],[-79.77366,9.23819],[-79.77378,9.23706],[-79.77816,9.24168],[-79.78359,9.23704],[-79.7829,9.24268],[-79.79059,9.24175],[-79.78145,9.24608],[-79.78573,9.25049],[-79.78518,9.25422],[-79.78754,9.25419],[-79.78609,9.24925],[-79.78985,9.24974],[-79.79015,9.24461],[-79.79303,9.24278],[-79.79191,9.24701],[-79.79389,9.24686],[-79.78911,9.25089],[-79.79258,9.25108],[-79.79307,9.25285],[-79.79505,9.25039],[-79.79615,9.25368],[-79.79902,9.24979],[-79.79881,9.25244],[-79.80108,9.25407],[-79.80118,9.24764],[-79.80295,9.24697],[-79.80245,9.24548],[-79.80095,9.2453],[-79.80168,9.24481],[-79.79977,9.2441],[-79.79962,9.2435],[-79.80318,9.24313],[-79.80416,9.24773],[-79.80535,9.24499],[-79.80736,9.24363],[-79.80823,9.24485],[-79.80808,9.24141],[-79.79632,9.24178],[-79.76797,9.21674],[-79.75129,9.19426],[-79.69925,9.18849],[-79.66582,9.17802],[-79.66919,9.18352],[-79.66699,9.18607],[-79.67123,9.18876],[-79.66857,9.18808],[-79.66768,9.19087],[-79.67123,9.19411],[-79.66689,9.19362],[-79.66511,9.17767],[-79.65895,9.17385],[-79.66159,9.18404],[-79.65924,9.1872],[-79.65934,9.18166],[-79.65553,9.17619],[-79.65793,9.16905],[-79.65766,9.17117],[-79.65882,9.17129],[-79.6585,9.16519],[-79.65996,9.1588],[-79.67263,9.15076],[-79.67142,9.15362],[-79.6618,9.15778],[-79.65937,9.16158],[-79.66329,9.15761],[-79.66724,9.1596],[-79.6726,9.1571],[-79.67524,9.16016],[-79.67378,9.1523],[-79.67819,9.14156],[-79.68678,9.13268],[-79.69494,9.13474],[-79.69019,9.11705],[-79.69272,9.11828],[-79.69786,9.11321],[-79.70724,9.11647],[-79.70578,9.11822],[-79.70948,9.11663],[-79.72076,9.12103],[-79.74954,9.12329],[-79.77193,9.11639],[-79.77498,9.12058],[-79.77252,9.11969],[-79.77213,9.12435],[-79.77566,9.12214],[-79.77759,9.12604],[-79.7754,9.12513],[-79.7741,9.12589],[-79.78133,9.13097],[-79.78072,9.12719],[-79.78675,9.13015],[-79.7843,9.13472],[-79.78258,9.13312],[-79.77772,9.13416],[-79.77724,9.13617],[-79.78424,9.13497],[-79.78364,9.14076],[-79.77837,9.13886],[-79.7733,9.14009],[-79.77603,9.1429],[-79.77867,9.14138],[-79.77924,9.1463],[-79.77758,9.14263],[-79.77633,9.14396],[-79.77807,9.1483],[-79.78248,9.14922],[-79.78039,9.14351],[-79.78498,9.14164],[-79.78687,9.1358],[-79.79099,9.13649],[-79.7906,9.13947],[-79.79646,9.1371],[-79.79664,9.14276],[-79.79301,9.14213],[-79.79039,9.14606],[-79.79569,9.14607],[-79.79486,9.15233],[-79.79312,9.15207],[-79.79109,9.15404],[-79.7957,9.15452],[-79.79148,9.15618],[-79.79769,9.1604],[-79.79965,9.15633],[-79.80638,9.16011],[-79.80376,9.1681],[-79.80037,9.16321],[-79.79928,9.16612],[-79.79792,9.16214],[-79.7974,9.16459],[-79.79314,9.16352],[-79.79175,9.1643],[-79.79704,9.16778],[-79.79516,9.17089],[-79.7936,9.16913],[-79.79373,9.17217],[-79.78548,9.16149],[-79.78639,9.1723],[-79.78061,9.17261],[-79.79133,9.17476],[-79.78479,9.17643],[-79.79035,9.17752],[-79.78619,9.18297],[-79.79172,9.18255],[-79.79162,9.17978],[-79.7927,9.18143],[-79.79458,9.17929],[-79.79412,9.18326],[-79.79558,9.18036],[-79.79639,9.18241],[-79.79751,9.18324],[-79.79827,9.18133],[-79.80026,9.18252],[-79.79857,9.18454],[-79.804,9.18463],[-79.80314,9.18676],[-79.80626,9.18822],[-79.81483,9.18446],[-79.8137,9.18891],[-79.81597,9.18996],[-79.81772,9.18567],[-79.81937,9.18815],[-79.81977,9.18573],[-79.82474,9.18571],[-79.82108,9.18195],[-79.83365,9.17868],[-79.82956,9.18036],[-79.82784,9.18823],[-79.82669,9.18588],[-79.81643,9.19237],[-79.81775,9.19682],[-79.80685,9.19378],[-79.80976,9.19662],[-79.80761,9.1986],[-79.80942,9.20208],[-79.80629,9.20442],[-79.81038,9.20491],[-79.80892,9.20808],[-79.81233,9.20644],[-79.81363,9.2086],[-79.81194,9.20887],[-79.81124,9.21215],[-79.81462,9.20772],[-79.81726,9.20872],[-79.81714,9.20553],[-79.81417,9.20698],[-79.81308,9.20479],[-79.8172,9.20327],[-79.81473,9.20119],[-79.81721,9.19767],[-79.81826,9.20137],[-79.81966,9.20153],[-79.81792,9.1988],[-79.82099,9.19428],[-79.82402,9.19521],[-79.82268,9.19752],[-79.8283,9.19868],[-79.82474,9.19647],[-79.82487,9.19305],[-79.82735,9.19476],[-79.82665,9.19232],[-79.82998,9.19212],[-79.83037,9.19532],[-79.83507,9.19329],[-79.83535,9.19535],[-79.8375,9.19032],[-79.84501,9.18831],[-79.84688,9.1911],[-79.84223,9.19216],[-79.84592,9.19554],[-79.8458,9.19267],[-79.85037,9.19236],[-79.85185,9.18677],[-79.85895,9.18588],[-79.85806,9.192],[-79.85356,9.19068],[-79.85639,9.19361],[-79.85397,9.19489],[-79.85603,9.19827],[-79.85352,9.20124],[-79.8513,9.19941],[-79.84995,9.2031],[-79.84516,9.20278],[-79.84139,9.20726],[-79.83809,9.20591],[-79.83969,9.20813],[-79.8366,9.20671],[-79.83508,9.21085],[-79.83363,9.2065],[-79.83111,9.2066],[-79.83304,9.2119],[-79.83087,9.21276],[-79.83071,9.20968],[-79.82825,9.21085],[-79.82912,9.2146],[-79.82411,9.21335],[-79.82527,9.22234],[-79.82838,9.22342],[-79.82459,9.22461],[-79.82832,9.22444],[-79.82369,9.22928],[-79.82872,9.2254],[-79.82932,9.22763],[-79.83134,9.22649],[-79.83064,9.22816],[-79.83171,9.22852],[-79.83186,9.22547],[-79.82959,9.2239],[-79.8323,9.22475],[-79.83345,9.2209],[-79.83469,9.2242],[-79.83629,9.21959],[-79.84009,9.22064],[-79.83894,9.22446],[-79.83649,9.22424],[-79.83725,9.22709],[-79.84402,9.23049],[-79.83944,9.23231],[-79.83624,9.2274],[-79.83203,9.22988],[-79.83697,9.23384],[-79.82941,9.23008],[-79.82759,9.23424],[-79.82596,9.23308],[-79.82425,9.23414],[-79.82793,9.23464],[-79.82403,9.24792],[-79.82132,9.24825],[-79.82447,9.24909],[-79.82663,9.24528],[-79.82881,9.25159],[-79.82564,9.24871],[-79.82645,9.25175],[-79.82209,9.25125],[-79.82234,9.25637],[-79.82019,9.25565],[-79.81624,9.24988],[-79.81964,9.2429],[-79.81316,9.2484],[-79.8092,9.23632],[-79.80552,9.23277],[-79.80054,9.23416],[-79.80209,9.23599],[-79.80526,9.23381],[-79.8087,9.24105],[-79.80848,9.24488],[-79.80447,9.24725],[-79.8057,9.24872],[-79.80453,9.24891],[-79.80305,9.24635],[-79.80323,9.24702],[-79.80255,9.24809],[-79.80181,9.24824],[-79.80265,9.25346],[-79.80137,9.25278],[-79.80189,9.25373],[-79.80135,9.25407],[-79.80018,9.25434],[-79.79818,9.25248],[-79.79592,9.254],[-79.7924,9.25328],[-79.79129,9.25181],[-79.79021,9.25321],[-79.78882,9.25097],[-79.78791,9.25447],[-79.78522,9.25451],[-79.78219,9.25038],[-79.77465,9.25289],[-79.77254,9.25203],[-79.77421,9.25443],[-79.77952,9.25476],[-79.77511,9.26044],[-79.77653,9.26626],[-79.7777,9.26267],[-79.78324,9.26735],[-79.79663,9.25795],[-79.79607,9.26098],[-79.8048,9.25672],[-79.80519,9.25721],[-79.80493,9.258],[-79.80535,9.25839],[-79.8041,9.26086],[-79.80545,9.25874],[-79.80603,9.25947],[-79.80583,9.25713],[-79.80925,9.25549],[-79.80753,9.25742],[-79.80929,9.25861],[-79.80868,9.25716],[-79.81036,9.25545],[-79.81056,9.2566],[-79.81102,9.2569],[-79.8106,9.25465],[-79.81463,9.2519],[-79.81618,9.25408],[-79.81344,9.25665],[-79.81638,9.25541],[-79.81789,9.25797],[-79.81379,9.25786],[-79.81642,9.25879],[-79.81651,9.25907],[-79.81612,9.25993],[-79.8138,9.26002],[-79.81407,9.26168]]],[[[-79.94838,9.37107],[-79.95198,9.36721],[-79.94731,9.37038],[-79.94942,9.36018],[-79.94495,9.35322],[-79.95107,9.34663],[-79.94745,9.34619],[-79.94929,9.34187],[-79.94637,9.33463],[-79.94924,9.32888],[-79.94408,9.32667],[-79.95079,9.3237],[-79.95221,9.32],[-79.94629,9.3126],[-79.93293,9.31012],[-79.92692,9.31281],[-79.92188,9.31137],[-79.92035,9.29928],[-79.92303,9.27536],[-79.91821,9.29999],[-79.91682,9.29141],[-79.91402,9.29171],[-79.91393,9.30394],[-79.91709,9.30526],[-79.91663,9.33117],[-79.90461,9.34507],[-79.90562,9.3494],[-79.90224,9.34496],[-79.90449,9.33509],[-79.90172,9.341],[-79.89924,9.34067],[-79.90239,9.34888],[-79.90858,9.35127],[-79.90675,9.35332],[-79.91396,9.35246],[-79.91179,9.35447],[-79.91523,9.35562],[-79.90319,9.35525],[-79.89586,9.34762],[-79.89165,9.34583],[-79.89044,9.34766],[-79.89197,9.34356],[-79.88653,9.33967],[-79.87079,9.34144],[-79.87196,9.33825],[-79.86575,9.33719],[-79.86459,9.33429],[-79.85305,9.34094],[-79.84627,9.34015],[-79.84643,9.32828],[-79.84562,9.33071],[-79.84134,9.33385],[-79.84159,9.33091],[-79.84289,9.32971],[-79.84382,9.32965],[-79.84373,9.32922],[-79.83924,9.33175],[-79.83777,9.33039],[-79.83958,9.32877],[-79.83781,9.32768],[-79.83891,9.32638],[-79.84015,9.32644],[-79.84184,9.328],[-79.84226,9.3259],[-79.8435,9.32513],[-79.84547,9.32476],[-79.8413,9.32501],[-79.8426,9.32469],[-79.84273,9.3239],[-79.84459,9.3225],[-79.84526,9.32252],[-79.84489,9.32142],[-79.84351,9.32276],[-79.84223,9.32141],[-79.84224,9.32235],[-79.83996,9.32441],[-79.83653,9.32474],[-79.83665,9.32608],[-79.83532,9.32709],[-79.83724,9.33013],[-79.83666,9.33397],[-79.83283,9.33641],[-79.83335,9.33771],[-79.83253,9.34032],[-79.82992,9.33999],[-79.83252,9.33981],[-79.83281,9.33614],[-79.83613,9.33399],[-79.83448,9.33205],[-79.83664,9.33189],[-79.83498,9.32709],[-79.8361,9.32472],[-79.84217,9.32121],[-79.84353,9.32238],[-79.84476,9.32127],[-79.84547,9.32159],[-79.84547,9.32256],[-79.84321,9.32393],[-79.84586,9.32468],[-79.84183,9.32813],[-79.83886,9.32671],[-79.83978,9.32881],[-79.83825,9.33006],[-79.84369,9.32893],[-79.8439,9.32972],[-79.842,9.33079],[-79.84282,9.33184],[-79.84572,9.32778],[-79.84652,9.32808],[-79.84691,9.32903],[-79.84643,9.33268],[-79.84804,9.33285],[-79.84806,9.32335],[-79.85373,9.31951],[-79.85462,9.32157],[-79.85876,9.30981],[-79.86278,9.31111],[-79.8604,9.30536],[-79.86567,9.30864],[-79.86343,9.31816],[-79.86585,9.31375],[-79.86755,9.31503],[-79.86659,9.31768],[-79.86551,9.31804],[-79.86534,9.31902],[-79.86938,9.31506],[-79.86747,9.31009],[-79.87305,9.31175],[-79.86939,9.30338],[-79.87599,9.30395],[-79.87538,9.30009],[-79.87332,9.301],[-79.87169,9.29743],[-79.86893,9.29912],[-79.86766,9.29642],[-79.87288,9.29457],[-79.87084,9.29144],[-79.87573,9.29575],[-79.87882,9.29453],[-79.87779,9.28673],[-79.87565,9.28884],[-79.87214,9.28567],[-79.88481,9.28336],[-79.88236,9.27955],[-79.8781,9.2805],[-79.87958,9.27459],[-79.89096,9.27033],[-79.89866,9.26305],[-79.91447,9.26132],[-79.92314,9.26804],[-79.9226,9.27292],[-79.93204,9.2582],[-79.94263,9.25941],[-79.94051,9.2537],[-79.94958,9.23711],[-79.94243,9.24059],[-79.94199,9.23393],[-79.94619,9.23276],[-79.9387,9.23169],[-79.94687,9.22814],[-79.94489,9.22596],[-79.94716,9.22368],[-79.94473,9.223],[-79.95398,9.21637],[-79.95678,9.2107],[-79.95584,9.20332],[-79.96051,9.1967],[-79.95738,9.19143],[-79.95465,9.19323],[-79.95349,9.19079],[-79.95777,9.18709],[-79.95896,9.17617],[-79.96218,9.1771],[-79.96123,9.17198],[-79.95809,9.17056],[-79.96038,9.16355],[-79.96374,9.16225],[-79.96285,9.15729],[-79.95754,9.15706],[-79.9597,9.14367],[-79.96167,9.14475],[-79.9622,9.1457],[-79.96178,9.14652],[-79.96282,9.14539],[-79.9637,9.14571],[-79.96221,9.14507],[-79.96219,9.14046],[-79.96353,9.13996],[-79.96195,9.14022],[-79.96145,9.13954],[-79.96321,9.13822],[-79.96412,9.13865],[-79.96531,9.14073],[-79.9632,9.13537],[-79.96694,9.13539],[-79.96567,9.13507],[-79.96517,9.13375],[-79.96404,9.13389],[-79.96492,9.13189],[-79.96226,9.13346],[-79.96365,9.13028],[-79.96191,9.13075],[-79.96159,9.12909],[-79.96293,9.12772],[-79.96427,9.12878],[-79.9653,9.1275],[-79.96701,9.12969],[-79.96659,9.12767],[-79.96721,9.12585],[-79.97027,9.12614],[-79.97128,9.12092],[-79.97305,9.12501],[-79.96869,9.12819],[-79.9709,9.12781],[-79.97144,9.12927],[-79.97311,9.12655],[-79.97393,9.1265],[-79.9748,9.12782],[-79.97521,9.12593],[-79.97756,9.12653],[-79.97615,9.1247],[-79.97619,9.12221],[-79.97914,9.12174],[-79.97986,9.12248],[-79.97996,9.12344],[-79.97834,9.12601],[-79.97896,9.12524],[-79.98118,9.12471],[-79.98258,9.12923],[-79.98143,9.13102],[-79.97538,9.13158],[-79.98288,9.13139],[-79.98376,9.13317],[-79.98377,9.12786],[-79.98461,9.1273],[-79.98551,9.12759],[-79.984,9.12646],[-79.98233,9.12265],[-79.9829,9.11783],[-79.98672,9.12407],[-79.9864,9.12132],[-79.98756,9.12189],[-79.98918,9.12354],[-79.98945,9.12573],[-79.98969,9.1239],[-79.99102,9.12373],[-79.98908,9.12256],[-79.98924,9.12058],[-79.98495,9.11699],[-79.98752,9.1181],[-79.98569,9.11529],[-79.9852,9.1128],[-79.98825,9.11341],[-79.98854,9.1156],[-79.98926,9.11695],[-79.98966,9.11379],[-79.99267,9.11724],[-79.99421,9.11723],[-79.99491,9.11901],[-79.99628,9.11974],[-79.99066,9.11225],[-79.99312,9.11162],[-79.9951,9.11541],[-79.99628,9.10976],[-79.99735,9.11512],[-79.99782,9.11146],[-80.00038,9.1132],[-79.99944,9.10877],[-80.00206,9.11189],[-80.00056,9.11636],[-80.00338,9.11325],[-80.00567,9.11434],[-80.00377,9.11706],[-80.006,9.11852],[-80.0053,9.11962],[-80.00331,9.11939],[-80.00764,9.12269],[-80.00793,9.11664],[-80.00921,9.11874],[-80.01067,9.11762],[-80.01154,9.11889],[-80.01221,9.11743],[-80.01302,9.1186],[-80.01453,9.11697],[-80.01579,9.11742],[-80.01731,9.11627],[-80.01832,9.11616],[-80.01722,9.11611],[-80.01582,9.11698],[-80.01087,9.11359],[-80.00875,9.11498],[-80.00797,9.11069],[-80.00478,9.10971],[-80.00708,9.10797],[-80.01105,9.11261],[-80.0095,9.10159],[-80.01237,9.10875],[-80.01328,9.10665],[-80.0136,9.11327],[-80.01682,9.11438],[-80.01787,9.11396],[-80.01599,9.11367],[-80.01483,9.11261],[-80.01495,9.10692],[-80.01718,9.11097],[-80.02148,9.11344],[-80.01909,9.11144],[-80.01815,9.10882],[-80.02004,9.10841],[-80.02133,9.11013],[-80.02158,9.11155],[-80.0216,9.10785],[-80.02374,9.11058],[-80.02117,9.10586],[-80.02211,9.10419],[-80.02506,9.11026],[-80.02737,9.10857],[-80.0293,9.10434],[-80.0278,9.10372],[-80.0271,9.09898],[-80.03118,9.10447],[-80.03078,9.1069],[-80.03436,9.10483],[-80.03255,9.10387],[-80.03187,9.10223],[-80.03457,9.10363],[-80.03247,9.1012],[-80.03328,9.09665],[-80.03541,9.09963],[-80.03517,9.10249],[-80.03548,9.10094],[-80.03637,9.10022],[-80.03722,9.10038],[-80.03656,9.10424],[-80.0377,9.09962],[-80.0398,9.10149],[-80.03859,9.09812],[-80.04007,9.09802],[-80.04106,9.09892],[-80.04117,9.10117],[-80.04401,9.10129],[-80.04217,9.10447],[-80.04457,9.10264],[-80.04347,9.09777],[-80.04191,9.09779],[-80.04305,9.09658],[-80.04052,9.09565],[-80.0378,9.09075],[-80.0406,9.08973],[-80.04252,9.09457],[-80.04277,9.09061],[-80.0443,9.09256],[-80.04407,9.0942],[-80.04543,9.09501],[-80.04425,9.09408],[-80.04468,9.09288],[-80.04585,9.09288],[-80.04381,9.0909],[-80.04758,9.09001],[-80.04214,9.09004],[-80.04365,9.08757],[-80.04466,9.08938],[-80.04913,9.08974],[-80.04831,9.09212],[-80.04808,9.09048],[-80.04605,9.09042],[-80.04684,9.09249],[-80.04487,9.09365],[-80.04724,9.09598],[-80.04463,9.09604],[-80.04272,9.09254],[-80.04535,9.10127],[-80.04455,9.10313],[-80.04371,9.10402],[-80.04071,9.10521],[-80.04239,9.10327],[-80.04005,9.10318],[-80.04086,9.10188],[-80.03939,9.09873],[-80.04025,9.10196],[-80.03835,9.10227],[-80.03995,9.1056],[-80.0375,9.10632],[-80.03544,9.10338],[-80.03697,9.10105],[-80.03528,9.10293],[-80.03479,9.1024],[-80.03474,9.10039],[-80.03442,9.1002],[-80.0346,9.10434],[-80.03566,9.10511],[-80.03577,9.10588],[-80.03059,9.10831],[-80.03026,9.10514],[-80.0295,9.10504],[-80.02557,9.11198],[-80.02383,9.10921],[-80.02386,9.11186],[-80.0211,9.11196],[-80.0199,9.10962],[-80.01999,9.11202],[-80.0227,9.11236],[-80.02157,9.11541],[-80.01851,9.11187],[-80.01629,9.11171],[-80.01921,9.11433],[-80.01726,9.11519],[-80.01465,9.11405],[-80.01536,9.11592],[-80.0187,9.11491],[-80.01897,9.11671],[-80.01575,9.11835],[-80.0141,9.1176],[-80.01379,9.12008],[-80.00854,9.11862],[-80.00806,9.12528],[-80.00631,9.12172],[-80.00411,9.12425],[-80.00283,9.11952],[-80.00353,9.11919],[-80.00499,9.1192],[-80.00312,9.11667],[-80.00063,9.11763],[-79.99642,9.11552],[-79.99588,9.11839],[-79.99972,9.11994],[-79.99452,9.12124],[-79.9899,9.11475],[-79.98941,9.11852],[-79.98778,9.11448],[-79.98663,9.1141],[-79.99217,9.1249],[-79.99008,9.12402],[-79.98918,9.12769],[-79.98778,9.12239],[-79.98658,9.12193],[-79.98741,9.12374],[-79.9864,9.1255],[-79.98275,9.12219],[-79.98632,9.12773],[-79.98418,9.12772],[-79.98598,9.12927],[-79.98412,9.13506],[-79.9834,9.13332],[-79.98288,9.13439],[-79.98161,9.13541],[-79.98283,9.13174],[-79.97947,9.13208],[-79.97899,9.13503],[-79.97832,9.132],[-79.97667,9.13535],[-79.97623,9.13189],[-79.97176,9.1334],[-79.9739,9.13022],[-79.98232,9.12894],[-79.98069,9.1251],[-79.97803,9.12628],[-79.97915,9.12204],[-79.9765,9.1243],[-79.97787,9.12699],[-79.97475,9.12823],[-79.97327,9.12685],[-79.97064,9.13105],[-79.97077,9.12826],[-79.96882,9.13041],[-79.96766,9.13013],[-79.96806,9.1278],[-79.97006,9.12692],[-79.97035,9.12657],[-79.96699,9.12739],[-79.96706,9.13003],[-79.96453,9.13017],[-79.96284,9.12804],[-79.96763,9.1358],[-79.96349,9.13545],[-79.96623,9.14063],[-79.96462,9.14143],[-79.96385,9.13893],[-79.96331,9.13887],[-79.96384,9.13976],[-79.96372,9.14234],[-79.96245,9.14503],[-79.96405,9.14566],[-79.96066,9.14699],[-79.96205,9.14563],[-79.95994,9.1439],[-79.95975,9.14648],[-79.9865,9.17405],[-79.99714,9.20997],[-79.99593,9.28135],[-80.01296,9.29266],[-80.02134,9.28175],[-80.0239,9.28321],[-80.02583,9.28101],[-80.02706,9.28507],[-80.03129,9.28587],[-80.03153,9.28121],[-80.03496,9.2821],[-80.03683,9.27837],[-80.04505,9.28591],[-80.03284,9.29684],[-80.02403,9.30061],[-80.01902,9.31236],[-80.00164,9.31843],[-80.00395,9.32686],[-79.99115,9.34056],[-79.9837,9.35364],[-79.98553,9.35619],[-79.9802,9.36133],[-79.97029,9.36581],[-79.96404,9.36458],[-79.96061,9.36943],[-79.95443,9.37159],[-79.94838,9.37107]]],[[[-79.84508,9.30393],[-79.83114,9.29777],[-79.83247,9.2934],[-79.83869,9.29649],[-79.83955,9.28457],[-79.84607,9.28542],[-79.8472,9.27885],[-79.86196,9.2797],[-79.86075,9.28464],[-79.8579,9.28287],[-79.85535,9.28645],[-79.85282,9.28531],[-79.85174,9.29162],[-79.8475,9.29116],[-79.84674,9.29181],[-79.85358,9.29383],[-79.85422,9.28939],[-79.8621,9.28641],[-79.85668,9.29113],[-79.86064,9.291],[-79.85806,9.29536],[-79.86096,9.29735],[-79.85645,9.29728],[-79.85986,9.29914],[-79.85643,9.29953],[-79.85895,9.30276],[-79.8482,9.30216],[-79.84891,9.29906],[-79.84285,9.29984],[-79.84508,9.30393]]],[[[-79.85359,9.24823],[-79.84932,9.24309],[-79.84951,9.23703],[-79.84684,9.2392],[-79.84321,9.23336],[-79.84852,9.23607],[-79.84852,9.23235],[-79.85002,9.23413],[-79.85718,9.22877],[-79.85435,9.22528],[-79.85209,9.22652],[-79.85246,9.22342],[-79.84785,9.22303],[-79.8521,9.22206],[-79.84793,9.22126],[-79.85242,9.21383],[-79.8514,9.21026],[-79.85347,9.20806],[-79.85777,9.21161],[-79.85493,9.20746],[-79.85832,9.21015],[-79.86128,9.20614],[-79.85925,9.21184],[-79.86139,9.21241],[-79.86277,9.20794],[-79.86643,9.20838],[-79.86381,9.20526],[-79.86715,9.20189],[-79.86949,9.20759],[-79.8674,9.21457],[-79.86974,9.21753],[-79.8676,9.22324],[-79.87275,9.22452],[-79.87083,9.2319],[-79.87486,9.23806],[-79.87226,9.2399],[-79.86943,9.23411],[-79.86748,9.236],[-79.868,9.23388],[-79.86284,9.23137],[-79.86481,9.2334],[-79.86182,9.2357],[-79.85866,9.23084],[-79.85576,9.23099],[-79.85806,9.23508],[-79.85575,9.236],[-79.85825,9.23705],[-79.85644,9.2389],[-79.8594,9.23889],[-79.85806,9.2421],[-79.85546,9.24135],[-79.85667,9.24433],[-79.85395,9.24323],[-79.85772,9.24725],[-79.85359,9.24823]]],[[[-80.06775,9.02955],[-80.06787,9.02965],[-80.06842,9.03003],[-80.06897,9.0322],[-80.06725,9.03353],[-80.06422,9.02916],[-80.06461,9.02717],[-80.06514,9.02696],[-80.06716,9.02705],[-80.06754,9.02659],[-80.06648,9.02684],[-80.06573,9.02668],[-80.06556,9.02632],[-80.0658,9.02573],[-80.06483,9.02512],[-80.06408,9.02688],[-80.05666,9.02739],[-80.06392,9.03537],[-80.05841,9.03498],[-80.06278,9.03927],[-80.06229,9.04117],[-80.06166,9.04127],[-80.05991,9.03898],[-80.05942,9.03929],[-80.05834,9.03927],[-80.05983,9.03974],[-80.06016,9.04152],[-80.05793,9.0436],[-80.05584,9.04258],[-80.05611,9.04086],[-80.05507,9.04081],[-80.05427,9.0397],[-80.05481,9.03923],[-80.05395,9.03925],[-80.0539,9.03872],[-80.05396,9.04316],[-80.05,9.04073],[-80.04999,9.03831],[-80.05173,9.03969],[-80.05149,9.03748],[-80.05185,9.03696],[-80.05225,9.03688],[-80.05567,9.03812],[-80.05203,9.03704],[-80.05174,9.04037],[-80.05293,9.03865],[-80.05403,9.03835],[-80.05595,9.03904],[-80.05629,9.04259],[-80.05995,9.04142],[-80.05765,9.03855],[-80.05999,9.03875],[-80.06214,9.04108],[-80.06256,9.03927],[-80.05663,9.03702],[-80.05751,9.03401],[-80.05627,9.03362],[-80.05582,9.03231],[-80.05446,9.03168],[-80.05443,9.03129],[-80.05806,9.03024],[-80.0546,9.0283],[-80.05483,9.02377],[-80.05208,9.02576],[-80.04976,9.02373],[-80.05091,9.02591],[-80.04828,9.02649],[-80.04969,9.02635],[-80.05136,9.02765],[-80.05216,9.02731],[-80.05278,9.03144],[-80.0514,9.03097],[-80.05093,9.03323],[-80.05059,9.034],[-80.04996,9.03441],[-80.05164,9.03469],[-80.05122,9.03321],[-80.05226,9.03223],[-80.05492,9.03371],[-80.05487,9.03773],[-80.05486,9.03454],[-80.0521,9.03292],[-80.05188,9.03492],[-80.04973,9.0345],[-80.05147,9.02806],[-80.05067,9.02979],[-80.04652,9.03102],[-80.05054,9.02733],[-80.04819,9.02666],[-80.04864,9.02446],[-80.04985,9.02352],[-80.05308,9.02408],[-80.04993,9.02276],[-80.05045,9.02197],[-80.04877,9.02361],[-80.0478,9.02368],[-80.0476,9.02205],[-80.04871,9.02001],[-80.04988,9.01987],[-80.04983,9.01911],[-80.04903,9.01971],[-80.04759,9.01924],[-80.04817,9.02066],[-80.04639,9.02228],[-80.04778,9.0252],[-80.04588,9.02607],[-80.04539,9.02574],[-80.04518,9.02516],[-80.04486,9.02636],[-80.04282,9.02692],[-80.04242,9.02996],[-80.04083,9.02668],[-80.03928,9.02916],[-80.04029,9.02562],[-80.04271,9.02575],[-80.04281,9.02475],[-80.04394,9.02396],[-80.04248,9.02411],[-80.04313,9.02362],[-80.04322,9.02309],[-80.04372,9.02239],[-80.04432,9.02194],[-80.0418,9.02252],[-80.04151,9.02008],[-80.04455,9.02089],[-80.04422,9.01815],[-80.04488,9.01598],[-80.04535,9.01571],[-80.04726,9.01604],[-80.04601,9.01527],[-80.04506,9.0126],[-80.04428,9.01483],[-80.04247,9.0116],[-80.04263,9.00893],[-80.04386,9.00729],[-80.04509,9.00728],[-80.04445,9.00721],[-80.04414,9.00598],[-80.0432,9.00583],[-80.04209,9.00492],[-80.04154,9.00535],[-80.04142,9.00474],[-80.04003,9.00633],[-80.03892,9.00383],[-80.04042,9.00134],[-80.04195,9.00188],[-80.03993,8.99761],[-80.04305,8.99218],[-80.04145,8.99403],[-80.04242,8.99043],[-80.04061,8.98899],[-80.04029,8.98747],[-80.04081,8.98647],[-80.03974,8.9885],[-80.04096,8.99091],[-80.03962,8.99092],[-80.03952,8.98687],[-80.04174,8.98596],[-80.04435,8.98397],[-80.0454,8.97918],[-80.04415,8.98392],[-80.0407,8.98601],[-80.04206,8.98455],[-80.04089,8.98439],[-80.03878,8.97716],[-80.0393,8.97679],[-80.03968,8.97782],[-80.04061,8.97766],[-80.03947,8.97484],[-80.03839,8.9742],[-80.03934,8.97522],[-80.0383,8.97819],[-80.03925,8.98137],[-80.03879,8.98338],[-80.04034,8.98493],[-80.03768,8.98578],[-80.03931,8.98692],[-80.03949,8.99098],[-80.04136,8.99133],[-80.03899,8.99295],[-80.04137,8.99471],[-80.03985,8.99738],[-80.04003,9.00066],[-80.03983,9.00128],[-80.03754,9.00302],[-80.04269,9.01577],[-80.04198,9.01679],[-80.03848,9.0163],[-80.03876,9.02038],[-80.03817,9.02269],[-80.03724,9.02278],[-80.03555,9.01982],[-80.03667,9.01663],[-80.03448,9.01678],[-80.03095,9.01347],[-80.03365,9.01666],[-80.03186,9.01753],[-80.03408,9.0179],[-80.028,9.0185],[-80.02803,9.02652],[-80.03762,9.03669],[-80.03701,9.03931],[-80.04125,9.04018],[-80.03858,9.04219],[-80.04106,9.04848],[-80.03772,9.04743],[-80.0396,9.04506],[-80.0362,9.04536],[-80.03687,9.04171],[-80.03427,9.04476],[-80.03695,9.04856],[-80.03337,9.04656],[-80.0323,9.0485],[-80.03025,9.04177],[-80.03227,9.04122],[-80.03405,9.0382],[-80.03159,9.03731],[-80.02937,9.04261],[-80.02584,9.04283],[-80.02873,9.03435],[-80.02476,9.0411],[-80.02095,9.03756],[-80.02553,9.032],[-80.02009,9.03699],[-80.01779,9.03089],[-80.02029,9.0311],[-80.0226,9.02943],[-80.01562,9.0305],[-80.01881,9.0279],[-80.01592,9.02777],[-80.01529,9.02231],[-80.0197,9.02509],[-80.01728,9.02091],[-80.02506,9.02342],[-80.01957,9.01953],[-80.02235,9.01962],[-80.0206,9.01695],[-80.02642,9.01575],[-80.0263,9.01503],[-80.02053,9.01612],[-80.0206,9.01452],[-80.02277,9.0125],[-80.02253,9.01175],[-80.02168,9.01131],[-80.02109,9.01168],[-80.02062,9.01087],[-80.02004,9.0105],[-80.02098,9.01178],[-80.02237,9.01182],[-80.02241,9.01242],[-80.01984,9.01416],[-80.01975,9.01712],[-80.01809,9.0196],[-80.0165,9.01968],[-80.01659,9.01516],[-80.01555,9.01546],[-80.01417,9.01395],[-80.01286,9.01471],[-80.01087,9.01278],[-80.01096,9.01104],[-80.00706,9.00789],[-80.011,9.01302],[-80.01211,9.01726],[-80.01454,9.01562],[-80.01547,9.01753],[-80.01405,9.02094],[-80.01076,9.02116],[-80.01373,9.02247],[-80.01167,9.02451],[-80.01347,9.02515],[-80.01712,9.03433],[-80.01513,9.0346],[-80.01741,9.03552],[-80.01982,9.03916],[-80.01981,9.03978],[-80.01896,9.04023],[-80.01702,9.03963],[-80.01864,9.04106],[-80.01845,9.04188],[-80.01553,9.04223],[-80.01806,9.04257],[-80.01769,9.04436],[-80.01694,9.04477],[-80.01822,9.04498],[-80.01769,9.0468],[-80.02003,9.04043],[-80.02108,9.04],[-80.02334,9.0422],[-80.02232,9.04255],[-80.02307,9.04311],[-80.02125,9.04462],[-80.02135,9.04557],[-80.02186,9.04441],[-80.02393,9.04333],[-80.02554,9.04622],[-80.02497,9.04742],[-80.02327,9.04758],[-80.02475,9.04829],[-80.02304,9.04961],[-80.02234,9.0497],[-80.02247,9.05036],[-80.02647,9.047],[-80.02599,9.04523],[-80.02639,9.0442],[-80.02761,9.04436],[-80.02823,9.04521],[-80.02825,9.04722],[-80.02973,9.0459],[-80.03055,9.04757],[-80.02947,9.04745],[-80.02971,9.04854],[-80.02552,9.05007],[-80.02508,9.05162],[-80.02589,9.05036],[-80.02632,9.05039],[-80.02662,9.05101],[-80.02663,9.04999],[-80.02739,9.04963],[-80.02798,9.05149],[-80.0282,9.05005],[-80.02895,9.05081],[-80.02887,9.04964],[-80.02991,9.04954],[-80.03073,9.0507],[-80.0304,9.05322],[-80.03245,9.0502],[-80.03381,9.05136],[-80.03327,9.05336],[-80.03447,9.05302],[-80.0346,9.05375],[-80.03488,9.05128],[-80.03578,9.05092],[-80.03648,9.05131],[-80.03657,9.05319],[-80.03539,9.05399],[-80.03478,9.05568],[-80.03531,9.05629],[-80.03502,9.05524],[-80.03613,9.05392],[-80.03834,9.05407],[-80.03935,9.05476],[-80.03935,9.05531],[-80.03689,9.0559],[-80.03843,9.05665],[-80.03898,9.05783],[-80.0381,9.05871],[-80.03622,9.05737],[-80.03736,9.05906],[-80.0359,9.06041],[-80.0349,9.0606],[-80.03761,9.0603],[-80.03984,9.06388],[-80.03941,9.06408],[-80.0385,9.06412],[-80.03649,9.06288],[-80.03707,9.06436],[-80.0368,9.0656],[-80.03447,9.0637],[-80.0364,9.06839],[-80.03573,9.06927],[-80.03686,9.07072],[-80.03633,9.07196],[-80.03494,9.07175],[-80.03472,9.06974],[-80.03511,9.0679],[-80.03423,9.06748],[-80.03461,9.06863],[-80.0341,9.0691],[-80.03232,9.06777],[-80.0319,9.06881],[-80.03369,9.06974],[-80.03403,9.07276],[-80.03352,9.07318],[-80.03263,9.07285],[-80.03191,9.07197],[-80.03156,9.07036],[-80.03169,9.07136],[-80.03079,9.07136],[-80.03141,9.0719],[-80.03137,9.07242],[-80.03068,9.07242],[-80.02971,9.07186],[-80.03236,9.0738],[-80.03271,9.07534],[-80.03184,9.07805],[-80.02989,9.07958],[-80.02876,9.0781],[-80.03098,9.076],[-80.03036,9.07557],[-80.03037,9.07425],[-80.02827,9.07311],[-80.02786,9.07241],[-80.0278,9.07359],[-80.02877,9.07366],[-80.02974,9.07448],[-80.03002,9.0759],[-80.02764,9.07741],[-80.02727,9.07731],[-80.02694,9.07649],[-80.02745,9.07559],[-80.02642,9.07584],[-80.02632,9.07516],[-80.02656,9.07471],[-80.02591,9.07506],[-80.02526,9.07456],[-80.0254,9.07364],[-80.02479,9.07367],[-80.02433,9.07333],[-80.02393,9.07238],[-80.02434,9.0744],[-80.02187,9.07493],[-80.02055,9.07411],[-80.02023,9.07353],[-80.02039,9.07287],[-80.02253,9.07279],[-80.02108,9.07228],[-80.02079,9.07154],[-80.0214,9.07111],[-80.02332,9.0702],[-80.02501,9.07149],[-80.02398,9.07042],[-80.02399,9.06977],[-80.02637,9.07008],[-80.02673,9.07057],[-80.02914,9.06886],[-80.03037,9.06938],[-80.02963,9.06884],[-80.02927,9.06796],[-80.03009,9.0674],[-80.03086,9.0676],[-80.03029,9.06697],[-80.03057,9.06608],[-80.03113,9.06565],[-80.03224,9.06537],[-80.03128,9.06524],[-80.03099,9.06464],[-80.03164,9.06194],[-80.032,9.06149],[-80.03274,9.06142],[-80.03333,9.06168],[-80.03367,9.06235],[-80.03393,9.06228],[-80.03326,9.06123],[-80.03167,9.06103],[-80.03172,9.05987],[-80.03265,9.05816],[-80.03213,9.05689],[-80.03228,9.05844],[-80.03154,9.05942],[-80.02938,9.05899],[-80.03135,9.06026],[-80.02992,9.06641],[-80.02954,9.06644],[-80.02855,9.06506],[-80.02759,9.06456],[-80.02853,9.06525],[-80.02945,9.06681],[-80.02857,9.06869],[-80.02646,9.06932],[-80.02593,9.06911],[-80.02672,9.06739],[-80.02601,9.06592],[-80.02612,9.06768],[-80.02574,9.06841],[-80.02448,9.06916],[-80.02343,9.06874],[-80.02285,9.06684],[-80.02313,9.06404],[-80.02256,9.06904],[-80.0196,9.07136],[-80.02013,9.0684],[-80.01867,9.06954],[-80.01841,9.06672],[-80.01773,9.06878],[-80.01629,9.06933],[-80.01778,9.06941],[-80.01812,9.0706],[-80.01649,9.0729],[-80.01592,9.07292],[-80.01487,9.07091],[-80.01499,9.07023],[-80.01354,9.06994],[-80.01494,9.07216],[-80.01385,9.07351],[-80.01533,9.07472],[-80.01244,9.0732],[-80.01246,9.07558],[-80.01063,9.07549],[-80.01374,9.07883],[-80.01526,9.07599],[-80.01907,9.0788],[-80.01495,9.08019],[-80.0183,9.08173],[-80.01619,9.08557],[-80.01722,9.08255],[-80.01368,9.08111],[-80.01107,9.08462],[-80.00701,9.08259],[-80.00646,9.08807],[-80.00564,9.08462],[-79.99758,9.08433],[-79.99992,9.08877],[-79.99687,9.08934],[-79.99557,9.08486],[-79.99275,9.08661],[-79.99538,9.08771],[-79.99318,9.0907],[-79.98617,9.08852],[-79.99185,9.0871],[-79.98977,9.08247],[-79.99287,9.08592],[-79.99173,9.08064],[-79.99558,9.08408],[-79.99665,9.07882],[-80.00244,9.0839],[-80.00197,9.08153],[-80.00527,9.08252],[-80.00303,9.0787],[-80.0068,9.08193],[-80.00776,9.07765],[-80.01206,9.07983],[-80.00972,9.0763],[-80.00434,9.07567],[-80.00892,9.07421],[-80.0069,9.07161],[-80.00679,9.06986],[-80.00717,9.06923],[-80.00785,9.06906],[-80.01096,9.07144],[-80.00881,9.06851],[-80.01029,9.06826],[-80.00822,9.06741],[-80.00835,9.06679],[-80.00973,9.06612],[-80.01102,9.06622],[-80.01295,9.06927],[-80.0134,9.06844],[-80.01243,9.06769],[-80.0123,9.06654],[-80.0125,9.06596],[-80.01324,9.066],[-80.01493,9.06793],[-80.01376,9.0652],[-80.01531,9.06371],[-80.01832,9.06435],[-80.01581,9.06348],[-80.01615,9.06191],[-80.01711,9.06182],[-80.01804,9.06235],[-80.01771,9.06138],[-80.01895,9.06091],[-80.01964,9.06099],[-80.02205,9.05927],[-80.02108,9.05955],[-80.02076,9.05935],[-80.02135,9.05817],[-80.02207,9.05742],[-80.01999,9.05912],[-80.02041,9.05952],[-80.01989,9.06049],[-80.01633,9.0613],[-80.01613,9.05785],[-80.01697,9.05709],[-80.01854,9.05747],[-80.01916,9.05651],[-80.01721,9.05697],[-80.01753,9.0552],[-80.01651,9.05541],[-80.01658,9.05684],[-80.01494,9.05895],[-80.01569,9.05995],[-80.01474,9.06287],[-80.01241,9.06476],[-80.0113,9.06458],[-80.01057,9.06377],[-80.01041,9.06495],[-80.00812,9.06459],[-80.00904,9.06277],[-80.01229,9.06209],[-80.01013,9.05813],[-80.0137,9.05637],[-80.01112,9.05544],[-80.01317,9.05383],[-80.00955,9.05575],[-80.00773,9.05518],[-80.00801,9.05313],[-80.01005,9.05271],[-80.01013,9.05139],[-80.01155,9.05023],[-80.01252,9.05081],[-80.01233,9.05008],[-80.01318,9.0494],[-80.01128,9.04963],[-80.00911,9.05208],[-80.00774,9.05209],[-80.00653,9.04965],[-80.00862,9.04831],[-80.00668,9.04804],[-80.01074,9.04573],[-80.00902,9.04542],[-80.0087,9.04364],[-80.0083,9.04587],[-80.00594,9.04607],[-80.00424,9.05428],[-80.00581,9.05806],[-80.00317,9.05639],[-80.00461,9.05071],[-80.00254,9.04895],[-80.00475,9.04803],[-79.99999,9.04603],[-80.00485,9.0464],[-80.00273,9.04265],[-80.00636,9.04497],[-80.0037,9.04182],[-80.00453,9.04124],[-80.00606,9.04122],[-80.00359,9.04065],[-80.00421,9.03979],[-80.00678,9.03916],[-80.00782,9.03967],[-80.00789,9.0385],[-80.00813,9.03811],[-80.00869,9.03773],[-80.00659,9.039],[-80.00331,9.03919],[-80.00213,9.03722],[-80.0045,9.0366],[-80.00211,9.03656],[-80.00177,9.03528],[-80.00434,9.03464],[-80.00587,9.0358],[-80.00484,9.03491],[-80.00492,9.03392],[-80.00312,9.03423],[-80.00251,9.03363],[-80.00494,9.03113],[-80.00727,9.03056],[-80.00813,9.03149],[-80.00764,9.03022],[-80.00364,9.03086],[-80.00358,9.02891],[-80.00496,9.02718],[-80.00598,9.02646],[-80.00767,9.02646],[-80.00601,9.02614],[-80.00581,9.0249],[-80.00558,9.02646],[-80.00241,9.02894],[-80.00029,9.02649],[-80.00176,9.02293],[-80.00121,9.0205],[-80.00258,9.01893],[-80.0005,9.02108],[-79.99902,9.02029],[-80.00095,9.02398],[-79.99977,9.02676],[-80.00245,9.03094],[-80.00141,9.03388],[-79.99833,9.0331],[-80.0003,9.03393],[-80.00084,9.03455],[-80.00206,9.04065],[-80.00078,9.0424],[-79.99909,9.04328],[-79.9984,9.04119],[-79.99927,9.04044],[-79.9981,9.04079],[-79.99781,9.04029],[-79.99838,9.0393],[-79.99609,9.03691],[-79.99694,9.03813],[-79.99723,9.0404],[-79.99623,9.04099],[-79.99589,9.04187],[-79.99776,9.04662],[-79.99493,9.04402],[-79.9923,9.04834],[-79.99355,9.04587],[-79.99092,9.04595],[-79.99414,9.04252],[-79.99055,9.04005],[-79.99203,9.03922],[-79.99426,9.03973],[-79.9936,9.03883],[-79.98988,9.03903],[-79.99047,9.03734],[-79.99156,9.03636],[-79.98687,9.03927],[-79.98803,9.03491],[-79.99307,9.03473],[-79.99127,9.03401],[-79.99061,9.0328],[-79.99234,9.03181],[-79.9935,9.03164],[-79.99405,9.03208],[-79.99438,9.03116],[-79.99103,9.03079],[-79.99044,9.03013],[-79.99192,9.03023],[-79.9934,9.0286],[-79.9942,9.02882],[-79.99344,9.02796],[-79.99257,9.02882],[-79.99119,9.02861],[-79.99087,9.0264],[-79.99385,9.02155],[-79.98936,9.02886],[-79.98761,9.02411],[-79.98806,9.02118],[-79.99088,9.02053],[-79.988,9.01951],[-79.98994,9.01945],[-79.9896,9.01841],[-79.99379,9.01752],[-79.98974,9.01736],[-79.98965,9.01425],[-79.98845,9.01772],[-79.98777,9.016],[-79.98634,9.01809],[-79.98401,9.01568],[-79.9841,9.01117],[-79.98539,9.0089],[-79.98757,9.00772],[-79.98334,9.00924],[-79.98254,9.00704],[-79.98056,9.00704],[-79.98196,9.0082],[-79.98106,9.01038],[-79.983,9.0123],[-79.98209,9.01335],[-79.97982,9.01376],[-79.98288,9.01371],[-79.98592,9.02017],[-79.9843,9.02103],[-79.98011,9.01906],[-79.97968,9.01828],[-79.97975,9.01899],[-79.97831,9.01922],[-79.9806,9.01966],[-79.98151,9.02136],[-79.97989,9.0212],[-79.97814,9.02373],[-79.98025,9.02206],[-79.9818,9.02485],[-79.98502,9.02294],[-79.98284,9.02651],[-79.98489,9.02569],[-79.9866,9.02937],[-79.98331,9.02806],[-79.98123,9.02947],[-79.98333,9.02929],[-79.98449,9.03096],[-79.98554,9.0306],[-79.9859,9.03104],[-79.98713,9.0315],[-79.98735,9.03183],[-79.98735,9.0323],[-79.98616,9.0332],[-79.98494,9.03331],[-79.98499,9.03449],[-79.98332,9.03359],[-79.98543,9.03589],[-79.98566,9.03696],[-79.98249,9.03795],[-79.98494,9.03782],[-79.98626,9.04234],[-79.9855,9.04498],[-79.98397,9.04249],[-79.98381,9.04427],[-79.98126,9.04375],[-79.98304,9.04547],[-79.98346,9.0477],[-79.98221,9.04857],[-79.98091,9.04851],[-79.97957,9.04755],[-79.9798,9.04922],[-79.97816,9.04963],[-79.9808,9.05029],[-79.97461,9.05511],[-79.97638,9.04951],[-79.97445,9.04953],[-79.97397,9.04651],[-79.97249,9.04858],[-79.97129,9.04878],[-79.97064,9.04634],[-79.97158,9.04492],[-79.97444,9.04515],[-79.97315,9.04428],[-79.97346,9.04235],[-79.97578,9.04265],[-79.97473,9.03955],[-79.97588,9.0382],[-79.97709,9.03828],[-79.97566,9.03688],[-79.97582,9.03472],[-79.97664,9.03371],[-79.97851,9.03355],[-79.97895,9.03316],[-79.97549,9.03322],[-79.97625,9.03157],[-79.97744,9.03106],[-79.97532,9.03189],[-79.97453,9.0302],[-79.97737,9.02798],[-79.97584,9.02853],[-79.97555,9.02719],[-79.97459,9.0266],[-79.97526,9.02867],[-79.97267,9.03063],[-79.97405,9.03195],[-79.97387,9.0338],[-79.972,9.03354],[-79.97091,9.03274],[-79.97241,9.03795],[-79.96979,9.03505],[-79.96933,9.03861],[-79.96648,9.03405],[-79.967,9.0433],[-79.96563,9.03845],[-79.96267,9.03983],[-79.96397,9.03343],[-79.96228,9.03156],[-79.9604,9.03403],[-79.9594,9.03003],[-79.96139,9.03009],[-79.95905,9.02818],[-79.96456,9.02744],[-79.96527,9.0306],[-79.96701,9.02754],[-79.96891,9.03197],[-79.96827,9.02651],[-79.96474,9.02594],[-79.9668,9.02452],[-79.9649,9.0231],[-79.96716,9.02169],[-79.96941,9.0232],[-79.96953,9.02441],[-79.97043,9.02328],[-79.96908,9.02059],[-79.97211,9.021],[-79.97326,9.02199],[-79.9719,9.0206],[-79.9671,9.01987],[-79.97308,9.01874],[-79.96741,9.01776],[-79.96686,9.01578],[-79.96792,9.01361],[-79.96947,9.01405],[-79.9699,9.01316],[-79.96677,9.01354],[-79.96658,9.01145],[-79.96782,9.01056],[-79.96745,9.00808],[-79.96653,9.00775],[-79.96734,9.00819],[-79.96693,9.01047],[-79.96494,9.01362],[-79.96604,9.01613],[-79.96561,9.01773],[-79.96093,9.02173],[-79.9633,9.01834],[-79.96128,9.01615],[-79.9609,9.0119],[-79.96139,9.01101],[-79.963,9.01049],[-79.96197,9.00983],[-79.96187,9.00709],[-79.96297,9.00242],[-79.96374,9.0016],[-79.96218,9.00967],[-79.9643,9.01036],[-79.96123,9.01154],[-79.96171,9.01616],[-79.96544,9.01774],[-79.96375,9.0123],[-79.96677,9.00858],[-79.96469,9.00814],[-79.96405,9.00595],[-79.96773,9.00288],[-79.96454,9.00573],[-79.96894,9.00759],[-79.96957,9.01043],[-79.96707,9.01157],[-79.97027,9.01275],[-79.97307,9.00942],[-79.96992,9.01392],[-79.97381,9.01373],[-79.97444,9.01428],[-79.96799,9.01424],[-79.96784,9.01647],[-79.97528,9.01787],[-79.97446,9.0201],[-79.97333,9.0193],[-79.97062,9.01953],[-79.97548,9.02114],[-79.97417,9.02408],[-79.97135,9.02119],[-79.97014,9.02632],[-79.96711,9.02377],[-79.97018,9.02905],[-79.96975,9.03165],[-79.97367,9.03338],[-79.97145,9.0303],[-79.97465,9.02719],[-79.97165,9.02861],[-79.97216,9.02603],[-79.97571,9.02546],[-79.97943,9.02851],[-79.97518,9.03053],[-79.97903,9.03048],[-79.97649,9.03263],[-79.98002,9.03209],[-79.97927,9.03484],[-79.9761,9.03487],[-79.97893,9.03908],[-79.97575,9.03893],[-79.97704,9.04378],[-79.97355,9.04278],[-79.97517,9.04517],[-79.97151,9.04538],[-79.9717,9.04844],[-79.97318,9.04625],[-79.97628,9.047],[-79.97669,9.05166],[-79.97931,9.05081],[-79.97743,9.0494],[-79.9772,9.0473],[-79.97916,9.04878],[-79.97897,9.04579],[-79.98276,9.04796],[-79.97911,9.04133],[-79.98319,9.044],[-79.98113,9.04],[-79.984,9.04135],[-79.985,9.03822],[-79.98157,9.03902],[-79.9811,9.03716],[-79.98498,9.03576],[-79.98098,9.03157],[-79.9847,9.03382],[-79.98497,9.03205],[-79.98723,9.03186],[-79.98078,9.0299],[-79.98031,9.02291],[-79.97926,9.0261],[-79.97597,9.02381],[-79.97986,9.02006],[-79.97964,9.01968],[-79.97842,9.01968],[-79.97588,9.01837],[-79.97946,9.01876],[-79.97726,9.01547],[-79.98065,9.01887],[-79.9849,9.01994],[-79.98156,9.01426],[-79.9764,9.01308],[-79.98224,9.01249],[-79.978,9.01029],[-79.98091,9.00771],[-79.97643,9.00845],[-79.9764,9.00515],[-79.97939,9.00592],[-79.97833,9.00078],[-79.9812,9.00016],[-79.98001,9.00534],[-79.98136,9.00513],[-79.98189,9.00409],[-79.98267,9.00381],[-79.9807,9.00616],[-79.98608,9.00766],[-79.98579,9.00048],[-79.98876,8.99865],[-79.98877,9.00348],[-79.98924,9.00292],[-79.99269,9.00157],[-79.98749,9.0048],[-79.99213,9.00724],[-79.9885,9.00556],[-79.99043,9.00874],[-79.98578,9.00926],[-79.98708,9.01276],[-79.98426,9.01557],[-79.98864,9.01594],[-79.98981,9.01178],[-79.98999,9.01441],[-79.99358,9.0119],[-79.99047,9.01663],[-79.99445,9.01444],[-79.99529,9.01827],[-79.9911,9.01875],[-79.99325,9.02027],[-79.98875,9.02134],[-79.988,9.02413],[-79.98923,9.02617],[-79.99443,9.02001],[-79.99561,9.02391],[-79.99175,9.02835],[-79.99363,9.02707],[-79.99568,9.02879],[-79.99352,9.02891],[-79.99275,9.03012],[-79.99083,9.0305],[-79.99547,9.03103],[-79.99469,9.03305],[-79.99142,9.03375],[-79.99455,9.03501],[-79.99041,9.03488],[-79.98802,9.03653],[-79.98873,9.0375],[-79.99101,9.03584],[-79.99422,9.03678],[-79.99049,9.0382],[-79.99519,9.03877],[-79.99446,9.04082],[-79.99338,9.03956],[-79.99236,9.04012],[-79.99505,9.04234],[-79.99705,9.0397],[-79.99435,9.03659],[-79.9968,9.03555],[-79.99984,9.04038],[-79.99913,9.04195],[-80.00076,9.04203],[-79.99836,9.03514],[-80.0007,9.03461],[-79.99647,9.03257],[-79.99914,9.03272],[-79.99689,9.03026],[-79.9975,9.0295],[-80.00102,9.0337],[-80.00222,9.03122],[-79.99631,9.02324],[-79.99625,9.02118],[-79.99686,9.02091],[-80.00025,9.02368],[-79.99559,9.0143],[-79.99724,9.01081],[-79.9983,9.00946],[-79.9963,9.01434],[-79.99959,9.01471],[-79.99958,9.01954],[-80.00176,9.01862],[-80.00104,9.01438],[-80.00352,9.01796],[-80.00433,9.01313],[-80.00457,9.01863],[-80.00887,9.01951],[-80.00275,9.0197],[-80.00367,9.02378],[-80.00086,9.02574],[-80.00381,9.02771],[-80.00578,9.02171],[-80.00874,9.02267],[-80.00635,9.02599],[-80.00986,9.02503],[-80.00408,9.03003],[-80.00964,9.0286],[-80.00789,9.03043],[-80.01027,9.03111],[-80.01058,9.03315],[-80.00495,9.0315],[-80.00318,9.03402],[-80.00637,9.03333],[-80.00492,9.03439],[-80.00859,9.03433],[-80.00814,9.03598],[-80.0056,9.03606],[-80.00415,9.03502],[-80.00236,9.03601],[-80.00926,9.03737],[-80.00834,9.04113],[-80.00715,9.03942],[-80.00442,9.04007],[-80.00699,9.04139],[-80.00409,9.04218],[-80.00775,9.04557],[-80.00755,9.04389],[-80.00958,9.04207],[-80.01089,9.03915],[-80.01141,9.03836],[-80.01172,9.03861],[-80.00946,9.04512],[-80.01399,9.04642],[-80.00819,9.0472],[-80.01077,9.04792],[-80.00759,9.05099],[-80.01164,9.0489],[-80.01353,9.04869],[-80.01498,9.04984],[-80.00818,9.05386],[-80.01576,9.05261],[-80.01172,9.05499],[-80.01442,9.05662],[-80.01166,9.05796],[-80.01314,9.06259],[-80.00921,9.06301],[-80.00912,9.06399],[-80.014,9.06273],[-80.01322,9.05844],[-80.01752,9.05317],[-80.01824,9.05654],[-80.01865,9.05058],[-80.02238,9.05543],[-80.01958,9.05487],[-80.02047,9.05716],[-80.01913,9.05819],[-80.01684,9.05745],[-80.01691,9.06103],[-80.02277,9.05662],[-80.02095,9.0593],[-80.02324,9.05871],[-80.02148,9.0614],[-80.02039,9.06056],[-80.01854,9.06268],[-80.01633,9.06225],[-80.02074,9.0634],[-80.0193,9.06506],[-80.01524,9.06406],[-80.01532,9.06865],[-80.01288,9.06611],[-80.01384,9.06845],[-80.01284,9.06964],[-80.00889,9.06672],[-80.01062,9.06811],[-80.00954,9.06908],[-80.01135,9.07001],[-80.01103,9.07238],[-80.00769,9.06923],[-80.00738,9.07139],[-80.01186,9.075],[-80.01369,9.0691],[-80.01763,9.07098],[-80.0152,9.06901],[-80.01741,9.06875],[-80.0167,9.06632],[-80.01982,9.06578],[-80.01887,9.06897],[-80.02103,9.06713],[-80.02019,9.06955],[-80.02175,9.06946],[-80.02222,9.06357],[-80.02445,9.06099],[-80.02354,9.06831],[-80.02585,9.06794],[-80.02562,9.06441],[-80.0273,9.06743],[-80.02612,9.06908],[-80.02831,9.06841],[-80.02644,9.06363],[-80.02725,9.06341],[-80.02963,9.0663],[-80.03024,9.06437],[-80.02639,9.06084],[-80.03027,9.06341],[-80.03103,9.06021],[-80.02588,9.05881],[-80.02533,9.05715],[-80.03134,9.05922],[-80.02952,9.05461],[-80.03285,9.05673],[-80.03362,9.05886],[-80.03186,9.06089],[-80.03339,9.06065],[-80.0346,9.06254],[-80.03353,9.06265],[-80.03313,9.06167],[-80.03185,9.06193],[-80.03118,9.06495],[-80.0334,9.06501],[-80.03066,9.0662],[-80.03146,9.06823],[-80.02912,9.07083],[-80.02675,9.07149],[-80.02443,9.07003],[-80.02584,9.07285],[-80.02332,9.07055],[-80.02271,9.073],[-80.02047,9.0735],[-80.02406,9.0741],[-80.02312,9.07323],[-80.02409,9.07168],[-80.02758,9.07525],[-80.02757,9.07715],[-80.02978,9.07567],[-80.02669,9.07377],[-80.02783,9.07145],[-80.03133,9.07524],[-80.03049,9.07754],[-80.03225,9.07396],[-80.02923,9.07234],[-80.0293,9.0714],[-80.03121,9.0724],[-80.03012,9.07041],[-80.03192,9.06964],[-80.03239,9.07234],[-80.03382,9.07271],[-80.0317,9.06879],[-80.03231,9.06729],[-80.03408,9.06899],[-80.03393,9.06686],[-80.03531,9.06778],[-80.03505,9.07162],[-80.03644,9.07048],[-80.03553,9.06941],[-80.03612,9.06838],[-80.03425,9.06344],[-80.03668,9.06523],[-80.03604,9.06268],[-80.0396,9.06378],[-80.03444,9.06067],[-80.03681,9.05918],[-80.03517,9.05922],[-80.03408,9.05742],[-80.03651,9.05682],[-80.03823,9.05849],[-80.0363,9.05589],[-80.03924,9.05482],[-80.03623,9.05411],[-80.03584,9.0563],[-80.03534,9.05677],[-80.0342,9.05623],[-80.03614,9.05147],[-80.03505,9.05366],[-80.03277,9.05431],[-80.0336,9.05139],[-80.03126,9.05387],[-80.02928,9.0527],[-80.03041,9.05127],[-80.02921,9.04972],[-80.02954,9.05096],[-80.02788,9.05214],[-80.02579,9.05054],[-80.02617,9.05342],[-80.02446,9.05449],[-80.02498,9.04994],[-80.02949,9.04837],[-80.02765,9.04704],[-80.02745,9.04459],[-80.02644,9.04466],[-80.02698,9.04651],[-80.02514,9.04944],[-80.02275,9.05027],[-80.02301,9.05298],[-80.02287,9.05328],[-80.02095,9.04928],[-80.02346,9.04911],[-80.02229,9.04704],[-80.02522,9.04623],[-80.02141,9.04619],[-80.02075,9.04284],[-80.0227,9.04208],[-80.02098,9.04022],[-80.0201,9.04702],[-80.01606,9.04834],[-80.01791,9.0452],[-80.01576,9.04475],[-80.01755,9.04275],[-80.01437,9.04307],[-80.0143,9.04103],[-80.01805,9.04133],[-80.0153,9.0391],[-80.01939,9.03905],[-80.01277,9.03392],[-80.016,9.03373],[-80.01191,9.02934],[-80.01044,9.02416],[-80.01233,9.0221],[-80.00928,9.02184],[-80.01466,9.0171],[-80.01115,9.01903],[-80.00972,9.01238],[-80.00909,9.01255],[-80.00875,9.01464],[-80.00825,9.01525],[-80.00742,9.01001],[-80.0048,9.01104],[-80.00291,9.01021],[-80.0071,9.00887],[-80.00437,9.00539],[-80.00919,9.00456],[-80.01012,9.01],[-80.01343,9.00868],[-80.01148,9.01247],[-80.01306,9.01392],[-80.01447,9.01056],[-80.01563,9.01517],[-80.0161,9.01143],[-80.01843,9.01702],[-80.02037,9.01289],[-80.01585,9.0092],[-80.01719,9.00542],[-80.02035,9.00963],[-80.01989,9.00606],[-80.02141,9.00524],[-80.02189,9.00553],[-80.021,9.01111],[-80.02257,9.00822],[-80.02411,9.0095],[-80.02248,9.01543],[-80.02494,9.01281],[-80.02667,9.01491],[-80.02675,9.01106],[-80.02928,9.01075],[-80.03036,9.00797],[-80.032,9.00768],[-80.0281,9.01643],[-80.03335,9.01668],[-80.03062,9.01552],[-80.03095,9.01293],[-80.0323,9.01342],[-80.03362,9.01565],[-80.03508,9.0164],[-80.03139,9.01231],[-80.03318,9.01014],[-80.03626,9.0141],[-80.03526,9.01532],[-80.03691,9.01604],[-80.03641,9.01864],[-80.03736,9.01929],[-80.03592,9.01992],[-80.03778,9.02221],[-80.03697,9.02065],[-80.03825,9.02007],[-80.03704,9.01816],[-80.03744,9.01407],[-80.03801,9.01561],[-80.04237,9.01537],[-80.04046,9.01052],[-80.03859,9.01256],[-80.03619,9.00929],[-80.03935,9.00981],[-80.03715,9.00213],[-80.0406,8.9946],[-80.03731,8.99374],[-80.03894,8.9933],[-80.03713,8.98553],[-80.03867,8.97957],[-80.0347,8.97481],[-80.03689,8.96871],[-80.03874,8.96948],[-80.03745,8.96735],[-80.04448,8.96504],[-80.04044,8.97342],[-80.04347,8.97608],[-80.04527,8.97174],[-80.04765,8.97609],[-80.05249,8.9731],[-80.05544,8.96351],[-80.05779,8.96729],[-80.05389,8.96856],[-80.05329,8.97545],[-80.05404,8.97716],[-80.05474,8.97713],[-80.05497,8.97752],[-80.0556,8.97762],[-80.05563,8.97788],[-80.0564,8.97801],[-80.05651,8.97823],[-80.05451,8.97839],[-80.0525,8.9805],[-80.05654,8.9802],[-80.05633,8.98386],[-80.04952,8.97962],[-80.0509,8.98263],[-80.04721,8.98034],[-80.04394,8.98489],[-80.04459,8.9851],[-80.04585,8.98398],[-80.04666,8.9839],[-80.04631,8.98573],[-80.04051,8.98738],[-80.04322,8.9898],[-80.04303,8.9916],[-80.04737,8.98989],[-80.04652,8.99338],[-80.05178,8.99439],[-80.04797,8.99579],[-80.04325,8.99271],[-80.0414,8.99572],[-80.04205,8.99956],[-80.04465,8.99546],[-80.04728,8.99876],[-80.04668,9.00153],[-80.04511,8.99979],[-80.03972,9.00338],[-80.04639,9.00691],[-80.04288,9.00889],[-80.04322,9.01247],[-80.04465,9.01224],[-80.04542,9.01021],[-80.0465,9.01022],[-80.04623,9.01512],[-80.0494,9.01584],[-80.04793,9.01676],[-80.04497,9.01606],[-80.04497,9.02126],[-80.0434,9.02085],[-80.042,9.02229],[-80.04437,9.02157],[-80.0445,9.02389],[-80.04308,9.02589],[-80.04157,9.02612],[-80.04452,9.0263],[-80.04522,9.02487],[-80.04624,9.02569],[-80.04607,9.01809],[-80.05231,9.01732],[-80.05095,9.0198],[-80.04889,9.02021],[-80.04801,9.02355],[-80.05031,9.02036],[-80.05428,9.02334],[-80.055,9.02028],[-80.05878,9.02704],[-80.06121,9.02473],[-80.05919,9.02346],[-80.06555,9.02228],[-80.06493,9.02493],[-80.06819,9.02674],[-80.06448,9.02933],[-80.06688,9.02927],[-80.06736,9.03272],[-80.06775,9.02955]]],[[[-80.0698,9.0329],[-80.07015,9.03079],[-80.06993,9.03277],[-80.07115,9.03144],[-80.07166,9.03296],[-80.07152,9.02839],[-80.07416,9.02759],[-80.07512,9.02909],[-80.07633,9.02666],[-80.0778,9.02611],[-80.0707,9.02734],[-80.07036,9.02941],[-80.06893,9.0266],[-80.0718,9.02685],[-80.07213,9.02542],[-80.07636,9.02398],[-80.0785,9.02512],[-80.07904,9.024],[-80.07715,9.02303],[-80.07689,9.02101],[-80.07449,9.02376],[-80.07592,9.02069],[-80.07295,9.02294],[-80.07228,9.02248],[-80.07467,9.01828],[-80.06815,9.02393],[-80.0694,9.02012],[-80.06655,9.01986],[-80.06584,9.01606],[-80.064,9.01783],[-80.06316,9.01708],[-80.06659,9.01152],[-80.06965,9.01915],[-80.07173,9.01801],[-80.07019,9.01688],[-80.06919,9.01388],[-80.07113,9.01704],[-80.07449,9.01742],[-80.07138,9.01294],[-80.07424,9.01259],[-80.07145,9.00961],[-80.0746,9.00671],[-80.07322,9.01021],[-80.07745,9.00893],[-80.07769,9.0186],[-80.08027,9.01996],[-80.08001,9.0212],[-80.08197,9.01885],[-80.07858,9.01423],[-80.07841,9.00483],[-80.07486,9.00337],[-80.07261,9.00589],[-80.06964,9.0021],[-80.07221,9.00113],[-80.06836,8.99847],[-80.07342,8.99594],[-80.07385,8.99541],[-80.07307,8.99415],[-80.07324,8.99356],[-80.0743,8.99552],[-80.07199,8.99887],[-80.07697,8.99923],[-80.0753,9.00236],[-80.07831,9.00407],[-80.07966,8.99717],[-80.08585,8.99999],[-80.08487,8.99474],[-80.08722,9.00003],[-80.08514,9.00202],[-80.0808,8.99989],[-80.08305,9.00775],[-80.08099,9.01024],[-80.08482,9.01312],[-80.08379,9.01613],[-80.08676,9.01818],[-80.0877,9.01729],[-80.08928,9.0191],[-80.08954,9.01713],[-80.09107,9.01598],[-80.09177,9.01589],[-80.08829,9.02134],[-80.08987,9.02137],[-80.09134,9.02046],[-80.09325,9.01979],[-80.09361,9.01985],[-80.09188,9.02235],[-80.08771,9.02193],[-80.08824,9.02537],[-80.08532,9.02742],[-80.08029,9.02572],[-80.08437,9.02765],[-80.08483,9.02949],[-80.08338,9.02981],[-80.08142,9.0278],[-80.08064,9.03019],[-80.08305,9.03199],[-80.08387,9.03026],[-80.08515,9.02989],[-80.08523,9.03232],[-80.08274,9.03274],[-80.08403,9.03369],[-80.08676,9.03181],[-80.08835,9.03331],[-80.08953,9.02685],[-80.09388,9.0276],[-80.09187,9.03318],[-80.09521,9.0348],[-80.09531,9.03679],[-80.09324,9.03583],[-80.09233,9.03953],[-80.09508,9.04005],[-80.09294,9.04248],[-80.08981,9.04078],[-80.08964,9.04003],[-80.08997,9.03927],[-80.08559,9.04071],[-80.08466,9.03494],[-80.08218,9.0385],[-80.08171,9.03328],[-80.08028,9.03824],[-80.0793,9.03687],[-80.07964,9.03291],[-80.07863,9.03225],[-80.07898,9.03315],[-80.07708,9.03512],[-80.07832,9.03468],[-80.07912,9.03565],[-80.0786,9.03622],[-80.0779,9.03591],[-80.07758,9.03667],[-80.07837,9.03696],[-80.07788,9.03754],[-80.07903,9.03785],[-80.07835,9.03937],[-80.08082,9.03861],[-80.083,9.04084],[-80.08468,9.03962],[-80.08411,9.04174],[-80.08795,9.04348],[-80.08193,9.04176],[-80.08579,9.0457],[-80.08621,9.04927],[-80.08256,9.0493],[-80.08451,9.04854],[-80.08494,9.04642],[-80.08059,9.04962],[-80.08227,9.04519],[-80.07915,9.04757],[-80.08074,9.04379],[-80.07911,9.04181],[-80.07982,9.04437],[-80.0795,9.04476],[-80.07861,9.04465],[-80.07878,9.04592],[-80.07727,9.04677],[-80.07658,9.04186],[-80.07639,9.04567],[-80.07514,9.0456],[-80.07848,9.04948],[-80.07741,9.05016],[-80.07879,9.05187],[-80.07735,9.05452],[-80.07829,9.05169],[-80.07703,9.05169],[-80.07307,9.04721],[-80.07316,9.04505],[-80.07202,9.04442],[-80.07227,9.04333],[-80.07123,9.04457],[-80.07225,9.04498],[-80.07206,9.04604],[-80.0712,9.04614],[-80.07075,9.04665],[-80.07255,9.04706],[-80.0761,9.05217],[-80.07495,9.05245],[-80.07083,9.04912],[-80.07224,9.05169],[-80.07208,9.05259],[-80.06966,9.05237],[-80.07437,9.0552],[-80.0704,9.05453],[-80.06887,9.05232],[-80.0693,9.04982],[-80.06844,9.04997],[-80.06774,9.04888],[-80.06767,9.05208],[-80.06578,9.05068],[-80.06572,9.04852],[-80.06477,9.04825],[-80.06408,9.04758],[-80.06413,9.04816],[-80.06521,9.04856],[-80.06544,9.04891],[-80.06476,9.04985],[-80.06393,9.04999],[-80.06778,9.05358],[-80.06714,9.05506],[-80.06876,9.05497],[-80.07021,9.05702],[-80.06421,9.05603],[-80.06114,9.05313],[-80.06234,9.05641],[-80.05907,9.05537],[-80.06015,9.05678],[-80.06533,9.0571],[-80.07097,9.05899],[-80.0641,9.05848],[-80.0703,9.0614],[-80.07058,9.06189],[-80.07023,9.06263],[-80.07395,9.06108],[-80.0741,9.06398],[-80.07679,9.06118],[-80.07793,9.06279],[-80.07576,9.06526],[-80.07352,9.06415],[-80.07367,9.06685],[-80.07331,9.06694],[-80.07227,9.06312],[-80.07027,9.06594],[-80.06937,9.06209],[-80.06792,9.06313],[-80.06707,9.06104],[-80.06427,9.0608],[-80.06162,9.05842],[-80.06101,9.05876],[-80.05967,9.05872],[-80.05851,9.05807],[-80.05763,9.05909],[-80.05321,9.05677],[-80.05612,9.05917],[-80.05507,9.06016],[-80.0603,9.05938],[-80.06643,9.06394],[-80.06542,9.06683],[-80.06377,9.06223],[-80.05871,9.06108],[-80.06319,9.06447],[-80.0596,9.06247],[-80.06394,9.06963],[-80.06264,9.07024],[-80.05808,9.06248],[-80.05682,9.06409],[-80.05332,9.06284],[-80.05126,9.06148],[-80.05051,9.06036],[-80.05024,9.06234],[-80.04952,9.06233],[-80.05806,9.06588],[-80.0592,9.06893],[-80.05336,9.06488],[-80.05409,9.06913],[-80.05097,9.06528],[-80.05067,9.06814],[-80.04878,9.06768],[-80.05675,9.07014],[-80.05837,9.07139],[-80.05459,9.07192],[-80.05682,9.07217],[-80.05621,9.07464],[-80.05935,9.07427],[-80.05948,9.07663],[-80.06093,9.07296],[-80.06216,9.07299],[-80.06252,9.07603],[-80.05999,9.07666],[-80.06339,9.0777],[-80.06306,9.0786],[-80.04755,9.07234],[-80.05126,9.07392],[-80.05473,9.07759],[-80.0462,9.0747],[-80.04729,9.07572],[-80.04772,9.07664],[-80.04843,9.07643],[-80.05085,9.07723],[-80.05364,9.07963],[-80.05527,9.07932],[-80.05585,9.08119],[-80.04802,9.07801],[-80.0508,9.07936],[-80.0528,9.08253],[-80.05466,9.08199],[-80.05631,9.08271],[-80.05658,9.08325],[-80.05197,9.08676],[-80.05222,9.08466],[-80.04996,9.08561],[-80.05047,9.083],[-80.04825,9.08062],[-80.04975,9.08325],[-80.04674,9.08502],[-80.04907,9.0875],[-80.04444,9.08411],[-80.04322,9.08479],[-80.04547,9.08577],[-80.04556,9.08709],[-80.04726,9.08755],[-80.04764,9.08865],[-80.04607,9.08894],[-80.04053,9.08559],[-80.04293,9.08799],[-80.03885,9.08807],[-80.04141,9.08749],[-80.03786,9.08642],[-80.0371,9.08335],[-80.04482,9.08719],[-80.03927,9.08267],[-80.04044,9.08026],[-80.04431,9.08327],[-80.04265,9.07653],[-80.04635,9.08537],[-80.04575,9.07946],[-80.04764,9.08237],[-80.04852,9.08271],[-80.04704,9.07866],[-80.05106,9.08298],[-80.05032,9.08471],[-80.05148,9.08366],[-80.05335,9.08482],[-80.04768,9.07768],[-80.05034,9.0776],[-80.04767,9.07673],[-80.04552,9.07391],[-80.05118,9.07525],[-80.04705,9.07298],[-80.04734,9.07216],[-80.0512,9.07236],[-80.04607,9.07019],[-80.05104,9.07073],[-80.05504,9.07528],[-80.05816,9.07514],[-80.05662,9.07496],[-80.05526,9.07427],[-80.05385,9.07157],[-80.05712,9.07113],[-80.04861,9.06776],[-80.05053,9.06495],[-80.05168,9.06539],[-80.05251,9.06696],[-80.05268,9.06448],[-80.05651,9.06571],[-80.05072,9.06293],[-80.04892,9.06501],[-80.04727,9.05938],[-80.04992,9.0619],[-80.05033,9.06019],[-80.05186,9.06099],[-80.04803,9.05659],[-80.04474,9.05823],[-80.04546,9.05515],[-80.04931,9.05557],[-80.05326,9.06109],[-80.05532,9.0627],[-80.05835,9.0623],[-80.05986,9.06469],[-80.06042,9.06507],[-80.05906,9.06245],[-80.05985,9.06222],[-80.05571,9.06133],[-80.05987,9.0599],[-80.05483,9.06031],[-80.05268,9.05846],[-80.05323,9.05637],[-80.06138,9.05804],[-80.06424,9.06045],[-80.06799,9.06113],[-80.06973,9.06193],[-80.07002,9.06299],[-80.07094,9.06277],[-80.06998,9.0627],[-80.06991,9.06148],[-80.06482,9.05971],[-80.06386,9.05854],[-80.06547,9.05784],[-80.06209,9.05801],[-80.0563,9.05486],[-80.05943,9.05402],[-80.06216,9.05623],[-80.06097,9.05286],[-80.0674,9.05588],[-80.06329,9.0525],[-80.06556,9.05252],[-80.06313,9.04939],[-80.06382,9.0472],[-80.06606,9.04839],[-80.06636,9.0507],[-80.06749,9.04846],[-80.06972,9.04983],[-80.06973,9.05144],[-80.07045,9.04875],[-80.07445,9.05077],[-80.07011,9.04752],[-80.07,9.04607],[-80.07194,9.04526],[-80.06964,9.04511],[-80.06885,9.04393],[-80.07275,9.0432],[-80.0754,9.04902],[-80.07496,9.04548],[-80.07619,9.04498],[-80.07548,9.04208],[-80.07643,9.04178],[-80.07692,9.04182],[-80.07706,9.04356],[-80.07788,9.04272],[-80.07784,9.04545],[-80.07843,9.04584],[-80.07815,9.04173],[-80.08275,9.04131],[-80.0781,9.03959],[-80.07867,9.03786],[-80.07382,9.03719],[-80.07808,9.03714],[-80.07694,9.03633],[-80.07755,9.03644],[-80.07785,9.03571],[-80.07888,9.03557],[-80.07663,9.03539],[-80.07852,9.03256],[-80.07615,9.03539],[-80.0743,9.03484],[-80.07766,9.0319],[-80.07927,9.03195],[-80.08008,9.03291],[-80.07946,9.03608],[-80.08,9.03706],[-80.08119,9.03285],[-80.08173,9.03305],[-80.08268,9.03422],[-80.0832,9.03651],[-80.08359,9.03498],[-80.08422,9.03464],[-80.0852,9.03494],[-80.08568,9.03941],[-80.09209,9.03826],[-80.08743,9.03511],[-80.09194,9.03566],[-80.09132,9.02938],[-80.09016,9.03249],[-80.08697,9.03403],[-80.08695,9.03235],[-80.08485,9.03382],[-80.08424,9.03392],[-80.08275,9.03338],[-80.08267,9.03258],[-80.08479,9.03221],[-80.0843,9.03063],[-80.0831,9.03214],[-80.08029,9.03143],[-80.08012,9.02818],[-80.08166,9.02766],[-80.08236,9.0286],[-80.08406,9.02925],[-80.08003,9.02549],[-80.08728,9.02514],[-80.08715,9.02223],[-80.08319,9.0215],[-80.08788,9.02011],[-80.08385,9.01931],[-80.08294,9.01659],[-80.08412,9.01483],[-80.08407,9.01395],[-80.0835,9.01306],[-80.08288,9.01578],[-80.08095,9.01283],[-80.083,9.01779],[-80.08005,9.02152],[-80.07796,9.01942],[-80.07733,9.01788],[-80.07509,9.01654],[-80.07694,9.01172],[-80.074,9.01308],[-80.07627,9.02135],[-80.07677,9.02078],[-80.07789,9.02115],[-80.07934,9.02413],[-80.07848,9.02548],[-80.07673,9.02447],[-80.07644,9.0253],[-80.07371,9.02567],[-80.07183,9.02694],[-80.07111,9.02689],[-80.07176,9.02714],[-80.07366,9.02599],[-80.07744,9.02565],[-80.07801,9.02618],[-80.07474,9.02968],[-80.07304,9.02856],[-80.07476,9.03049],[-80.07204,9.03306],[-80.0698,9.0329]]]]}},{"type":"Feature","properties":{"corregimiento":"Escobal","distrito":"Colón","provincia":"Colón","bbox":[-80.04348,8.97163,-79.95992,9.19592]},"geometry":{"type":"MultiPolygon","coordinates":[[[[-80.02103,9.19264],[-80.01128,9.19023],[-80.01864,9.18104],[-80.01344,9.17197],[-80.00789,9.16904],[-79.9865,9.17405],[-79.95992,9.1474],[-79.95994,9.1439],[-79.96066,9.14699],[-79.96405,9.14566],[-79.96331,9.13887],[-79.96462,9.14143],[-79.96623,9.14063],[-79.96349,9.13545],[-79.96763,9.1358],[-79.9621,9.1289],[-79.96706,9.13003],[-79.96699,9.12739],[-79.97035,9.12657],[-79.96766,9.13013],[-79.97077,9.12826],[-79.97064,9.13105],[-79.97327,9.12685],[-79.97787,9.12699],[-79.9765,9.1243],[-79.97915,9.12204],[-79.97803,9.12628],[-79.98069,9.1251],[-79.98232,9.12894],[-79.9739,9.13022],[-79.97176,9.1334],[-79.97623,9.13189],[-79.97667,9.13535],[-79.97732,9.13263],[-79.97832,9.132],[-79.9776,9.13346],[-79.97899,9.13503],[-79.97947,9.13208],[-79.98283,9.13174],[-79.98161,9.13541],[-79.9834,9.13332],[-79.98412,9.13506],[-79.98598,9.12927],[-79.98418,9.12772],[-79.98632,9.12773],[-79.98275,9.12219],[-79.9864,9.1255],[-79.98778,9.12239],[-79.98918,9.12769],[-79.99008,9.12402],[-79.99161,9.1256],[-79.99217,9.1249],[-79.98663,9.1141],[-79.99452,9.12124],[-79.99972,9.11994],[-79.99588,9.11839],[-79.99642,9.11552],[-80.00312,9.11667],[-80.00411,9.12425],[-80.00631,9.12172],[-80.00806,9.12528],[-80.00854,9.11862],[-80.01379,9.12008],[-80.0141,9.1176],[-80.01897,9.11671],[-80.01536,9.11592],[-80.01465,9.11405],[-80.01921,9.11433],[-80.01629,9.11171],[-80.02157,9.11541],[-80.0227,9.11236],[-80.01999,9.11202],[-80.0199,9.10962],[-80.02386,9.11186],[-80.02383,9.10921],[-80.02557,9.11198],[-80.0295,9.10504],[-80.03059,9.10831],[-80.03577,9.10588],[-80.0346,9.10434],[-80.03442,9.1002],[-80.03528,9.10293],[-80.03697,9.10105],[-80.03598,9.10494],[-80.03793,9.10424],[-80.0375,9.10632],[-80.03995,9.1056],[-80.04006,9.0985],[-80.04005,9.10318],[-80.04239,9.10327],[-80.04071,9.10521],[-80.04348,9.10411],[-80.04181,9.12765],[-80.03789,9.13214],[-80.0356,9.14957],[-80.03167,9.15132],[-80.03195,9.15768],[-80.02687,9.15987],[-80.028,9.16352],[-80.02428,9.17084],[-80.03686,9.18338],[-80.02267,9.19592],[-80.02103,9.19264]]],[[[-80.03021,9.07723],[-80.03133,9.07524],[-80.02783,9.07145],[-80.02669,9.07377],[-80.02978,9.07567],[-80.02757,9.07715],[-80.02409,9.07168],[-80.02406,9.0741],[-80.02047,9.0735],[-80.02332,9.07055],[-80.02584,9.07285],[-80.02443,9.07003],[-80.02912,9.07083],[-80.0334,9.06501],[-80.03118,9.06495],[-80.03185,9.06193],[-80.0346,9.06254],[-80.03186,9.06089],[-80.03285,9.05673],[-80.02952,9.05461],[-80.03134,9.05922],[-80.02722,9.05677],[-80.02533,9.05715],[-80.03103,9.06021],[-80.03027,9.06341],[-80.02834,9.06146],[-80.02639,9.06084],[-80.03024,9.06437],[-80.02963,9.0663],[-80.02725,9.06341],[-80.02644,9.06363],[-80.02831,9.06841],[-80.02612,9.06908],[-80.02562,9.06441],[-80.02585,9.06794],[-80.02354,9.06831],[-80.02445,9.06099],[-80.02175,9.06946],[-80.02103,9.06713],[-80.01887,9.06897],[-80.01982,9.06578],[-80.0167,9.06632],[-80.01741,9.06875],[-80.0152,9.06901],[-80.01763,9.07098],[-80.01369,9.0691],[-80.01186,9.075],[-80.00738,9.07139],[-80.00769,9.06923],[-80.01103,9.07238],[-80.00889,9.06672],[-80.01532,9.06865],[-80.01524,9.06406],[-80.0193,9.06506],[-80.02063,9.06409],[-80.02074,9.0634],[-80.01859,9.06417],[-80.01633,9.06225],[-80.02324,9.05871],[-80.02095,9.0593],[-80.02264,9.05775],[-80.02277,9.05662],[-80.01691,9.06103],[-80.01684,9.05745],[-80.02238,9.05543],[-80.01865,9.05058],[-80.01824,9.05654],[-80.0175,9.05641],[-80.01809,9.05414],[-80.01752,9.05317],[-80.01322,9.05844],[-80.014,9.06273],[-80.00912,9.06399],[-80.01314,9.06259],[-80.01166,9.05796],[-80.01442,9.05662],[-80.01172,9.05499],[-80.01576,9.05261],[-80.00934,9.05513],[-80.00818,9.05386],[-80.01498,9.04984],[-80.00759,9.05099],[-80.01077,9.04792],[-80.00819,9.0472],[-80.01399,9.04642],[-80.00946,9.04512],[-80.01172,9.03861],[-80.00775,9.04557],[-80.00442,9.04007],[-80.00834,9.04113],[-80.00926,9.03737],[-80.00236,9.03601],[-80.00814,9.03598],[-80.00637,9.03333],[-80.00318,9.03402],[-80.00495,9.0315],[-80.01058,9.03315],[-80.00789,9.03043],[-80.00994,9.02948],[-80.00964,9.0286],[-80.00408,9.03003],[-80.00562,9.02706],[-80.0087,9.02725],[-80.00986,9.02503],[-80.00635,9.02599],[-80.00874,9.02267],[-80.00578,9.02171],[-80.00381,9.02771],[-80.00086,9.02574],[-80.00367,9.02378],[-80.00275,9.0197],[-80.00822,9.02063],[-80.00887,9.01951],[-80.00457,9.01863],[-80.00598,9.01511],[-80.00433,9.01313],[-80.00352,9.01796],[-80.00296,9.01475],[-80.00104,9.01438],[-80.00176,9.01862],[-79.99958,9.01954],[-79.99959,9.01471],[-79.9963,9.01434],[-79.99842,9.01226],[-79.9983,9.00946],[-79.99559,9.0143],[-80.00025,9.02368],[-79.99686,9.02091],[-79.99631,9.02324],[-80.00222,9.03122],[-80.00102,9.0337],[-79.9975,9.0295],[-79.99914,9.03272],[-79.99647,9.03257],[-80.0007,9.03461],[-79.99836,9.03514],[-80.00076,9.04203],[-79.9968,9.03555],[-79.99435,9.03659],[-79.99705,9.0397],[-79.99505,9.04234],[-79.99236,9.04012],[-79.99519,9.03877],[-79.99049,9.0382],[-79.99422,9.03678],[-79.98802,9.03653],[-79.99455,9.03501],[-79.99142,9.03375],[-79.99547,9.03103],[-79.99083,9.0305],[-79.99568,9.02879],[-79.99175,9.02835],[-79.99561,9.02391],[-79.99443,9.02001],[-79.98923,9.02617],[-79.988,9.02413],[-79.98875,9.02134],[-79.99325,9.02027],[-79.9911,9.01875],[-79.99529,9.01827],[-79.99445,9.01444],[-79.99047,9.01663],[-79.99398,9.01256],[-79.99358,9.0119],[-79.98999,9.01441],[-79.98981,9.01178],[-79.98864,9.01594],[-79.98426,9.01557],[-79.98708,9.01276],[-79.98578,9.00926],[-79.98702,9.00976],[-79.98779,9.00846],[-79.98977,9.00933],[-79.99043,9.00874],[-79.9885,9.00556],[-79.9907,9.00787],[-79.99213,9.00724],[-79.98749,9.0048],[-79.98761,9.00384],[-79.99102,9.00315],[-79.99148,9.00218],[-79.99246,9.00192],[-79.99269,9.00157],[-79.98877,9.00348],[-79.98876,8.99865],[-79.98579,9.00048],[-79.98608,9.00766],[-79.9807,9.00616],[-79.98267,9.00381],[-79.98001,9.00534],[-79.98221,9.00092],[-79.9812,9.00016],[-79.97833,9.00078],[-79.97939,9.00592],[-79.9764,9.00515],[-79.97643,9.00845],[-79.98091,9.00771],[-79.978,9.01029],[-79.98224,9.01249],[-79.97643,9.01135],[-79.9764,9.01308],[-79.98156,9.01426],[-79.9849,9.01994],[-79.97726,9.01547],[-79.97946,9.01876],[-79.97588,9.01837],[-79.97986,9.02006],[-79.97597,9.02381],[-79.97926,9.0261],[-79.98031,9.02291],[-79.98078,9.0299],[-79.98723,9.03186],[-79.9847,9.03382],[-79.98143,9.03092],[-79.98098,9.03157],[-79.98498,9.03576],[-79.9811,9.03716],[-79.985,9.03822],[-79.984,9.04135],[-79.98339,9.04044],[-79.98199,9.03988],[-79.98113,9.04],[-79.98319,9.044],[-79.97911,9.04133],[-79.98276,9.04796],[-79.97897,9.04579],[-79.97916,9.04878],[-79.9772,9.0473],[-79.97931,9.05081],[-79.97669,9.05166],[-79.97628,9.047],[-79.9717,9.04844],[-79.97151,9.04538],[-79.97517,9.04517],[-79.97355,9.04278],[-79.97704,9.04378],[-79.9755,9.0394],[-79.97893,9.03908],[-79.97894,9.03758],[-79.9761,9.03487],[-79.97927,9.03484],[-79.98002,9.03209],[-79.97642,9.03259],[-79.97903,9.03048],[-79.97522,9.03042],[-79.97943,9.02851],[-79.97571,9.02546],[-79.97184,9.02621],[-79.97165,9.02861],[-79.97465,9.02719],[-79.97145,9.0303],[-79.97358,9.03352],[-79.9694,9.03087],[-79.96719,9.0236],[-79.97007,9.02635],[-79.97037,9.02197],[-79.97417,9.02408],[-79.97548,9.02114],[-79.97062,9.01953],[-79.97446,9.0201],[-79.97519,9.01773],[-79.96784,9.01647],[-79.96799,9.01424],[-79.9697,9.01523],[-79.97444,9.01428],[-79.96992,9.01392],[-79.97277,9.01194],[-79.97368,9.01019],[-79.97307,9.00942],[-79.97027,9.01275],[-79.96707,9.01157],[-79.96894,9.00759],[-79.96454,9.00573],[-79.96711,9.00478],[-79.96773,9.00288],[-79.96405,9.00595],[-79.96677,9.00858],[-79.96375,9.0123],[-79.96544,9.01774],[-79.96171,9.01616],[-79.96123,9.01154],[-79.9643,9.01036],[-79.96206,9.00708],[-79.9639,8.99926],[-79.96611,8.99921],[-79.96314,8.99559],[-79.96635,8.99181],[-79.96917,8.99464],[-79.97146,8.99153],[-79.9749,8.993],[-79.97428,8.98723],[-79.97728,8.984],[-79.98251,8.98775],[-79.98355,8.98099],[-79.99095,8.97839],[-79.98761,8.97294],[-79.99572,8.97163],[-79.9935,8.98004],[-80.00088,8.98755],[-80.01066,8.98693],[-80.01095,8.98472],[-80.01648,8.98988],[-80.01275,8.99378],[-80.01771,9.00558],[-80.01585,9.0092],[-80.0201,9.01138],[-80.01946,9.01647],[-80.0161,9.01143],[-80.01554,9.0151],[-80.01447,9.01056],[-80.01306,9.01392],[-80.01157,9.01259],[-80.01343,9.00868],[-80.01012,9.01],[-80.00919,9.00456],[-80.00437,9.00539],[-80.0071,9.00887],[-80.00291,9.01021],[-80.00742,9.01001],[-80.00825,9.01525],[-80.00972,9.01238],[-80.01115,9.01903],[-80.01364,9.01641],[-80.01466,9.0171],[-80.00928,9.02184],[-80.01233,9.0221],[-80.01191,9.02934],[-80.016,9.03373],[-80.01277,9.03392],[-80.01939,9.03905],[-80.0143,9.04103],[-80.01755,9.04275],[-80.01606,9.04834],[-80.0201,9.04702],[-80.01893,9.0441],[-80.02025,9.04231],[-80.02012,9.04123],[-80.02051,9.04044],[-80.02098,9.04022],[-80.02141,9.04619],[-80.02522,9.04623],[-80.02095,9.04928],[-80.02287,9.05328],[-80.02745,9.04459],[-80.02949,9.04837],[-80.02498,9.04994],[-80.02446,9.05449],[-80.02579,9.05054],[-80.02788,9.05214],[-80.02921,9.04972],[-80.03126,9.05387],[-80.03261,9.05141],[-80.0336,9.05139],[-80.03277,9.05431],[-80.03614,9.05147],[-80.0342,9.05623],[-80.03623,9.05411],[-80.03924,9.05482],[-80.0363,9.05589],[-80.03854,9.05703],[-80.03823,9.05849],[-80.03408,9.05742],[-80.03681,9.05918],[-80.03444,9.06067],[-80.0396,9.06378],[-80.03425,9.06344],[-80.03644,9.07048],[-80.03243,9.06716],[-80.03382,9.07271],[-80.03029,9.07012],[-80.03121,9.0724],[-80.02934,9.07139],[-80.02915,9.07227],[-80.03247,9.07561],[-80.03021,9.07723]]]]}},{"type":"Feature","properties":{"corregimiento":"Barrio Norte","distrito":"Colón","provincia":"Colón","bbox":[-79.9083,9.35682,-79.89226,9.36671]},"geometry":{"type":"Polygon","coordinates":[[[-79.89226,9.36032],[-79.90498,9.35682],[-79.9083,9.36404],[-79.9055,9.36671],[-79.89578,9.36633],[-79.89226,9.36032]]]}},{"type":"Feature","properties":{"corregimiento":"Barrio Sur","distrito":"Colón","provincia":"Colón","bbox":[-79.90498,9.34583,-79.88868,9.36032]},"geometry":{"type":"Polygon","coordinates":[[[-79.88868,9.35412],[-79.89165,9.34583],[-79.89616,9.34781],[-79.90498,9.35682],[-79.89226,9.36032],[-79.88868,9.35412]]]}},{"type":"Feature","properties":{"corregimiento":"Buena Vista","distrito":"Colón","provincia":"Colón","bbox":[-79.7435,9.18855,-79.62754,9.36744]},"geometry":{"type":"Polygon","coordinates":[[[-79.64531,9.28564],[-79.65783,9.28386],[-79.65325,9.2792],[-79.65811,9.25547],[-79.65491,9.24947],[-79.65939,9.24913],[-79.67013,9.23724],[-79.67503,9.2372],[-79.67336,9.23337],[-79.67774,9.23222],[-79.68665,9.23873],[-79.69197,9.2322],[-79.70289,9.22969],[-79.7089,9.2075],[-79.70823,9.20302],[-79.7056,9.2034],[-79.70216,9.19873],[-79.70372,9.19179],[-79.6997,9.18855],[-79.7435,9.19395],[-79.73947,9.20739],[-79.73358,9.2077],[-79.7334,9.21294],[-79.73015,9.21569],[-79.72739,9.21592],[-79.72724,9.21285],[-79.72427,9.21415],[-79.72262,9.27587],[-79.72802,9.28573],[-79.72128,9.2923],[-79.72034,9.29769],[-79.72559,9.30088],[-79.71629,9.30485],[-79.71124,9.31242],[-79.71329,9.31732],[-79.70752,9.32243],[-79.70491,9.32137],[-79.70585,9.3266],[-79.69472,9.33096],[-79.69531,9.33366],[-79.69101,9.33742],[-79.68883,9.33532],[-79.68485,9.34911],[-79.68172,9.34927],[-79.67895,9.35397],[-79.67501,9.35122],[-79.6756,9.35542],[-79.66817,9.35889],[-79.66985,9.36495],[-79.6653,9.36359],[-79.66582,9.36744],[-79.62754,9.35066],[-79.64271,9.33684],[-79.63745,9.32768],[-79.63951,9.3227],[-79.6373,9.3168],[-79.63995,9.3129],[-79.63884,9.30856],[-79.64672,9.30058],[-79.6429,9.29718],[-79.64531,9.28564]]]}},{"type":"Feature","properties":{"corregimiento":"Limón","distrito":"Colón","provincia":"Colón","bbox":[-79.81633,9.19395,-79.71099,9.33524]},"geometry":{"type":"MultiPolygon","coordinates":[[[[-79.71099,9.31998],[-79.71386,9.31632],[-79.71124,9.31242],[-79.71629,9.30485],[-79.72554,9.30099],[-79.72056,9.2983],[-79.72074,9.29359],[-79.72789,9.28704],[-79.72262,9.27587],[-79.72427,9.21415],[-79.72724,9.21285],[-79.72739,9.21592],[-79.73015,9.21569],[-79.7334,9.21294],[-79.73358,9.2077],[-79.73947,9.20739],[-79.7435,9.19395],[-79.75129,9.19426],[-79.76797,9.21674],[-79.79632,9.24178],[-79.80808,9.24141],[-79.80827,9.24475],[-79.80407,9.24773],[-79.80318,9.24313],[-79.79962,9.2435],[-79.80295,9.24697],[-79.80075,9.25004],[-79.80268,9.25301],[-79.80038,9.25187],[-79.80023,9.25427],[-79.79902,9.24979],[-79.79615,9.25368],[-79.79505,9.25039],[-79.79307,9.25285],[-79.78911,9.25089],[-79.79389,9.24686],[-79.79191,9.24701],[-79.79303,9.24278],[-79.79015,9.24461],[-79.78985,9.24974],[-79.78609,9.24925],[-79.78754,9.25419],[-79.78518,9.25422],[-79.78573,9.25049],[-79.78145,9.24608],[-79.78965,9.24398],[-79.79059,9.24175],[-79.7829,9.24268],[-79.78486,9.2406],[-79.78478,9.23992],[-79.78148,9.23965],[-79.78366,9.23821],[-79.78413,9.23739],[-79.78359,9.23704],[-79.78007,9.23863],[-79.78155,9.24102],[-79.77816,9.24168],[-79.77378,9.23706],[-79.77511,9.23941],[-79.77124,9.24018],[-79.77128,9.24097],[-79.77466,9.23989],[-79.77329,9.24312],[-79.77574,9.24135],[-79.77732,9.24395],[-79.77045,9.24548],[-79.77863,9.24582],[-79.77934,9.2513],[-79.77707,9.24854],[-79.77516,9.24856],[-79.77679,9.24965],[-79.77699,9.25117],[-79.77294,9.24941],[-79.77513,9.25216],[-79.77375,9.25213],[-79.76947,9.24573],[-79.76933,9.24917],[-79.76535,9.24818],[-79.76604,9.25439],[-79.76199,9.25198],[-79.76065,9.25296],[-79.76555,9.25516],[-79.76262,9.25706],[-79.7659,9.25797],[-79.76204,9.26034],[-79.76254,9.26307],[-79.77213,9.25688],[-79.7739,9.25771],[-79.7713,9.26259],[-79.77458,9.26091],[-79.77334,9.26371],[-79.77566,9.26538],[-79.77077,9.26381],[-79.76718,9.26676],[-79.76627,9.26484],[-79.76546,9.26963],[-79.76244,9.26974],[-79.76468,9.27122],[-79.76328,9.27431],[-79.7587,9.27502],[-79.76139,9.26171],[-79.7563,9.26227],[-79.75803,9.26532],[-79.75597,9.2666],[-79.75537,9.26362],[-79.75516,9.26551],[-79.75414,9.26342],[-79.74942,9.26307],[-79.74581,9.26438],[-79.75404,9.2651],[-79.75585,9.26854],[-79.75348,9.26845],[-79.75445,9.27272],[-79.75099,9.2724],[-79.75243,9.27646],[-79.74941,9.28014],[-79.75999,9.27723],[-79.75884,9.28134],[-79.76055,9.2788],[-79.76099,9.28098],[-79.76194,9.27713],[-79.76521,9.2765],[-79.76519,9.2831],[-79.76741,9.28004],[-79.77098,9.28447],[-79.76676,9.28669],[-79.76685,9.28812],[-79.77059,9.28685],[-79.76898,9.29041],[-79.77105,9.28893],[-79.77208,9.29151],[-79.76795,9.2936],[-79.765,9.30025],[-79.76418,9.29622],[-79.75862,9.29689],[-79.75949,9.30217],[-79.75593,9.30107],[-79.75113,9.30852],[-79.74167,9.30834],[-79.73502,9.31913],[-79.72977,9.32023],[-79.72531,9.33524],[-79.71835,9.33415],[-79.71099,9.31998]]],[[[-79.77784,9.31294],[-79.77452,9.29958],[-79.77774,9.29846],[-79.77299,9.29552],[-79.77375,9.28306],[-79.76813,9.27736],[-79.76846,9.27396],[-79.77021,9.27299],[-79.76901,9.27591],[-79.7717,9.27775],[-79.77183,9.27464],[-79.77456,9.27546],[-79.7745,9.279],[-79.77683,9.28079],[-79.77527,9.27698],[-79.77836,9.27709],[-79.77521,9.2741],[-79.7769,9.27226],[-79.77763,9.27405],[-79.77808,9.27415],[-79.77828,9.27292],[-79.78076,9.27412],[-79.78209,9.27251],[-79.77819,9.27168],[-79.77906,9.26948],[-79.7826,9.27136],[-79.80435,9.25699],[-79.8045,9.26005],[-79.8016,9.26146],[-79.80156,9.26245],[-79.80639,9.25964],[-79.80606,9.25731],[-79.80922,9.26001],[-79.80898,9.2571],[-79.81412,9.25279],[-79.81281,9.25661],[-79.8163,9.25574],[-79.81633,9.25781],[-79.81351,9.25761],[-79.81182,9.25874],[-79.81633,9.25915],[-79.81235,9.25954],[-79.81351,9.26157],[-79.81046,9.25972],[-79.81312,9.26219],[-79.809,9.26175],[-79.8109,9.26378],[-79.80666,9.26302],[-79.80338,9.26577],[-79.79332,9.27889],[-79.7956,9.28404],[-79.78521,9.30243],[-79.78921,9.30794],[-79.78369,9.31192],[-79.77994,9.30879],[-79.77784,9.31294]]]]}},{"type":"Feature","properties":{"corregimiento":"Nueva Providencia","distrito":"Colón","provincia":"Colón","bbox":[-79.82606,9.2592,-79.7769,9.32642]},"geometry":{"type":"Polygon","coordinates":[[[-79.7769,9.31688],[-79.77994,9.30879],[-79.78369,9.31192],[-79.78921,9.30794],[-79.78521,9.30243],[-79.78876,9.29844],[-79.78975,9.29113],[-79.79404,9.28832],[-79.79571,9.28307],[-79.79329,9.27898],[-79.79632,9.27719],[-79.79634,9.27233],[-79.80359,9.26562],[-79.81363,9.26378],[-79.81747,9.2592],[-79.82149,9.2614],[-79.81822,9.2618],[-79.82211,9.26414],[-79.82016,9.26688],[-79.81729,9.26214],[-79.81516,9.26348],[-79.81655,9.26572],[-79.81396,9.26411],[-79.81857,9.26703],[-79.81755,9.26987],[-79.81695,9.26718],[-79.81572,9.26694],[-79.81419,9.2701],[-79.81286,9.26573],[-79.81272,9.26802],[-79.81025,9.26687],[-79.80823,9.26854],[-79.81116,9.26777],[-79.81335,9.27146],[-79.80962,9.26976],[-79.80911,9.27025],[-79.80837,9.26991],[-79.80711,9.27004],[-79.80692,9.27042],[-79.81202,9.27353],[-79.8154,9.27218],[-79.81313,9.27585],[-79.81689,9.27352],[-79.81813,9.27408],[-79.81283,9.27682],[-79.80874,9.27233],[-79.8069,9.27208],[-79.81224,9.27735],[-79.80941,9.27916],[-79.80638,9.27697],[-79.80545,9.27708],[-79.80306,9.28112],[-79.80632,9.27754],[-79.8064,9.28124],[-79.80793,9.27943],[-79.8111,9.28053],[-79.81099,9.28525],[-79.81204,9.28586],[-79.81106,9.27912],[-79.81433,9.27863],[-79.81341,9.28086],[-79.81397,9.28159],[-79.81751,9.27652],[-79.81914,9.27787],[-79.81726,9.27785],[-79.81618,9.27946],[-79.81867,9.27844],[-79.81637,9.28403],[-79.81872,9.28528],[-79.81907,9.28493],[-79.81846,9.28464],[-79.81839,9.28213],[-79.81913,9.27865],[-79.82092,9.27779],[-79.81981,9.28853],[-79.81626,9.28934],[-79.81976,9.29142],[-79.81598,9.29109],[-79.8153,9.2949],[-79.82129,9.29252],[-79.8204,9.28975],[-79.82102,9.28891],[-79.82224,9.2931],[-79.82067,9.29592],[-79.82279,9.29406],[-79.82172,9.2967],[-79.8222,9.29813],[-79.82504,9.29535],[-79.82606,9.30057],[-79.824,9.29804],[-79.82179,9.30106],[-79.82024,9.2983],[-79.82073,9.3035],[-79.81814,9.30271],[-79.81976,9.30625],[-79.814,9.30073],[-79.8134,9.30294],[-79.81245,9.29859],[-79.81034,9.29993],[-79.81243,9.29987],[-79.81197,9.30375],[-79.81736,9.3055],[-79.81583,9.30989],[-79.82013,9.30852],[-79.81828,9.30929],[-79.81677,9.31138],[-79.81808,9.30995],[-79.82013,9.31365],[-79.81634,9.31689],[-79.81781,9.31369],[-79.81486,9.3122],[-79.8152,9.31732],[-79.81283,9.31347],[-79.81318,9.31633],[-79.80858,9.31513],[-79.80844,9.31829],[-79.80644,9.31456],[-79.8027,9.31773],[-79.79056,9.31604],[-79.78162,9.32642],[-79.7769,9.31688]]]}},{"type":"Feature","properties":{"corregimiento":"Puerto Pilón","distrito":"Colón","provincia":"Colón","bbox":[-79.81793,9.29356,-79.66491,9.41692]},"geometry":{"type":"Polygon","coordinates":[[[-79.80963,9.41692],[-79.8004,9.41281],[-79.79727,9.41381],[-79.79519,9.41006],[-79.78926,9.4112],[-79.78898,9.40698],[-79.77936,9.40081],[-79.7806,9.39697],[-79.77005,9.39556],[-79.77056,9.39337],[-79.76507,9.39198],[-79.76083,9.3951],[-79.75716,9.3825],[-79.7533,9.38549],[-79.75024,9.38192],[-79.73821,9.39242],[-79.73424,9.38877],[-79.72255,9.38772],[-79.70741,9.36877],[-79.70777,9.36545],[-79.66582,9.36744],[-79.66491,9.3642],[-79.66958,9.36554],[-79.66817,9.35889],[-79.67544,9.35565],[-79.67509,9.35116],[-79.67895,9.35397],[-79.68172,9.34927],[-79.68474,9.34923],[-79.68833,9.33597],[-79.69101,9.33742],[-79.69531,9.33366],[-79.69472,9.33096],[-79.70585,9.3266],[-79.7054,9.32075],[-79.70738,9.32248],[-79.71099,9.31998],[-79.71835,9.33415],[-79.72531,9.33524],[-79.72977,9.32023],[-79.73502,9.31913],[-79.74178,9.30824],[-79.75085,9.30884],[-79.75635,9.30148],[-79.7607,9.30166],[-79.75951,9.2988],[-79.76366,9.29652],[-79.76557,9.30057],[-79.77178,9.29356],[-79.77124,9.29644],[-79.77594,9.29829],[-79.77413,9.29979],[-79.7769,9.31688],[-79.78129,9.32275],[-79.78892,9.34735],[-79.79521,9.35298],[-79.80441,9.35521],[-79.80708,9.36004],[-79.80367,9.3647],[-79.80046,9.35835],[-79.79603,9.36232],[-79.80821,9.37164],[-79.80933,9.37953],[-79.80679,9.38305],[-79.80951,9.38609],[-79.80641,9.38811],[-79.81116,9.38883],[-79.80952,9.39224],[-79.80728,9.38978],[-79.80713,9.39308],[-79.813,9.39465],[-79.81793,9.40367],[-79.80963,9.41692]]]}},{"type":"Feature","properties":{"corregimiento":"Sabanitas","distrito":"Colón","provincia":"Colón","bbox":[-79.83105,9.3161,-79.78162,9.36004]},"geometry":{"type":"Polygon","coordinates":[[[-79.78162,9.32642],[-79.79039,9.3161],[-79.80183,9.31683],[-79.80045,9.32111],[-79.80195,9.32178],[-79.80657,9.31779],[-79.80339,9.32564],[-79.80462,9.32672],[-79.80742,9.32435],[-79.80701,9.32027],[-79.80836,9.32025],[-79.80754,9.32307],[-79.8085,9.32369],[-79.80905,9.32023],[-79.81001,9.32104],[-79.80996,9.32242],[-79.81046,9.323],[-79.81104,9.32048],[-79.81534,9.32112],[-79.81035,9.32451],[-79.8114,9.32641],[-79.80582,9.32685],[-79.80804,9.32796],[-79.80597,9.32998],[-79.80942,9.33073],[-79.8065,9.3306],[-79.80619,9.33154],[-79.80492,9.33129],[-79.80464,9.33178],[-79.80972,9.3324],[-79.80582,9.33348],[-79.80813,9.33422],[-79.80499,9.33524],[-79.80581,9.33764],[-79.80789,9.33528],[-79.80797,9.33821],[-79.81055,9.33945],[-79.80959,9.33326],[-79.81214,9.33737],[-79.81299,9.33498],[-79.81484,9.33668],[-79.81436,9.33967],[-79.8115,9.33931],[-79.81576,9.34122],[-79.81754,9.3366],[-79.81475,9.33487],[-79.81704,9.33433],[-79.81039,9.33257],[-79.81143,9.32833],[-79.81486,9.3328],[-79.81909,9.33085],[-79.81898,9.33652],[-79.82343,9.33493],[-79.8217,9.33882],[-79.82016,9.33767],[-79.81955,9.33794],[-79.8184,9.33879],[-79.82225,9.34],[-79.82486,9.33533],[-79.82679,9.33698],[-79.82851,9.3347],[-79.82818,9.33692],[-79.83105,9.33403],[-79.83093,9.33775],[-79.82544,9.3381],[-79.82201,9.34206],[-79.81898,9.34006],[-79.81881,9.3426],[-79.81273,9.34233],[-79.80708,9.36004],[-79.80441,9.35521],[-79.78961,9.34848],[-79.78162,9.32642]]]}},{"type":"Feature","properties":{"corregimiento":"San Juan","distrito":"Colón","provincia":"Colón","bbox":[-79.69176,9.20606,-79.58738,9.28564]},"geometry":{"type":"Polygon","coordinates":[[[-79.61046,9.25544],[-79.61534,9.24917],[-79.61273,9.24837],[-79.6109,9.2518],[-79.60661,9.24637],[-79.60717,9.25103],[-79.5982,9.24975],[-79.59982,9.25455],[-79.58841,9.26065],[-79.59118,9.25334],[-79.58738,9.25353],[-79.58973,9.25165],[-79.59221,9.25439],[-79.59199,9.24922],[-79.59723,9.2504],[-79.59385,9.24644],[-79.59908,9.24943],[-79.60279,9.2467],[-79.59137,9.23827],[-79.59464,9.23417],[-79.5908,9.22825],[-79.59681,9.23127],[-79.59364,9.22453],[-79.59229,9.22699],[-79.59025,9.22585],[-79.592,9.22378],[-79.58915,9.2209],[-79.59635,9.22243],[-79.59815,9.22453],[-79.59655,9.22563],[-79.59587,9.22787],[-79.59657,9.22857],[-79.59905,9.22508],[-79.59944,9.22969],[-79.60623,9.22826],[-79.60016,9.23075],[-79.60337,9.23121],[-79.60297,9.2333],[-79.60406,9.23107],[-79.61763,9.23186],[-79.62595,9.22118],[-79.62811,9.20606],[-79.64675,9.20944],[-79.64864,9.20694],[-79.65302,9.21405],[-79.65989,9.21546],[-79.67159,9.22852],[-79.68254,9.22805],[-79.69176,9.23313],[-79.68665,9.23873],[-79.67774,9.23222],[-79.67336,9.23337],[-79.67503,9.2372],[-79.67013,9.23724],[-79.65939,9.24913],[-79.65491,9.24947],[-79.65811,9.25547],[-79.65325,9.2792],[-79.65783,9.28386],[-79.65256,9.28556],[-79.64531,9.28564],[-79.64754,9.28394],[-79.64557,9.27847],[-79.63406,9.27555],[-79.6389,9.27028],[-79.63872,9.26462],[-79.63064,9.26803],[-79.62365,9.26062],[-79.61999,9.26683],[-79.61807,9.26356],[-79.61137,9.26176],[-79.61046,9.25544]]]}},{"type":"Feature","properties":{"corregimiento":"Santa Rosa","distrito":"Colón","provincia":"Colón","bbox":[-79.70891,9.17385,-79.64952,9.23313]},"geometry":{"type":"Polygon","coordinates":[[[-79.69172,9.23313],[-79.68254,9.22805],[-79.67159,9.22852],[-79.65989,9.21546],[-79.65297,9.21397],[-79.64952,9.20217],[-79.65534,9.18767],[-79.6538,9.1836],[-79.65637,9.17515],[-79.66037,9.18823],[-79.65895,9.17385],[-79.66511,9.17767],[-79.66686,9.19361],[-79.67123,9.19411],[-79.66768,9.19087],[-79.66857,9.18808],[-79.67123,9.18876],[-79.66699,9.18607],[-79.66919,9.18352],[-79.66582,9.17802],[-79.70362,9.19155],[-79.70211,9.19865],[-79.7056,9.2034],[-79.70823,9.20302],[-79.70891,9.20756],[-79.70424,9.22667],[-79.70254,9.22999],[-79.69172,9.23313]]]}},{"type":"Feature","properties":{"corregimiento":"Cristóbal Este","distrito":"Colón","provincia":"Colón","bbox":[-79.89197,9.33429,-79.84586,9.40445]},"geometry":{"type":"Polygon","coordinates":[[[-79.84586,9.38525],[-79.84597,9.35626],[-79.85641,9.35039],[-79.84627,9.34015],[-79.85305,9.34094],[-79.86459,9.33429],[-79.86575,9.33719],[-79.87196,9.33825],[-79.87079,9.34144],[-79.88438,9.33903],[-79.88588,9.33938],[-79.88762,9.34028],[-79.89197,9.34356],[-79.88599,9.3418],[-79.88613,9.33962],[-79.88251,9.34226],[-79.87742,9.34039],[-79.8799,9.34206],[-79.88803,9.34279],[-79.89075,9.34486],[-79.88772,9.35633],[-79.88218,9.35511],[-79.88671,9.36498],[-79.88212,9.37175],[-79.88489,9.37082],[-79.88359,9.37373],[-79.888,9.37004],[-79.89031,9.37659],[-79.88146,9.37982],[-79.89182,9.38328],[-79.88017,9.38899],[-79.87908,9.38161],[-79.87483,9.3788],[-79.87575,9.38119],[-79.8736,9.38124],[-79.88111,9.39014],[-79.87882,9.39338],[-79.88486,9.39202],[-79.88246,9.39712],[-79.87865,9.39724],[-79.8736,9.40445],[-79.86238,9.40387],[-79.85753,9.39606],[-79.85961,9.38944],[-79.85269,9.39064],[-79.84752,9.38751],[-79.85147,9.38578],[-79.8505,9.38133],[-79.84805,9.38616],[-79.84586,9.38525]]]}},{"type":"Feature","properties":{"corregimiento":"Cativá","distrito":"Colón","provincia":"Colón","bbox":[-79.85641,9.32146,-79.80592,9.39638]},"geometry":{"type":"Polygon","coordinates":[[[-79.80938,9.35807],[-79.80708,9.36004],[-79.81175,9.3498],[-79.81273,9.34233],[-79.82061,9.34303],[-79.8192,9.34543],[-79.82515,9.34205],[-79.82203,9.34611],[-79.82644,9.34527],[-79.83666,9.33397],[-79.83653,9.32474],[-79.84498,9.32146],[-79.8413,9.32501],[-79.84547,9.32476],[-79.84184,9.328],[-79.83891,9.32638],[-79.83777,9.33039],[-79.84373,9.32922],[-79.84134,9.33385],[-79.84643,9.32828],[-79.84627,9.34063],[-79.84968,9.34134],[-79.85641,9.35039],[-79.84597,9.35626],[-79.84586,9.38525],[-79.84444,9.37843],[-79.8415,9.37997],[-79.843,9.38323],[-79.83927,9.37889],[-79.84398,9.39172],[-79.83696,9.39008],[-79.83713,9.38509],[-79.83443,9.38348],[-79.8339,9.37797],[-79.83924,9.37821],[-79.8375,9.37301],[-79.83476,9.37706],[-79.83118,9.37249],[-79.82747,9.37918],[-79.82534,9.37816],[-79.82443,9.3787],[-79.82957,9.38045],[-79.83205,9.38647],[-79.81955,9.39638],[-79.8148,9.38836],[-79.81769,9.38543],[-79.81596,9.38303],[-79.82026,9.38306],[-79.82107,9.37972],[-79.81939,9.38096],[-79.81823,9.37807],[-79.811,9.38186],[-79.81007,9.37162],[-79.80592,9.36952],[-79.80938,9.35807]]]}},{"type":"Feature","properties":{"corregimiento":"Salamanca","distrito":"Colón","provincia":"Colón","bbox":[-79.66272,9.2516,-79.5361,9.47873]},"geometry":{"type":"Polygon","coordinates":[[[-79.5361,9.46219],[-79.54159,9.46001],[-79.53808,9.45747],[-79.53915,9.45252],[-79.53657,9.45271],[-79.53957,9.4501],[-79.53692,9.44726],[-79.53898,9.44574],[-79.5374,9.44196],[-79.54153,9.4421],[-79.54061,9.43602],[-79.54685,9.43295],[-79.54484,9.42092],[-79.54161,9.41955],[-79.54484,9.41455],[-79.54783,9.41667],[-79.55013,9.41098],[-79.55599,9.40901],[-79.55661,9.39959],[-79.55241,9.39807],[-79.55931,9.39557],[-79.55993,9.38987],[-79.56422,9.38623],[-79.55922,9.38339],[-79.56482,9.38092],[-79.56421,9.37592],[-79.57223,9.37216],[-79.56686,9.37033],[-79.56951,9.3677],[-79.56613,9.36574],[-79.56732,9.36023],[-79.56297,9.36096],[-79.56238,9.35711],[-79.56214,9.36005],[-79.55826,9.36168],[-79.55862,9.34775],[-79.57028,9.33339],[-79.57417,9.33332],[-79.57383,9.32811],[-79.57702,9.32419],[-79.58112,9.33512],[-79.58534,9.33183],[-79.59027,9.33554],[-79.58976,9.3407],[-79.59324,9.33866],[-79.59146,9.33364],[-79.59441,9.33681],[-79.59217,9.33148],[-79.59723,9.33569],[-79.59495,9.3302],[-79.59858,9.33207],[-79.59912,9.32849],[-79.60149,9.33151],[-79.60243,9.33112],[-79.59984,9.3284],[-79.60246,9.32601],[-79.58774,9.33192],[-79.59521,9.3274],[-79.58265,9.33044],[-79.58185,9.31763],[-79.58427,9.317],[-79.58353,9.31072],[-79.58634,9.30631],[-79.58058,9.30486],[-79.58605,9.30408],[-79.58481,9.30052],[-79.58975,9.29371],[-79.58949,9.2897],[-79.59332,9.28832],[-79.59424,9.28073],[-79.59197,9.27846],[-79.59447,9.27911],[-79.59779,9.27102],[-79.59267,9.27016],[-79.5932,9.26285],[-79.59623,9.2642],[-79.59544,9.26036],[-79.59838,9.25975],[-79.59876,9.26973],[-79.60118,9.26922],[-79.60136,9.26568],[-79.60444,9.26577],[-79.60053,9.25892],[-79.60359,9.25722],[-79.60256,9.25415],[-79.60998,9.2516],[-79.6113,9.26166],[-79.61807,9.26356],[-79.61999,9.26683],[-79.62365,9.26062],[-79.63064,9.26803],[-79.63872,9.26462],[-79.6389,9.27028],[-79.63406,9.27555],[-79.64557,9.27847],[-79.64754,9.28394],[-79.64289,9.29696],[-79.64672,9.30058],[-79.63884,9.30856],[-79.63995,9.3129],[-79.6373,9.3168],[-79.63951,9.3227],[-79.63745,9.32768],[-79.64271,9.33684],[-79.62754,9.35066],[-79.66272,9.36761],[-79.65402,9.3809],[-79.65633,9.38519],[-79.65252,9.3935],[-79.65415,9.43222],[-79.64781,9.4316],[-79.64763,9.43486],[-79.6424,9.43848],[-79.65141,9.44337],[-79.64933,9.44701],[-79.6513,9.45114],[-79.64718,9.45588],[-79.64578,9.45022],[-79.64286,9.45275],[-79.63871,9.45151],[-79.63906,9.44598],[-79.63227,9.45326],[-79.63217,9.44819],[-79.63008,9.44998],[-79.62684,9.44759],[-79.62014,9.45163],[-79.6151,9.44553],[-79.61182,9.44818],[-79.61354,9.45018],[-79.60235,9.45818],[-79.59483,9.46998],[-79.59772,9.47181],[-79.59378,9.47338],[-79.58809,9.46594],[-79.58519,9.46609],[-79.5624,9.47873],[-79.54879,9.47289],[-79.54637,9.46767],[-79.53965,9.46692],[-79.5361,9.46219]]]}}]}