{"type":"FeatureCollection","features":[{"type":"Feature","properties":{"corregimiento":"Achiote","distrito":"Chagres","provincia":"Colón","bbox":[-80.06919,9.14848,-79.9865,9.25711]},"geometry":{"type":"Polygon","coordinates":[[[-79.99711,9.23825],[-79.99714,9.20997],[-79.9865,9.17405],[-80.0106,9.17004],[-80.01865,9.18081],[-80.01128,9.19023],[-80.01716,9.1929],[-80.01978,9.19117],[-80.02253,9.19598],[-80.03686,9.18338],[-80.02428,9.17095],[-80.028,9.16352],[-80.02687,9.15987],[-80.03198,9.15761],[-80.03169,9.15128],[-80.03788,9.14848],[-80.04807,9.15434],[-80.0516,9.15223],[-80.05747,9.16183],[-80.05182,9.17198],[-80.05633,9.17761],[-80.0567,9.18455],[-80.06325,9.18597],[-80.06171,9.19334],[-80.06675,9.19611],[-80.06558,9.20789],[-80.06919,9.21585],[-80.06353,9.21693],[-80.06123,9.22137],[-80.05241,9.21623],[-80.0524,9.22126],[-80.04785,9.22437],[-80.05686,9.22674],[-80.06592,9.23416],[-80.06733,9.23603],[-80.06422,9.24106],[-80.05389,9.24693],[-80.04364,9.2452],[-80.04231,9.24186],[-80.03586,9.24025],[-80.03609,9.24832],[-80.02878,9.25711],[-80.0243,9.25306],[-80.02085,9.24353],[-80.0074,9.24119],[-80.00711,9.23383],[-79.99711,9.23825]]]}},{"type":"Feature","properties":{"corregimiento":"El Guabo","distrito":"Chagres","provincia":"Colón","bbox":[-80.12436,9.06785,-80.03518,9.1562]},"geometry":{"type":"Polygon","coordinates":[[[-80.0536,9.14934],[-80.04814,9.15435],[-80.03808,9.14851],[-80.0356,9.14957],[-80.03518,9.14447],[-80.03795,9.13197],[-80.04181,9.12765],[-80.04388,9.11189],[-80.04938,9.11005],[-80.05134,9.10501],[-80.04954,9.09989],[-80.05543,9.09664],[-80.05462,9.08888],[-80.06625,9.08536],[-80.06895,9.07876],[-80.07864,9.0738],[-80.0863,9.07426],[-80.08887,9.07153],[-80.1071,9.06785],[-80.10388,9.08117],[-80.10509,9.09071],[-80.11315,9.08802],[-80.1128,9.09506],[-80.12436,9.11699],[-80.1177,9.11618],[-80.11409,9.12098],[-80.10023,9.12744],[-80.09648,9.13684],[-80.0984,9.1446],[-80.09351,9.1493],[-80.09476,9.15403],[-80.0925,9.1562],[-80.08001,9.14339],[-80.07956,9.13699],[-80.07402,9.12841],[-80.07372,9.11907],[-80.06862,9.11112],[-80.06509,9.12242],[-80.07144,9.14325],[-80.07074,9.15021],[-80.0616,9.15538],[-80.0536,9.14934]]]}},{"type":"Feature","properties":{"corregimiento":"La Encantada","distrito":"Chagres","provincia":"Colón","bbox":[-80.20438,8.94878,-80.08689,9.18081]},"geometry":{"type":"Polygon","coordinates":[[[-80.1071,9.06785],[-80.10875,9.06138],[-80.1038,9.05877],[-80.101,9.05023],[-80.09776,9.04873],[-80.1066,9.03061],[-80.10084,9.02121],[-80.10483,9.01748],[-80.08689,8.99678],[-80.13223,8.96579],[-80.14119,8.94878],[-80.14613,8.95212],[-80.14573,8.95729],[-80.15432,8.96205],[-80.15246,8.96625],[-80.16072,8.96245],[-80.16319,8.96896],[-80.16776,8.96777],[-80.16644,8.97154],[-80.17555,8.96868],[-80.1759,8.97479],[-80.17111,8.98319],[-80.17296,8.98491],[-80.17706,8.98258],[-80.18132,8.98715],[-80.17712,8.99203],[-80.18116,8.99508],[-80.17703,8.99763],[-80.18454,9.00896],[-80.18178,9.01545],[-80.18517,9.01904],[-80.17846,9.02672],[-80.17968,9.03125],[-80.18437,9.0337],[-80.18308,9.0409],[-80.18919,9.04046],[-80.18979,9.04628],[-80.19504,9.05044],[-80.19471,9.05839],[-80.19081,9.0638],[-80.18749,9.06399],[-80.18932,9.07501],[-80.18687,9.07489],[-80.19431,9.07825],[-80.18683,9.08493],[-80.19657,9.08759],[-80.19478,9.09346],[-80.19811,9.10231],[-80.20385,9.10662],[-80.20438,9.11416],[-80.19694,9.12325],[-80.20039,9.12952],[-80.19163,9.13505],[-80.19792,9.14485],[-80.19119,9.15053],[-80.19853,9.15402],[-80.19503,9.17524],[-80.19118,9.18081],[-80.18304,9.17711],[-80.18436,9.17054],[-80.17907,9.162],[-80.18087,9.15673],[-80.17627,9.1539],[-80.17425,9.14731],[-80.17805,9.14147],[-80.17373,9.12998],[-80.18075,9.12135],[-80.17588,9.11092],[-80.17997,9.10987],[-80.18142,9.10568],[-80.1689,9.09864],[-80.15979,9.09972],[-80.15505,9.08269],[-80.14548,9.0818],[-80.13259,9.0709],[-80.13013,9.0768],[-80.12256,9.06306],[-80.1071,9.06785]]]}},{"type":"Feature","properties":{"corregimiento":"Palmas Bellas","distrito":"Chagres","provincia":"Colón","bbox":[-80.11636,9.11112,-80.04785,9.24003]},"geometry":{"type":"Polygon","coordinates":[[[-80.07574,9.24003],[-80.057,9.22682],[-80.04785,9.22437],[-80.0524,9.22126],[-80.05241,9.21623],[-80.06123,9.22137],[-80.06353,9.21693],[-80.06919,9.21585],[-80.06558,9.20789],[-80.06675,9.19611],[-80.06171,9.19334],[-80.06325,9.18597],[-80.0567,9.18455],[-80.05633,9.17761],[-80.0518,9.17188],[-80.05723,9.159],[-80.04961,9.15185],[-80.0536,9.14934],[-80.0616,9.15538],[-80.07074,9.15021],[-80.07144,9.14325],[-80.06509,9.12242],[-80.06862,9.11112],[-80.07372,9.11907],[-80.07402,9.12841],[-80.07956,9.13699],[-80.08001,9.14339],[-80.0925,9.1562],[-80.09476,9.15403],[-80.09351,9.1493],[-80.0984,9.1446],[-80.09648,9.13684],[-80.09961,9.12837],[-80.11636,9.1188],[-80.10803,9.13833],[-80.10751,9.14525],[-80.11156,9.1563],[-80.10957,9.16314],[-80.10528,9.16629],[-80.10819,9.16998],[-80.10572,9.17441],[-80.11044,9.1722],[-80.11604,9.17513],[-80.10552,9.18748],[-80.10411,9.19301],[-80.10699,9.19564],[-80.10648,9.21409],[-80.11027,9.21621],[-80.1107,9.22011],[-80.08658,9.23345],[-80.07225,9.22774],[-80.06861,9.23158],[-80.07531,9.23469],[-80.07574,9.24003]]]}},{"type":"Feature","properties":{"corregimiento":"Salud","distrito":"Chagres","provincia":"Colón","bbox":[-80.19113,9.06304,-80.10388,9.21956]},"geometry":{"type":"Polygon","coordinates":[[[-80.10803,9.13833],[-80.1177,9.11618],[-80.12449,9.11651],[-80.1128,9.09506],[-80.11315,9.08802],[-80.10524,9.09091],[-80.10388,9.08117],[-80.1071,9.06785],[-80.12253,9.06304],[-80.13013,9.0768],[-80.13259,9.0709],[-80.14548,9.0818],[-80.15505,9.08269],[-80.15979,9.09972],[-80.1689,9.09864],[-80.1815,9.10581],[-80.17997,9.10987],[-80.17588,9.11092],[-80.18075,9.12135],[-80.17373,9.12998],[-80.17805,9.14147],[-80.17423,9.14713],[-80.17627,9.1539],[-80.18087,9.15673],[-80.17907,9.162],[-80.18436,9.17054],[-80.18304,9.17711],[-80.19113,9.18066],[-80.18832,9.19316],[-80.1802,9.19264],[-80.17565,9.19414],[-80.17343,9.19849],[-80.16028,9.19915],[-80.15029,9.20852],[-80.1294,9.20948],[-80.12099,9.21831],[-80.10974,9.21956],[-80.10594,9.2094],[-80.10698,9.19559],[-80.10411,9.19301],[-80.10552,9.18748],[-80.11605,9.1752],[-80.11081,9.17223],[-80.10572,9.17441],[-80.10819,9.16998],[-80.10528,9.16629],[-80.10957,9.16314],[-80.11156,9.1563],[-80.10751,9.14525],[-80.10803,9.13833]]]}},{"type":"Feature","properties":{"corregimiento":"Nuevo Chagres (Cabecera)","distrito":"Chagres","provincia":"Colón","bbox":[-80.08827,9.22745,-80.06073,9.26593]},"geometry":{"type":"Polygon","coordinates":[[[-80.06073,9.24293],[-80.06704,9.23598],[-80.07601,9.23987],[-80.07531,9.23469],[-80.06859,9.23151],[-80.07301,9.22745],[-80.07999,9.23231],[-80.08522,9.23236],[-80.08827,9.23721],[-80.06215,9.26593],[-80.06073,9.24293]]]}},{"type":"Feature","properties":{"corregimiento":"Piña","distrito":"Chagres","provincia":"Colón","bbox":[-80.06215,9.23383,-79.99593,9.29263]},"geometry":{"type":"Polygon","coordinates":[[[-79.99711,9.23825],[-80.00711,9.23383],[-80.0074,9.24119],[-80.02085,9.24353],[-80.0243,9.25306],[-80.02878,9.25711],[-80.03609,9.24832],[-80.03586,9.24025],[-80.04231,9.24186],[-80.04364,9.2452],[-80.05389,9.24693],[-80.06073,9.24293],[-80.06215,9.26593],[-80.04894,9.27706],[-80.04486,9.28442],[-80.03683,9.27837],[-80.03496,9.2821],[-80.03153,9.28121],[-80.03129,9.28587],[-80.02706,9.28507],[-80.02583,9.28101],[-80.0239,9.28321],[-80.02146,9.2817],[-80.01285,9.29263],[-79.99593,9.28135],[-79.99711,9.23825]]]}}]}