{"type":"FeatureCollection","features":[{"type":"Feature","properties":{"corregimiento":"Coclé del Norte","distrito":"Donoso","provincia":"Colón","bbox":[-80.87519,8.62421,-80.33693,9.09945]},"geometry":{"type":"Polygon","coordinates":[[[-80.44294,9.02374],[-80.44541,9.0171],[-80.43677,9.00917],[-80.44421,9.00516],[-80.44518,8.99578],[-80.45602,8.98177],[-80.4329,8.98718],[-80.41788,8.95848],[-80.39391,8.95472],[-80.3848,8.96824],[-80.3757,8.9722],[-80.3695,8.9637],[-80.36971,8.95928],[-80.36273,8.95629],[-80.37007,8.95061],[-80.36817,8.94741],[-80.37142,8.94008],[-80.36848,8.92899],[-80.36315,8.92484],[-80.36521,8.91947],[-80.35959,8.91131],[-80.35471,8.91374],[-80.34304,8.91247],[-80.33693,8.89034],[-80.3659,8.86148],[-80.36755,8.87141],[-80.37229,8.87234],[-80.37681,8.87959],[-80.38803,8.88197],[-80.41109,8.87991],[-80.41301,8.88494],[-80.41654,8.88372],[-80.42155,8.88838],[-80.43378,8.89018],[-80.43499,8.89459],[-80.43994,8.89608],[-80.43906,8.89929],[-80.45737,8.91518],[-80.46269,8.91142],[-80.46587,8.91462],[-80.48393,8.91202],[-80.49768,8.92296],[-80.50306,8.91792],[-80.50539,8.92412],[-80.50852,8.92072],[-80.51202,8.92169],[-80.51115,8.92542],[-80.51462,8.92915],[-80.51962,8.926],[-80.52824,8.92862],[-80.53329,8.9359],[-80.53228,8.94152],[-80.54563,8.93595],[-80.54258,8.93044],[-80.55159,8.93602],[-80.55424,8.93406],[-80.56155,8.94132],[-80.57007,8.94312],[-80.5873,8.94392],[-80.59019,8.93906],[-80.59959,8.93676],[-80.59791,8.93938],[-80.60221,8.94267],[-80.60581,8.95362],[-80.61779,8.96239],[-80.62199,8.95984],[-80.62803,8.96867],[-80.63147,8.96907],[-80.63564,8.96403],[-80.64389,8.96419],[-80.65117,8.95772],[-80.65447,8.95995],[-80.65459,8.9557],[-80.64965,8.95405],[-80.65275,8.94917],[-80.64124,8.94757],[-80.63855,8.92979],[-80.62988,8.91485],[-80.6333,8.90932],[-80.63069,8.90154],[-80.63228,8.89838],[-80.62991,8.89731],[-80.63545,8.89194],[-80.63472,8.88154],[-80.63852,8.87857],[-80.6378,8.86919],[-80.64003,8.86774],[-80.63727,8.85538],[-80.67013,8.82093],[-80.66725,8.81468],[-80.67082,8.81556],[-80.67676,8.81164],[-80.66977,8.79139],[-80.6639,8.78812],[-80.65577,8.78805],[-80.65347,8.77928],[-80.67843,8.76712],[-80.68335,8.76102],[-80.69148,8.76042],[-80.69239,8.748],[-80.68623,8.74073],[-80.69051,8.7377],[-80.68953,8.73174],[-80.69895,8.72164],[-80.69914,8.71752],[-80.70495,8.71594],[-80.70818,8.70965],[-80.70646,8.70405],[-80.70959,8.68889],[-80.70633,8.67438],[-80.69551,8.66805],[-80.69429,8.65146],[-80.71718,8.64631],[-80.72441,8.62421],[-80.75288,8.62833],[-80.74522,8.63102],[-80.73034,8.64293],[-80.73092,8.6635],[-80.73779,8.67458],[-80.74984,8.67506],[-80.74914,8.68362],[-80.75676,8.69358],[-80.76051,8.70789],[-80.75513,8.7185],[-80.75123,8.71745],[-80.74898,8.72201],[-80.73008,8.72675],[-80.72518,8.73041],[-80.72917,8.73187],[-80.72806,8.73894],[-80.73425,8.74138],[-80.73369,8.74779],[-80.7381,8.74904],[-80.74256,8.75871],[-80.74895,8.75985],[-80.75308,8.76445],[-80.75257,8.7678],[-80.75582,8.76714],[-80.75547,8.77426],[-80.76017,8.77391],[-80.76192,8.77952],[-80.76584,8.77698],[-80.76864,8.78128],[-80.76647,8.78847],[-80.77387,8.79227],[-80.77637,8.79744],[-80.7795,8.79528],[-80.78572,8.79739],[-80.80279,8.79183],[-80.80689,8.80113],[-80.81284,8.79748],[-80.81775,8.80511],[-80.8215,8.80402],[-80.82992,8.8083],[-80.8315,8.81514],[-80.82539,8.81687],[-80.83104,8.82028],[-80.83603,8.81714],[-80.84297,8.8178],[-80.84496,8.8232],[-80.85182,8.82475],[-80.85248,8.83016],[-80.86092,8.83168],[-80.86777,8.84037],[-80.86475,8.84667],[-80.87519,8.85611],[-80.87025,8.87951],[-80.87169,8.88371],[-80.86684,8.8863],[-80.85223,8.8852],[-80.83988,8.88786],[-80.82354,8.8947],[-80.82093,8.90418],[-80.80867,8.91123],[-80.80676,8.91726],[-80.79966,8.91995],[-80.78551,8.94399],[-80.76637,8.95469],[-80.76077,8.96333],[-80.75941,8.97568],[-80.7313,8.99565],[-80.73093,8.99845],[-80.7255,8.99746],[-80.70264,9.00292],[-80.69658,9.0073],[-80.69405,9.02091],[-80.67444,9.02523],[-80.66919,9.03296],[-80.63876,9.05133],[-80.61216,9.06018],[-80.60907,9.065],[-80.60091,9.06689],[-80.59665,9.07187],[-80.58087,9.07854],[-80.5663,9.07868],[-80.56282,9.0856],[-80.55015,9.08831],[-80.54805,9.09331],[-80.53127,9.09945],[-80.52389,9.09557],[-80.53685,9.08118],[-80.52621,9.05483],[-80.52039,9.05383],[-80.51667,9.05686],[-80.5152,9.05384],[-80.50364,9.05883],[-80.4998,9.0657],[-80.49414,9.0641],[-80.49212,9.05844],[-80.48184,9.0568],[-80.48447,9.04186],[-80.49335,9.02835],[-80.49351,9.02574],[-80.48775,9.02722],[-80.49329,9.01612],[-80.49297,9.01036],[-80.48439,9.00553],[-80.47149,9.00577],[-80.4702,9.01283],[-80.4651,9.0122],[-80.46227,9.01526],[-80.46171,9.0121],[-80.45578,9.01852],[-80.45246,9.01721],[-80.45125,9.02261],[-80.44294,9.02374]]]}},{"type":"Feature","properties":{"corregimiento":"Miguel de La Borda (Cabecera)","distrito":"Donoso","provincia":"Colón","bbox":[-80.53679,9.00552,-80.21982,9.16779]},"geometry":{"type":"Polygon","coordinates":[[[-80.26849,9.16742],[-80.26652,9.162],[-80.26998,9.15766],[-80.26538,9.15371],[-80.2658,9.1446],[-80.25803,9.13727],[-80.24995,9.13653],[-80.24761,9.11885],[-80.24149,9.11792],[-80.23065,9.10577],[-80.22983,9.0927],[-80.22588,9.09078],[-80.23008,9.08731],[-80.23068,9.07624],[-80.21982,9.05671],[-80.23008,9.04799],[-80.2425,9.04427],[-80.24487,9.04115],[-80.24787,9.04068],[-80.25155,9.04749],[-80.26352,9.0456],[-80.2743,9.05325],[-80.27455,9.05975],[-80.28435,9.06347],[-80.28683,9.0682],[-80.29301,9.06888],[-80.29653,9.06101],[-80.30201,9.06035],[-80.30414,9.06535],[-80.31431,9.07003],[-80.31652,9.07406],[-80.32765,9.0724],[-80.32782,9.06945],[-80.33337,9.06875],[-80.33499,9.06564],[-80.34294,9.07777],[-80.34796,9.07223],[-80.35839,9.06982],[-80.35789,9.07392],[-80.36314,9.08011],[-80.37417,9.07233],[-80.38405,9.07134],[-80.38832,9.06678],[-80.38847,9.06165],[-80.39141,9.06263],[-80.39813,9.05855],[-80.40352,9.05974],[-80.41285,9.05521],[-80.41364,9.0491],[-80.42336,9.0451],[-80.41578,9.03761],[-80.41588,9.03402],[-80.43339,9.02886],[-80.43615,9.03096],[-80.4433,9.0267],[-80.44294,9.02374],[-80.45129,9.02259],[-80.45246,9.01721],[-80.45578,9.01852],[-80.46171,9.0121],[-80.46227,9.01526],[-80.4651,9.0122],[-80.47029,9.01277],[-80.47123,9.00587],[-80.48435,9.00552],[-80.4932,9.01066],[-80.48775,9.02722],[-80.49351,9.02574],[-80.48443,9.04197],[-80.48192,9.05693],[-80.49212,9.05844],[-80.49414,9.0641],[-80.4998,9.0657],[-80.50364,9.05883],[-80.5152,9.05384],[-80.51667,9.05686],[-80.52039,9.05383],[-80.52615,9.05479],[-80.53679,9.08092],[-80.52389,9.09557],[-80.53161,9.09975],[-80.53119,9.10417],[-80.50965,9.10841],[-80.49537,9.11725],[-80.47547,9.11484],[-80.4648,9.11685],[-80.46115,9.12094],[-80.46253,9.12314],[-80.45707,9.12529],[-80.44148,9.12538],[-80.43672,9.12897],[-80.42311,9.13117],[-80.40888,9.14391],[-80.35832,9.14362],[-80.35542,9.14817],[-80.33872,9.15521],[-80.32159,9.15805],[-80.29734,9.15542],[-80.28622,9.16165],[-80.28439,9.16779],[-80.26849,9.16742]]]}},{"type":"Feature","properties":{"corregimiento":"El Guásimo","distrito":"Donoso","provincia":"Colón","bbox":[-80.45602,8.89034,-80.21319,9.08011]},"geometry":{"type":"Polygon","coordinates":[[[-80.21982,9.05671],[-80.21319,9.05105],[-80.21948,9.04066],[-80.21586,9.03603],[-80.21509,9.02691],[-80.23939,8.9875],[-80.33693,8.89034],[-80.34304,8.91247],[-80.35471,8.91374],[-80.35959,8.91131],[-80.36521,8.91947],[-80.36315,8.92484],[-80.36848,8.92899],[-80.37142,8.94008],[-80.36817,8.94741],[-80.37007,8.95061],[-80.36273,8.95629],[-80.36971,8.95928],[-80.3695,8.9637],[-80.3757,8.9722],[-80.3848,8.96824],[-80.39391,8.95472],[-80.41788,8.95848],[-80.4329,8.98718],[-80.45602,8.98177],[-80.44518,8.99578],[-80.44421,9.00516],[-80.43677,9.00917],[-80.44541,9.0171],[-80.44305,9.01887],[-80.4433,9.0267],[-80.43606,9.03099],[-80.43339,9.02886],[-80.41588,9.03402],[-80.41578,9.03761],[-80.42336,9.0451],[-80.41364,9.0491],[-80.41285,9.05521],[-80.40352,9.05974],[-80.39813,9.05855],[-80.39141,9.06263],[-80.38847,9.06165],[-80.38832,9.06678],[-80.38405,9.07134],[-80.37417,9.07233],[-80.36314,9.08011],[-80.35789,9.07392],[-80.35839,9.06982],[-80.34796,9.07223],[-80.34294,9.07777],[-80.33499,9.06564],[-80.33337,9.06875],[-80.32782,9.06945],[-80.32765,9.0724],[-80.31652,9.07406],[-80.31431,9.07003],[-80.30414,9.06535],[-80.30201,9.06035],[-80.29653,9.06101],[-80.29301,9.06888],[-80.28683,9.0682],[-80.28435,9.06347],[-80.27455,9.05975],[-80.2727,9.05203],[-80.26073,9.04452],[-80.25131,9.0474],[-80.2476,9.04052],[-80.23035,9.04783],[-80.21982,9.05671]]]}},{"type":"Feature","properties":{"corregimiento":"Gobea","distrito":"Donoso","provincia":"Colón","bbox":[-80.26997,9.05286,-80.19813,9.18863]},"geometry":{"type":"Polygon","coordinates":[[[-80.20941,9.18863],[-80.21467,9.18201],[-80.21414,9.17575],[-80.20975,9.17337],[-80.21503,9.16582],[-80.21268,9.16088],[-80.2162,9.1558],[-80.21518,9.14979],[-80.20868,9.14431],[-80.20756,9.13621],[-80.21153,9.13006],[-80.21044,9.12222],[-80.21664,9.11764],[-80.2057,9.10507],[-80.19813,9.08234],[-80.20301,9.07995],[-80.2036,9.06841],[-80.21554,9.05286],[-80.22095,9.05772],[-80.22658,9.07241],[-80.23066,9.07615],[-80.23008,9.08731],[-80.22586,9.09044],[-80.22983,9.0927],[-80.23046,9.10547],[-80.24142,9.11787],[-80.24754,9.11873],[-80.24982,9.13634],[-80.25803,9.13727],[-80.26554,9.14427],[-80.26538,9.15371],[-80.26997,9.15782],[-80.26652,9.162],[-80.26849,9.16742],[-80.24739,9.17047],[-80.23824,9.18383],[-80.20941,9.18863]]]}},{"type":"Feature","properties":{"corregimiento":"Río Indio","distrito":"Donoso","provincia":"Colón","bbox":[-80.23944,8.97882,-80.18688,9.19493]},"geometry":{"type":"Polygon","coordinates":[[[-80.18832,9.19316],[-80.19503,9.17524],[-80.19853,9.15402],[-80.19119,9.15053],[-80.19792,9.14485],[-80.19163,9.13505],[-80.20039,9.12952],[-80.19692,9.12335],[-80.20411,9.11525],[-80.20441,9.10933],[-80.19478,9.09346],[-80.19657,9.08759],[-80.18688,9.08514],[-80.19434,9.07803],[-80.18704,9.07555],[-80.18932,9.07487],[-80.18745,9.06414],[-80.19933,9.05661],[-80.20578,9.0463],[-80.20369,9.03347],[-80.20718,9.02395],[-80.20459,9.01983],[-80.20954,9.01203],[-80.21026,9.00108],[-80.21409,8.99273],[-80.21805,8.99197],[-80.22121,8.9801],[-80.23109,8.97882],[-80.23368,8.98974],[-80.23944,8.98809],[-80.21525,9.0265],[-80.21898,9.04414],[-80.21343,9.0498],[-80.2143,9.05562],[-80.2036,9.06841],[-80.20301,9.07995],[-80.19813,9.08234],[-80.2057,9.10507],[-80.21664,9.11764],[-80.21044,9.12222],[-80.21153,9.13006],[-80.20751,9.13692],[-80.20868,9.14431],[-80.21236,9.14568],[-80.21615,9.15482],[-80.21268,9.16088],[-80.21503,9.16582],[-80.20975,9.17337],[-80.21414,9.17575],[-80.21467,9.18201],[-80.21217,9.1867],[-80.20111,9.19073],[-80.19824,9.19493],[-80.18832,9.19316]]]}}]}