{"type":"FeatureCollection","features":[{"type":"Feature","properties":{"corregimiento":"María Chiquita","distrito":"Portobelo","provincia":"Colón","bbox":[-79.8036,9.36545,-79.65252,9.45397]},"geometry":{"type":"Polygon","coordinates":[[[-79.74008,9.45397],[-79.73606,9.4493],[-79.7369,9.43944],[-79.73213,9.44181],[-79.73046,9.43871],[-79.73251,9.43398],[-79.72709,9.43194],[-79.73075,9.42828],[-79.72672,9.42829],[-79.72074,9.42179],[-79.71766,9.42398],[-79.71512,9.41852],[-79.70876,9.41838],[-79.70667,9.41296],[-79.69234,9.41966],[-79.69094,9.42924],[-79.68558,9.43056],[-79.679,9.4376],[-79.66612,9.4328],[-79.65415,9.43222],[-79.65252,9.3935],[-79.65632,9.38537],[-79.65396,9.38137],[-79.6559,9.37505],[-79.66178,9.36807],[-79.70777,9.36545],[-79.70741,9.36877],[-79.72435,9.38925],[-79.73424,9.38877],[-79.73835,9.39242],[-79.75024,9.38192],[-79.7533,9.38549],[-79.75716,9.3825],[-79.76083,9.3951],[-79.76507,9.39198],[-79.77056,9.39337],[-79.77005,9.39556],[-79.7806,9.39697],[-79.77936,9.40081],[-79.78898,9.40698],[-79.78926,9.4112],[-79.79519,9.41006],[-79.79734,9.41385],[-79.8036,9.41478],[-79.80097,9.42268],[-79.79465,9.42623],[-79.79762,9.42689],[-79.79676,9.43035],[-79.79043,9.42841],[-79.79138,9.4362],[-79.785,9.43558],[-79.78751,9.43814],[-79.78504,9.44149],[-79.78061,9.4402],[-79.77504,9.4434],[-79.77276,9.44094],[-79.77021,9.44503],[-79.74929,9.44434],[-79.74008,9.45397]]]}},{"type":"Feature","properties":{"corregimiento":"Portobelo (Cabecera)","distrito":"Portobelo","provincia":"Colón","bbox":[-79.74008,9.41307,-79.4993,9.59635]},"geometry":{"type":"Polygon","coordinates":[[[-79.59186,9.5503],[-79.56359,9.54319],[-79.55431,9.53768],[-79.53759,9.53798],[-79.52677,9.51967],[-79.52777,9.49939],[-79.53452,9.49101],[-79.52849,9.48556],[-79.51897,9.4955],[-79.5101,9.49558],[-79.50895,9.49187],[-79.4993,9.48749],[-79.49959,9.48442],[-79.50768,9.48363],[-79.5122,9.48646],[-79.51472,9.47864],[-79.52198,9.47846],[-79.527,9.47492],[-79.53284,9.47738],[-79.53666,9.47448],[-79.5361,9.46219],[-79.53965,9.46692],[-79.54637,9.46767],[-79.54879,9.47289],[-79.5624,9.47873],[-79.58719,9.46575],[-79.59408,9.47332],[-79.59793,9.47156],[-79.59483,9.46998],[-79.60235,9.45818],[-79.61354,9.45018],[-79.61182,9.44818],[-79.6151,9.44553],[-79.62014,9.45163],[-79.62684,9.44759],[-79.63008,9.44998],[-79.63217,9.44819],[-79.63227,9.45326],[-79.63892,9.44594],[-79.63871,9.45151],[-79.64286,9.45275],[-79.64578,9.45022],[-79.64645,9.45548],[-79.64901,9.45557],[-79.65154,9.44358],[-79.64239,9.43853],[-79.64763,9.43486],[-79.64769,9.43167],[-79.66612,9.4328],[-79.67888,9.43764],[-79.68558,9.43056],[-79.69094,9.42924],[-79.69226,9.41973],[-79.7043,9.41338],[-79.70687,9.41307],[-79.70926,9.41866],[-79.71536,9.41866],[-79.71766,9.42398],[-79.72074,9.42179],[-79.72672,9.42829],[-79.73075,9.42828],[-79.72709,9.43194],[-79.73251,9.43398],[-79.73046,9.43871],[-79.73213,9.44181],[-79.7369,9.43944],[-79.73606,9.4493],[-79.74008,9.45397],[-79.7353,9.46029],[-79.73752,9.46736],[-79.73469,9.47067],[-79.72569,9.46848],[-79.72681,9.47894],[-79.72462,9.48395],[-79.72073,9.4811],[-79.71877,9.48575],[-79.71176,9.48566],[-79.70415,9.49567],[-79.69913,9.49597],[-79.69186,9.50178],[-79.6928,9.51052],[-79.68688,9.51689],[-79.68788,9.52177],[-79.68083,9.52881],[-79.6688,9.53384],[-79.67941,9.5449],[-79.65437,9.55621],[-79.65753,9.56196],[-79.65314,9.56274],[-79.65319,9.56755],[-79.64619,9.57416],[-79.64727,9.57551],[-79.64886,9.57515],[-79.64904,9.57266],[-79.65346,9.56779],[-79.65417,9.5646],[-79.6596,9.56884],[-79.65852,9.56295],[-79.67216,9.55726],[-79.67684,9.55736],[-79.68258,9.56259],[-79.68173,9.56687],[-79.67809,9.56402],[-79.67304,9.57129],[-79.66744,9.57226],[-79.66867,9.57785],[-79.66327,9.57928],[-79.66439,9.58393],[-79.66045,9.58245],[-79.65512,9.58542],[-79.64653,9.57523],[-79.63344,9.58489],[-79.61634,9.58817],[-79.60937,9.59635],[-79.60274,9.58622],[-79.58633,9.58707],[-79.5912,9.58312],[-79.59322,9.57028],[-79.59946,9.56771],[-79.59186,9.5503]]]}},{"type":"Feature","properties":{"corregimiento":"Cacique","distrito":"Portobelo","provincia":"Colón","bbox":[-79.65619,9.57523,-79.6066,9.6172]},"geometry":{"type":"Polygon","coordinates":[[[-79.60857,9.60896],[-79.6066,9.60004],[-79.61659,9.58803],[-79.63344,9.58489],[-79.64653,9.57523],[-79.65619,9.58564],[-79.65284,9.58892],[-79.65604,9.59363],[-79.64664,9.58993],[-79.64355,9.59595],[-79.63411,9.60023],[-79.63642,9.60834],[-79.62758,9.61062],[-79.6242,9.61551],[-79.61917,9.6172],[-79.61299,9.61007],[-79.60857,9.60896]]]}},{"type":"Feature","properties":{"corregimiento":"Puerto Lindo o Garrote","distrito":"Portobelo","provincia":"Colón","bbox":[-79.60937,9.5474,-79.56032,9.61994]},"geometry":{"type":"Polygon","coordinates":[[[-79.57303,9.61994],[-79.57341,9.60305],[-79.56521,9.60296],[-79.56097,9.57415],[-79.56336,9.56916],[-79.56032,9.56376],[-79.57916,9.55874],[-79.58213,9.5474],[-79.59186,9.5503],[-79.59946,9.56771],[-79.59322,9.57028],[-79.5912,9.58312],[-79.58633,9.58707],[-79.60274,9.58622],[-79.60937,9.59635],[-79.60618,9.60191],[-79.60907,9.6075],[-79.60491,9.61064],[-79.60696,9.61353],[-79.60112,9.61475],[-79.5967,9.60981],[-79.60067,9.60989],[-79.59114,9.60865],[-79.58741,9.60392],[-79.58525,9.61047],[-79.58017,9.61192],[-79.57303,9.61994]]]}},{"type":"Feature","properties":{"corregimiento":"Isla Grande","distrito":"Portobelo","provincia":"Colón","bbox":[-79.57341,9.55866,-79.52109,9.63403]},"geometry":{"type":"Polygon","coordinates":[[[-79.52109,9.57786],[-79.52849,9.57643],[-79.53427,9.56964],[-79.54318,9.56997],[-79.54437,9.56502],[-79.55098,9.55866],[-79.5579,9.56072],[-79.56336,9.56916],[-79.56097,9.57415],[-79.56521,9.60296],[-79.57341,9.60305],[-79.57303,9.61994],[-79.56492,9.61542],[-79.56036,9.62632],[-79.53878,9.63403],[-79.54201,9.62515],[-79.53754,9.6231],[-79.53901,9.61738],[-79.52834,9.61447],[-79.53091,9.60755],[-79.52312,9.60847],[-79.53455,9.60419],[-79.53721,9.59794],[-79.54226,9.59802],[-79.54375,9.59335],[-79.52756,9.59197],[-79.52819,9.58614],[-79.52433,9.58454],[-79.52484,9.58028],[-79.52109,9.57786]]]}}]}