{"type":"FeatureCollection","features":[{"type":"Feature","properties":{"corregimiento":"Palenque (Cabecera)","distrito":"Santa Isabel","provincia":"Colón","bbox":[-79.41885,9.40109,-79.34256,9.58184]},"geometry":{"type":"Polygon","coordinates":[[[-79.35482,9.57389],[-79.35836,9.56987],[-79.35922,9.55979],[-79.36688,9.55115],[-79.36661,9.54934],[-79.3641,9.54931],[-79.36193,9.55592],[-79.35486,9.55175],[-79.34731,9.55175],[-79.3499,9.53706],[-79.34744,9.51703],[-79.36003,9.51875],[-79.35459,9.50069],[-79.35508,9.49281],[-79.35095,9.49056],[-79.35445,9.48145],[-79.34256,9.48004],[-79.34604,9.47811],[-79.34301,9.47649],[-79.34638,9.46914],[-79.34455,9.4671],[-79.34789,9.46683],[-79.34941,9.46024],[-79.35263,9.46184],[-79.35283,9.45874],[-79.357,9.45849],[-79.35491,9.449],[-79.36179,9.44062],[-79.36797,9.43895],[-79.36819,9.42847],[-79.37973,9.42708],[-79.39999,9.41306],[-79.41268,9.40955],[-79.41777,9.40109],[-79.41885,9.41146],[-79.40863,9.41462],[-79.39461,9.42494],[-79.39568,9.44219],[-79.40105,9.45239],[-79.39618,9.46018],[-79.40966,9.47166],[-79.40663,9.47816],[-79.39754,9.48349],[-79.39778,9.49049],[-79.39257,9.49056],[-79.38377,9.5036],[-79.38899,9.52505],[-79.38695,9.52827],[-79.38953,9.5301],[-79.38268,9.54053],[-79.38592,9.54175],[-79.38398,9.54318],[-79.38647,9.54815],[-79.38368,9.54742],[-79.38304,9.5517],[-79.38031,9.55072],[-79.37606,9.55428],[-79.37967,9.55758],[-79.37768,9.56447],[-79.3824,9.56993],[-79.38324,9.57705],[-79.37743,9.58184],[-79.37538,9.57749],[-79.35482,9.57389]]]}},{"type":"Feature","properties":{"corregimiento":"Cuango","distrito":"Santa Isabel","provincia":"Colón","bbox":[-79.35958,9.47994,-79.28129,9.57325]},"geometry":{"type":"Polygon","coordinates":[[[-79.30798,9.56776],[-79.31283,9.55752],[-79.30686,9.5493],[-79.30712,9.54421],[-79.30227,9.54144],[-79.29789,9.54387],[-79.29484,9.53338],[-79.28928,9.53254],[-79.28408,9.52562],[-79.28129,9.51239],[-79.29163,9.50759],[-79.29253,9.50078],[-79.29858,9.49944],[-79.29916,9.49445],[-79.30739,9.49271],[-79.3089,9.49664],[-79.31057,9.49378],[-79.31741,9.49236],[-79.31555,9.48844],[-79.33016,9.48337],[-79.33169,9.47994],[-79.35389,9.48086],[-79.35095,9.49056],[-79.35508,9.49281],[-79.35958,9.52041],[-79.34744,9.51703],[-79.34113,9.53523],[-79.32388,9.55377],[-79.32656,9.55783],[-79.32485,9.56389],[-79.31563,9.57325],[-79.30798,9.56776]]]}},{"type":"Feature","properties":{"corregimiento":"Miramar","distrito":"Santa Isabel","provincia":"Colón","bbox":[-79.36661,9.51703,-79.31563,9.58074]},"geometry":{"type":"Polygon","coordinates":[[[-79.31563,9.57325],[-79.32619,9.56173],[-79.32388,9.55377],[-79.34113,9.53523],[-79.34744,9.51703],[-79.3499,9.53706],[-79.34731,9.55175],[-79.35486,9.55175],[-79.36207,9.55592],[-79.3641,9.54931],[-79.36661,9.54934],[-79.36614,9.55444],[-79.35916,9.55991],[-79.35735,9.57215],[-79.35144,9.57637],[-79.34827,9.57559],[-79.34846,9.5796],[-79.33729,9.57558],[-79.32637,9.58074],[-79.31563,9.57325]]]}},{"type":"Feature","properties":{"corregimiento":"Nombre de Dios","distrito":"Santa Isabel","provincia":"Colón","bbox":[-79.58213,9.47696,-79.41171,9.60452]},"geometry":{"type":"Polygon","coordinates":[[[-79.41727,9.58742],[-79.41643,9.57735],[-79.42626,9.57315],[-79.4209,9.5615],[-79.41816,9.56091],[-79.41929,9.55418],[-79.4245,9.54803],[-79.42327,9.54508],[-79.41645,9.54329],[-79.41278,9.53716],[-79.41525,9.53057],[-79.41171,9.52232],[-79.41276,9.49958],[-79.42783,9.49775],[-79.43109,9.49168],[-79.43885,9.49761],[-79.44339,9.49437],[-79.45293,9.49946],[-79.46078,9.49725],[-79.46475,9.49478],[-79.46568,9.49003],[-79.46958,9.49176],[-79.4834,9.4829],[-79.48538,9.47696],[-79.49835,9.48054],[-79.49898,9.4872],[-79.50895,9.49187],[-79.5101,9.49558],[-79.51897,9.4955],[-79.52849,9.48556],[-79.53452,9.49101],[-79.52777,9.49939],[-79.52677,9.51967],[-79.53759,9.53798],[-79.55431,9.53768],[-79.56359,9.54319],[-79.58213,9.5474],[-79.57905,9.55881],[-79.56928,9.55993],[-79.56182,9.56423],[-79.55098,9.55866],[-79.54437,9.56502],[-79.54318,9.56997],[-79.53427,9.56964],[-79.52849,9.57643],[-79.51983,9.57824],[-79.51778,9.58686],[-79.51239,9.59098],[-79.50634,9.59237],[-79.49232,9.58723],[-79.4809,9.59128],[-79.47714,9.59015],[-79.47955,9.58737],[-79.47777,9.58366],[-79.47002,9.58356],[-79.46669,9.59025],[-79.46988,9.59315],[-79.46316,9.59834],[-79.46099,9.60452],[-79.45437,9.59754],[-79.45045,9.59977],[-79.44143,9.59826],[-79.43913,9.60381],[-79.43011,9.58704],[-79.41727,9.58742]]]}},{"type":"Feature","properties":{"corregimiento":"Palmira","distrito":"Santa Isabel","provincia":"Colón","bbox":[-79.27407,9.34412,-79.14582,9.55901]},"geometry":{"type":"Polygon","coordinates":[[[-79.19812,9.54012],[-79.18934,9.53303],[-79.1901,9.52951],[-79.1864,9.53085],[-79.18466,9.5286],[-79.18287,9.52455],[-79.18616,9.52105],[-79.18149,9.51666],[-79.18573,9.50954],[-79.18307,9.50754],[-79.18218,9.49202],[-79.18576,9.48974],[-79.18523,9.47977],[-79.192,9.4718],[-79.18303,9.46283],[-79.18536,9.45541],[-79.1907,9.4513],[-79.18541,9.44298],[-79.18791,9.44074],[-79.17835,9.43567],[-79.17965,9.43221],[-79.17516,9.42939],[-79.16734,9.42911],[-79.16428,9.43319],[-79.14803,9.43088],[-79.14669,9.42778],[-79.1505,9.42446],[-79.14582,9.42065],[-79.14944,9.41791],[-79.15268,9.40595],[-79.15843,9.39769],[-79.15867,9.38677],[-79.16769,9.38224],[-79.16789,9.37982],[-79.17151,9.37903],[-79.1728,9.38138],[-79.17662,9.37849],[-79.17588,9.38094],[-79.18079,9.38191],[-79.18541,9.37983],[-79.18545,9.38347],[-79.19742,9.37986],[-79.20452,9.3739],[-79.21381,9.37161],[-79.22184,9.36173],[-79.22688,9.36462],[-79.22955,9.36187],[-79.23479,9.36274],[-79.24097,9.35415],[-79.24792,9.35208],[-79.24884,9.34844],[-79.25594,9.34412],[-79.25502,9.35095],[-79.24782,9.35971],[-79.24413,9.37948],[-79.25007,9.3834],[-79.25496,9.39276],[-79.26635,9.39364],[-79.26786,9.39894],[-79.27407,9.40223],[-79.26353,9.42222],[-79.26716,9.42409],[-79.26963,9.44023],[-79.26259,9.45617],[-79.25292,9.45566],[-79.25364,9.46634],[-79.24597,9.46631],[-79.24441,9.47218],[-79.2404,9.47263],[-79.2346,9.48227],[-79.23664,9.48801],[-79.24706,9.49611],[-79.24745,9.49936],[-79.24933,9.49691],[-79.25398,9.50211],[-79.25749,9.5031],[-79.25922,9.5005],[-79.26306,9.50264],[-79.2623,9.52892],[-79.26544,9.53026],[-79.26902,9.53984],[-79.26475,9.54349],[-79.26362,9.55901],[-79.22992,9.54511],[-79.21764,9.54541],[-79.21405,9.55009],[-79.21211,9.54403],[-79.19812,9.54012]]]}},{"type":"Feature","properties":{"corregimiento":"Playa Chiquita","distrito":"Santa Isabel","provincia":"Colón","bbox":[-79.41447,9.40459,-79.2346,9.57048]},"geometry":{"type":"Polygon","coordinates":[[[-79.26331,9.55697],[-79.26604,9.54972],[-79.26479,9.54335],[-79.26902,9.53984],[-79.26544,9.53026],[-79.2623,9.52892],[-79.26306,9.50264],[-79.25922,9.5005],[-79.25749,9.5031],[-79.25398,9.50211],[-79.24933,9.49691],[-79.24745,9.49936],[-79.24706,9.49611],[-79.23664,9.48801],[-79.2346,9.48213],[-79.2404,9.47263],[-79.24441,9.47218],[-79.24597,9.46631],[-79.25364,9.46634],[-79.25292,9.45566],[-79.26185,9.4566],[-79.26522,9.45293],[-79.26553,9.44512],[-79.26963,9.44023],[-79.26716,9.42409],[-79.27295,9.42395],[-79.28086,9.41793],[-79.28614,9.42121],[-79.28797,9.42726],[-79.29911,9.43035],[-79.30018,9.43652],[-79.30498,9.44125],[-79.31939,9.44179],[-79.32599,9.43536],[-79.32562,9.42766],[-79.33068,9.42404],[-79.33639,9.42423],[-79.3389,9.41618],[-79.34871,9.40944],[-79.35782,9.41192],[-79.36006,9.41999],[-79.36942,9.42156],[-79.37823,9.41736],[-79.38448,9.40722],[-79.40601,9.40863],[-79.41447,9.40459],[-79.41268,9.40955],[-79.39999,9.41306],[-79.37973,9.42708],[-79.36819,9.42847],[-79.36797,9.43895],[-79.36179,9.44062],[-79.35491,9.449],[-79.357,9.45849],[-79.35283,9.45874],[-79.35263,9.46184],[-79.34941,9.46024],[-79.34789,9.46683],[-79.34455,9.4671],[-79.34638,9.46914],[-79.34299,9.47633],[-79.3455,9.47897],[-79.33439,9.4817],[-79.33169,9.47994],[-79.33016,9.48337],[-79.31555,9.48844],[-79.31741,9.49236],[-79.31057,9.49378],[-79.30884,9.49667],[-79.30769,9.49281],[-79.30088,9.49335],[-79.29852,9.49948],[-79.29319,9.49967],[-79.29163,9.50759],[-79.28129,9.51239],[-79.28408,9.52562],[-79.28928,9.53254],[-79.29484,9.53338],[-79.29789,9.54387],[-79.30227,9.54144],[-79.30712,9.54421],[-79.30686,9.5493],[-79.31283,9.55752],[-79.30798,9.56776],[-79.29715,9.56386],[-79.29232,9.5669],[-79.29345,9.57048],[-79.28484,9.56591],[-79.28093,9.56889],[-79.26331,9.55697]]]}},{"type":"Feature","properties":{"corregimiento":"Santa Isabel","distrito":"Santa Isabel","provincia":"Colón","bbox":[-79.19812,9.42909,-79.08086,9.56161]},"geometry":{"type":"Polygon","coordinates":[[[-79.08086,9.55789],[-79.08202,9.46708],[-79.09054,9.46742],[-79.09278,9.47004],[-79.08976,9.47231],[-79.09059,9.47646],[-79.09419,9.4741],[-79.0931,9.47673],[-79.09662,9.47788],[-79.09533,9.47433],[-79.10892,9.4725],[-79.108,9.46885],[-79.11954,9.46359],[-79.12141,9.45911],[-79.1287,9.45891],[-79.13263,9.44959],[-79.13582,9.44974],[-79.13872,9.4422],[-79.14466,9.43829],[-79.14511,9.43205],[-79.16428,9.43319],[-79.16744,9.42909],[-79.17908,9.43135],[-79.17835,9.43567],[-79.18791,9.44074],[-79.18541,9.44298],[-79.19071,9.45111],[-79.18536,9.45541],[-79.18303,9.46283],[-79.192,9.4718],[-79.18523,9.47977],[-79.18576,9.48974],[-79.18218,9.49202],[-79.18307,9.50754],[-79.18573,9.50954],[-79.18149,9.51666],[-79.18617,9.52123],[-79.18285,9.52521],[-79.18636,9.53084],[-79.19013,9.52954],[-79.18934,9.53303],[-79.19812,9.54012],[-79.19087,9.54194],[-79.17512,9.5556],[-79.16873,9.55727],[-79.15565,9.55082],[-79.15698,9.54697],[-79.16296,9.54518],[-79.1576,9.5407],[-79.156,9.54547],[-79.15007,9.54901],[-79.15435,9.55593],[-79.14947,9.55561],[-79.15037,9.55808],[-79.14274,9.56161],[-79.12768,9.55391],[-79.11765,9.55777],[-79.10417,9.55596],[-79.08829,9.56139],[-79.08086,9.55789]]]}},{"type":"Feature","properties":{"corregimiento":"Viento Frío","distrito":"Santa Isabel","provincia":"Colón","bbox":[-79.42626,9.49049,-79.37606,9.58483]},"geometry":{"type":"Polygon","coordinates":[[[-79.38302,9.57728],[-79.3824,9.56993],[-79.37768,9.56447],[-79.37967,9.55758],[-79.37606,9.55428],[-79.38031,9.55072],[-79.38304,9.5517],[-79.38368,9.54742],[-79.38647,9.54815],[-79.38398,9.54318],[-79.38592,9.54175],[-79.38268,9.54053],[-79.38953,9.5301],[-79.38695,9.52827],[-79.38899,9.52505],[-79.38375,9.50369],[-79.39257,9.49056],[-79.39778,9.49049],[-79.3993,9.49448],[-79.41276,9.49958],[-79.41171,9.52232],[-79.41525,9.53057],[-79.41278,9.53716],[-79.41645,9.54329],[-79.42327,9.54508],[-79.4245,9.54803],[-79.41929,9.55418],[-79.41816,9.56091],[-79.4209,9.5615],[-79.42626,9.57315],[-79.41643,9.57735],[-79.41566,9.58483],[-79.39436,9.58301],[-79.38302,9.57728]]]}}]}