{"type":"FeatureCollection","features":[{"type":"Feature","properties":{"corregimiento":"San José  del General (Cabecera)","distrito":"Omar Torrijos Herrera","provincia":"Colón","bbox":[-80.59744,8.78975,-80.54076,8.94392]},"geometry":{"type":"Polygon","coordinates":[[[-80.54931,8.93411],[-80.54966,8.92534],[-80.54365,8.92038],[-80.54793,8.91667],[-80.54777,8.90993],[-80.55344,8.90725],[-80.5509,8.89546],[-80.5564,8.89406],[-80.55253,8.88743],[-80.5589,8.88766],[-80.56191,8.88462],[-80.56069,8.87994],[-80.55609,8.87712],[-80.55627,8.87204],[-80.5459,8.87777],[-80.55012,8.86622],[-80.5426,8.86308],[-80.54622,8.85968],[-80.54291,8.8468],[-80.54616,8.83971],[-80.54273,8.83642],[-80.54445,8.82912],[-80.54076,8.81732],[-80.54799,8.8113],[-80.54942,8.80576],[-80.55379,8.80824],[-80.55634,8.80505],[-80.55139,8.80188],[-80.5535,8.79947],[-80.54824,8.79295],[-80.54878,8.78975],[-80.55483,8.79348],[-80.56524,8.79083],[-80.58387,8.80485],[-80.58408,8.80952],[-80.58848,8.81056],[-80.57069,8.8287],[-80.59067,8.89477],[-80.58765,8.90405],[-80.59531,8.91603],[-80.59176,8.92629],[-80.59622,8.92918],[-80.59744,8.93459],[-80.5873,8.94392],[-80.5616,8.94133],[-80.55424,8.93406],[-80.55193,8.93606],[-80.54931,8.93411]]]}},{"type":"Feature","properties":{"corregimiento":"Nueva Esperanza","distrito":"Omar Torrijos Herrera","provincia":"Colón","bbox":[-80.65587,8.81066,-80.57069,8.96907]},"geometry":{"type":"Polygon","coordinates":[[[-80.59701,8.93709],[-80.59622,8.92918],[-80.59175,8.92617],[-80.59531,8.91603],[-80.58731,8.90202],[-80.59065,8.89469],[-80.57069,8.8287],[-80.58838,8.81066],[-80.59174,8.82344],[-80.60102,8.83211],[-80.60693,8.83285],[-80.60914,8.83587],[-80.61139,8.83424],[-80.61237,8.8404],[-80.61898,8.83333],[-80.62984,8.82845],[-80.64003,8.86774],[-80.6378,8.86919],[-80.63852,8.87857],[-80.63472,8.88154],[-80.63545,8.89194],[-80.62991,8.89731],[-80.63228,8.89838],[-80.63069,8.90154],[-80.6333,8.90932],[-80.62988,8.91485],[-80.63855,8.92979],[-80.64124,8.94757],[-80.65275,8.94917],[-80.64968,8.95417],[-80.6521,8.95346],[-80.65587,8.95854],[-80.65117,8.95772],[-80.64389,8.96419],[-80.63564,8.96403],[-80.63147,8.96907],[-80.62803,8.96867],[-80.62199,8.95984],[-80.61779,8.96239],[-80.60581,8.95362],[-80.60221,8.94267],[-80.59791,8.93938],[-80.59976,8.93688],[-80.59701,8.93709]]]}},{"type":"Feature","properties":{"corregimiento":"San Juan de Turbe","distrito":"Omar Torrijos Herrera","provincia":"Colón","bbox":[-80.67678,8.77574,-80.56524,8.85549]},"geometry":{"type":"Polygon","coordinates":[[[-80.58838,8.81066],[-80.58408,8.80952],[-80.58387,8.80485],[-80.56524,8.79083],[-80.62384,8.77574],[-80.62573,8.78264],[-80.62182,8.78417],[-80.62425,8.78719],[-80.63149,8.78294],[-80.63376,8.78705],[-80.64186,8.78435],[-80.64545,8.78768],[-80.64851,8.78455],[-80.65182,8.78955],[-80.6535,8.78636],[-80.66947,8.79111],[-80.67678,8.81149],[-80.67082,8.81556],[-80.66725,8.81468],[-80.67013,8.82093],[-80.63725,8.85549],[-80.62984,8.82845],[-80.61898,8.83333],[-80.61237,8.8404],[-80.61139,8.83424],[-80.60914,8.83587],[-80.60693,8.83285],[-80.60102,8.83211],[-80.59174,8.82344],[-80.58838,8.81066]]]}}]}