{"type":"FeatureCollection","features":[{"type":"Feature","properties":{"corregimiento":"Guarumal","distrito":"Alanje","provincia":"Chiriquí","bbox":[-82.58796,8.27009,-82.4554,8.39547]},"geometry":{"type":"Polygon","coordinates":[[[-82.55211,8.386],[-82.54533,8.38205],[-82.54102,8.38377],[-82.54558,8.37604],[-82.53942,8.37913],[-82.53896,8.37591],[-82.5352,8.37646],[-82.5356,8.372],[-82.51715,8.36086],[-82.5171,8.34751],[-82.51428,8.34347],[-82.51803,8.3355],[-82.50845,8.33266],[-82.512,8.32255],[-82.50963,8.32118],[-82.50753,8.32356],[-82.50498,8.32038],[-82.50166,8.32264],[-82.50273,8.31922],[-82.50001,8.3213],[-82.4978,8.3172],[-82.5006,8.31452],[-82.50241,8.31742],[-82.5076,8.31508],[-82.50278,8.31306],[-82.50906,8.30793],[-82.50099,8.30976],[-82.50119,8.29863],[-82.48028,8.2962],[-82.46981,8.31477],[-82.46459,8.31303],[-82.4591,8.30649],[-82.46049,8.30466],[-82.4554,8.29415],[-82.47515,8.28158],[-82.47369,8.27504],[-82.47284,8.27849],[-82.47222,8.27591],[-82.47,8.27894],[-82.4681,8.27596],[-82.48049,8.27009],[-82.49139,8.27175],[-82.53982,8.2913],[-82.58767,8.3059],[-82.58796,8.31397],[-82.58435,8.31798],[-82.58645,8.33015],[-82.57558,8.35735],[-82.58067,8.37561],[-82.57834,8.38168],[-82.58547,8.39147],[-82.58148,8.39258],[-82.5704,8.38557],[-82.5566,8.39547],[-82.55211,8.386]]]}},{"type":"Feature","properties":{"corregimiento":"Palo Grande","distrito":"Alanje","provincia":"Chiriquí","bbox":[-82.65039,8.3059,-82.57558,8.39769]},"geometry":{"type":"Polygon","coordinates":[[[-82.58898,8.39769],[-82.57834,8.38168],[-82.58067,8.37561],[-82.57558,8.35735],[-82.58645,8.33015],[-82.58435,8.31798],[-82.58796,8.31397],[-82.58767,8.3059],[-82.64734,8.32464],[-82.65039,8.32897],[-82.6484,8.33135],[-82.63253,8.3261],[-82.62807,8.3485],[-82.62135,8.3535],[-82.60173,8.39297],[-82.58898,8.39769]]]}},{"type":"Feature","properties":{"corregimiento":"Querévalo","distrito":"Alanje","provincia":"Chiriquí","bbox":[-82.53586,8.29566,-82.46844,8.40295]},"geometry":{"type":"Polygon","coordinates":[[[-82.46903,8.31485],[-82.47374,8.31141],[-82.47766,8.29879],[-82.48184,8.29566],[-82.501,8.29848],[-82.50118,8.30989],[-82.50888,8.30716],[-82.50278,8.31306],[-82.5076,8.31508],[-82.50241,8.31742],[-82.5006,8.31452],[-82.4978,8.3172],[-82.50001,8.3213],[-82.50273,8.31922],[-82.50166,8.32264],[-82.50498,8.32038],[-82.50753,8.32356],[-82.50963,8.32118],[-82.512,8.32255],[-82.50845,8.33266],[-82.51803,8.3355],[-82.51428,8.34347],[-82.5171,8.34751],[-82.51715,8.36086],[-82.53586,8.37232],[-82.53474,8.38532],[-82.52958,8.38787],[-82.53388,8.3924],[-82.5345,8.40081],[-82.51549,8.40295],[-82.51024,8.40045],[-82.5116,8.39683],[-82.50698,8.3892],[-82.5065,8.36503],[-82.50044,8.36124],[-82.49037,8.36198],[-82.48959,8.34944],[-82.48365,8.35054],[-82.47922,8.34309],[-82.47341,8.34168],[-82.47981,8.33115],[-82.47409,8.32682],[-82.47749,8.32363],[-82.47388,8.31949],[-82.46844,8.32071],[-82.46903,8.31485]]]}},{"type":"Feature","properties":{"corregimiento":"Santo Tomás","distrito":"Alanje","provincia":"Chiriquí","bbox":[-82.69358,8.32845,-82.62345,8.45901]},"geometry":{"type":"Polygon","coordinates":[[[-82.62345,8.45014],[-82.62807,8.42157],[-82.62437,8.41318],[-82.62649,8.40313],[-82.62358,8.39443],[-82.62697,8.39035],[-82.62876,8.37076],[-82.63389,8.36557],[-82.63655,8.36689],[-82.63739,8.36139],[-82.64744,8.35721],[-82.65978,8.34032],[-82.66675,8.3374],[-82.66672,8.32845],[-82.68718,8.33274],[-82.68423,8.33752],[-82.68686,8.33789],[-82.68843,8.33423],[-82.68914,8.33743],[-82.69313,8.33714],[-82.68964,8.33897],[-82.69251,8.34087],[-82.69165,8.34357],[-82.68886,8.344],[-82.69198,8.34668],[-82.68965,8.34774],[-82.69358,8.37998],[-82.68577,8.37769],[-82.6821,8.38104],[-82.68386,8.38451],[-82.67897,8.38754],[-82.66723,8.3825],[-82.66092,8.38886],[-82.65598,8.38861],[-82.65706,8.39353],[-82.65118,8.39898],[-82.65111,8.40382],[-82.64817,8.40181],[-82.64072,8.41364],[-82.66509,8.42799],[-82.6649,8.43695],[-82.65976,8.44201],[-82.65634,8.45122],[-82.65984,8.45562],[-82.6478,8.45901],[-82.63102,8.4565],[-82.62345,8.45014]]]}},{"type":"Feature","properties":{"corregimiento":"Canta Gallo","distrito":"Alanje","provincia":"Chiriquí","bbox":[-82.66675,8.32464,-82.58508,8.44453]},"geometry":{"type":"Polygon","coordinates":[[[-82.59068,8.43212],[-82.59293,8.42336],[-82.58508,8.39644],[-82.58898,8.39769],[-82.60173,8.39297],[-82.62135,8.3535],[-82.62807,8.3485],[-82.63253,8.3261],[-82.64828,8.33137],[-82.65039,8.32897],[-82.64734,8.32464],[-82.66672,8.32845],[-82.66675,8.3374],[-82.65972,8.34038],[-82.64744,8.35721],[-82.63726,8.36149],[-82.63661,8.36681],[-82.63382,8.36563],[-82.62718,8.37426],[-82.62697,8.39035],[-82.62358,8.39443],[-82.62648,8.40301],[-82.62436,8.41296],[-82.62804,8.4195],[-82.62783,8.43185],[-82.62402,8.43697],[-82.62447,8.44453],[-82.61448,8.43586],[-82.59891,8.43063],[-82.59068,8.43212]]]}},{"type":"Feature","properties":{"corregimiento":"Alanje (Cabecera)","distrito":"Alanje","provincia":"Chiriquí","bbox":[-82.59326,8.37573,-82.52567,8.43212]},"geometry":{"type":"Polygon","coordinates":[[[-82.52567,8.41817],[-82.52634,8.40527],[-82.53542,8.39872],[-82.52959,8.3878],[-82.53474,8.38532],[-82.5353,8.37655],[-82.53896,8.37591],[-82.54023,8.37935],[-82.54492,8.37573],[-82.54607,8.37811],[-82.54073,8.38345],[-82.54533,8.38205],[-82.55154,8.38504],[-82.55626,8.39538],[-82.5704,8.38557],[-82.58778,8.3952],[-82.58508,8.39644],[-82.58737,8.39992],[-82.58562,8.40088],[-82.59326,8.42573],[-82.59068,8.43212],[-82.58595,8.43212],[-82.57626,8.41781],[-82.564,8.41013],[-82.52567,8.41817]]]}},{"type":"Feature","properties":{"corregimiento":"Divalá","distrito":"Alanje","provincia":"Chiriquí","bbox":[-82.72458,8.32737,-82.64072,8.46338]},"geometry":{"type":"Polygon","coordinates":[[[-82.65873,8.45636],[-82.65634,8.45122],[-82.65976,8.44201],[-82.6649,8.43695],[-82.66509,8.42799],[-82.64072,8.41364],[-82.64817,8.40181],[-82.65111,8.40382],[-82.65118,8.39898],[-82.65706,8.39353],[-82.65598,8.38861],[-82.66092,8.38886],[-82.66723,8.3825],[-82.67906,8.38751],[-82.68386,8.38451],[-82.6821,8.38104],[-82.68577,8.37769],[-82.6935,8.38009],[-82.68965,8.34774],[-82.69198,8.34668],[-82.68886,8.344],[-82.69165,8.34357],[-82.69251,8.34087],[-82.68964,8.33897],[-82.69313,8.33714],[-82.68914,8.33743],[-82.68843,8.33423],[-82.68677,8.33796],[-82.68403,8.33706],[-82.68899,8.32983],[-82.69971,8.32737],[-82.70887,8.339],[-82.70775,8.34734],[-82.71435,8.34625],[-82.71485,8.35514],[-82.70955,8.35715],[-82.71354,8.36084],[-82.71057,8.37012],[-82.71406,8.37574],[-82.71261,8.38029],[-82.71597,8.38046],[-82.72208,8.38821],[-82.71678,8.40242],[-82.72458,8.41127],[-82.70873,8.42651],[-82.70736,8.42194],[-82.69931,8.42814],[-82.7014,8.43014],[-82.69827,8.43398],[-82.699,8.43931],[-82.69452,8.44255],[-82.6921,8.45044],[-82.68589,8.44936],[-82.68514,8.45844],[-82.67249,8.46338],[-82.66178,8.45562],[-82.65873,8.45636]]]}},{"type":"Feature","properties":{"corregimiento":"El Tejar","distrito":"Alanje","provincia":"Chiriquí","bbox":[-82.62447,8.41035,-82.52548,8.4559]},"geometry":{"type":"Polygon","coordinates":[[[-82.58266,8.4559],[-82.53452,8.45341],[-82.52548,8.42804],[-82.52614,8.41742],[-82.56548,8.41035],[-82.58126,8.42308],[-82.5859,8.43209],[-82.59891,8.43063],[-82.61475,8.436],[-82.62447,8.44453],[-82.62323,8.4477],[-82.58266,8.4559]]]}},{"type":"Feature","properties":{"corregimiento":"Nuevo México","distrito":"Alanje","provincia":"Chiriquí","bbox":[-82.79892,8.34442,-82.69195,8.4585]},"geometry":{"type":"Polygon","coordinates":[[[-82.72401,8.4585],[-82.7003,8.45426],[-82.70023,8.44838],[-82.69256,8.4497],[-82.69195,8.44743],[-82.699,8.43931],[-82.69827,8.43398],[-82.7014,8.43014],[-82.69931,8.42814],[-82.70736,8.42194],[-82.70873,8.42651],[-82.72458,8.41127],[-82.71678,8.40242],[-82.72208,8.38821],[-82.71597,8.38046],[-82.71261,8.38029],[-82.71406,8.37574],[-82.71057,8.37012],[-82.71354,8.36084],[-82.70959,8.35693],[-82.71405,8.3568],[-82.71572,8.35253],[-82.71287,8.34553],[-82.7158,8.34442],[-82.71892,8.3467],[-82.7197,8.35323],[-82.72842,8.35471],[-82.73466,8.36128],[-82.74043,8.36189],[-82.73886,8.36677],[-82.75527,8.37041],[-82.75961,8.3807],[-82.77347,8.38431],[-82.77299,8.39879],[-82.7783,8.40034],[-82.77419,8.4064],[-82.778,8.40638],[-82.77794,8.41147],[-82.77462,8.41421],[-82.78484,8.42087],[-82.78204,8.42461],[-82.78296,8.42938],[-82.78836,8.42964],[-82.78987,8.43912],[-82.79275,8.43922],[-82.79256,8.43431],[-82.79745,8.43425],[-82.79892,8.44315],[-82.72401,8.4585]]]}}]}