{"type":"FeatureCollection","features":[{"type":"Feature","properties":{"corregimiento":"Puerto Armuelles (Cabecera)","distrito":"Barú","provincia":"Chiriquí","bbox":[-83.04398,8.17507,-82.80921,8.35786]},"geometry":{"type":"Polygon","coordinates":[[[-82.91211,8.35786],[-82.88357,8.3463],[-82.87657,8.33864],[-82.85383,8.33362],[-82.84886,8.32709],[-82.84007,8.32497],[-82.83951,8.32888],[-82.83636,8.32949],[-82.83331,8.32612],[-82.83284,8.32949],[-82.83041,8.3253],[-82.83496,8.32234],[-82.83284,8.32089],[-82.8296,8.32433],[-82.83169,8.32033],[-82.82404,8.31848],[-82.82615,8.31462],[-82.81885,8.31083],[-82.82226,8.30809],[-82.81592,8.30862],[-82.81461,8.30642],[-82.8174,8.30595],[-82.81493,8.30259],[-82.81214,8.30617],[-82.80921,8.30421],[-82.81021,8.30006],[-82.84236,8.29046],[-82.84722,8.28254],[-82.85639,8.27651],[-82.86297,8.26148],[-82.86821,8.25691],[-82.87388,8.2443],[-82.87757,8.21839],[-82.87624,8.20631],[-82.8732,8.20338],[-82.87528,8.18153],[-82.8882,8.18278],[-82.90337,8.17578],[-82.91705,8.17507],[-82.91749,8.18004],[-82.92119,8.18189],[-82.92007,8.19093],[-82.92658,8.19084],[-82.92498,8.2074],[-82.93613,8.21056],[-82.93023,8.23008],[-82.93219,8.23128],[-82.93038,8.24078],[-82.93803,8.25204],[-82.93819,8.26247],[-82.9421,8.27303],[-82.9513,8.26719],[-82.95751,8.28123],[-82.96307,8.2776],[-82.96851,8.27877],[-82.97085,8.28474],[-82.97601,8.28818],[-82.98043,8.28629],[-82.98268,8.27792],[-82.9897,8.27123],[-82.99883,8.28693],[-83.0041,8.28896],[-83.00476,8.29649],[-83.02445,8.30534],[-83.02541,8.3106],[-83.02287,8.31173],[-83.02753,8.3142],[-83.02755,8.31704],[-83.04398,8.31712],[-83.03593,8.329],[-83.02273,8.3388],[-83.01852,8.33815],[-83.01624,8.34192],[-83.01556,8.33636],[-83.00699,8.33306],[-82.99811,8.3361],[-82.99598,8.33934],[-82.99874,8.34177],[-82.99128,8.34463],[-82.98892,8.34148],[-82.98625,8.34479],[-82.97446,8.34613],[-82.97439,8.34905],[-82.96934,8.34532],[-82.9669,8.34758],[-82.96955,8.35354],[-82.96617,8.3557],[-82.9444,8.33905],[-82.91211,8.35786]]]}},{"type":"Feature","properties":{"corregimiento":"Progreso","distrito":"Barú","provincia":"Chiriquí","bbox":[-82.87363,8.3798,-82.79659,8.59417]},"geometry":{"type":"Polygon","coordinates":[[[-82.8009,8.57511],[-82.83075,8.55245],[-82.83673,8.54274],[-82.83181,8.53578],[-82.833,8.52577],[-82.82812,8.52211],[-82.82564,8.51262],[-82.82632,8.48836],[-82.82425,8.48419],[-82.82657,8.46896],[-82.83055,8.46751],[-82.82891,8.45387],[-82.82491,8.45484],[-82.81837,8.45089],[-82.82505,8.44634],[-82.8243,8.4437],[-82.81404,8.4418],[-82.81129,8.44715],[-82.80454,8.44024],[-82.80706,8.43393],[-82.80131,8.42958],[-82.79823,8.43304],[-82.79659,8.43182],[-82.81368,8.41691],[-82.80909,8.40735],[-82.81431,8.40779],[-82.81905,8.4018],[-82.81419,8.39543],[-82.82072,8.39518],[-82.82117,8.38676],[-82.82453,8.38636],[-82.82582,8.38034],[-82.82844,8.3798],[-82.83551,8.38558],[-82.84288,8.40191],[-82.87363,8.43838],[-82.86851,8.43956],[-82.83948,8.48017],[-82.83182,8.50443],[-82.83409,8.50759],[-82.83326,8.52372],[-82.83767,8.52962],[-82.83981,8.54628],[-82.82236,8.56747],[-82.82702,8.58275],[-82.82441,8.5869],[-82.83364,8.58961],[-82.83334,8.59417],[-82.82378,8.59274],[-82.81115,8.58386],[-82.80527,8.58341],[-82.80073,8.57905],[-82.8009,8.57511]]]}},{"type":"Feature","properties":{"corregimiento":"Baco","distrito":"Barú","provincia":"Chiriquí","bbox":[-82.82588,8.31226,-82.70267,8.43922]},"geometry":{"type":"Polygon","coordinates":[[[-82.71824,8.34571],[-82.70753,8.34697],[-82.70898,8.3393],[-82.70267,8.33017],[-82.7053,8.32621],[-82.73065,8.32345],[-82.75508,8.31473],[-82.77055,8.31226],[-82.7726,8.3279],[-82.77775,8.33633],[-82.79362,8.34784],[-82.82039,8.37891],[-82.82588,8.38047],[-82.82468,8.38618],[-82.82117,8.38676],[-82.82072,8.39518],[-82.81411,8.39562],[-82.81914,8.40167],[-82.81439,8.40775],[-82.809,8.4076],[-82.81378,8.41675],[-82.79669,8.43125],[-82.79809,8.4331],[-82.8015,8.42963],[-82.80708,8.43533],[-82.79907,8.43916],[-82.79665,8.43356],[-82.79274,8.4342],[-82.79275,8.43922],[-82.78987,8.43912],[-82.78836,8.42964],[-82.78296,8.42938],[-82.78204,8.42461],[-82.78484,8.42087],[-82.77453,8.41401],[-82.77794,8.41147],[-82.778,8.40638],[-82.77419,8.4064],[-82.7783,8.40034],[-82.77299,8.39879],[-82.77347,8.38431],[-82.75968,8.38075],[-82.75555,8.37058],[-82.73886,8.36677],[-82.74031,8.36178],[-82.73466,8.36128],[-82.72842,8.35471],[-82.7197,8.35323],[-82.71824,8.34571]]]}},{"type":"Feature","properties":{"corregimiento":"Rodolfo Aguilar Delgado","distrito":"Barú","provincia":"Chiriquí","bbox":[-83.05229,8.29929,-82.77016,8.43838]},"geometry":{"type":"Polygon","coordinates":[[[-82.82983,8.38036],[-82.82039,8.37891],[-82.79362,8.34784],[-82.77775,8.33633],[-82.7726,8.3279],[-82.77016,8.31176],[-82.78832,8.30898],[-82.80811,8.29929],[-82.81015,8.30585],[-82.8148,8.30257],[-82.81737,8.30583],[-82.81461,8.30642],[-82.81592,8.30862],[-82.82237,8.30821],[-82.81886,8.31088],[-82.82615,8.31462],[-82.82417,8.3186],[-82.83169,8.32033],[-82.82922,8.32412],[-82.83478,8.32208],[-82.83041,8.3253],[-82.83275,8.32944],[-82.83331,8.32612],[-82.83636,8.32949],[-82.83951,8.32888],[-82.84007,8.32497],[-82.84886,8.32709],[-82.85383,8.33362],[-82.87657,8.33864],[-82.88357,8.3463],[-82.91322,8.35865],[-82.9444,8.33905],[-82.96617,8.3557],[-82.96955,8.35354],[-82.9669,8.34758],[-82.96934,8.34532],[-82.97439,8.34905],[-82.97446,8.34613],[-82.98625,8.34479],[-82.98892,8.34148],[-82.99128,8.34463],[-82.99874,8.34177],[-82.99598,8.33934],[-82.99811,8.3361],[-83.00699,8.33306],[-83.01556,8.33636],[-83.01624,8.34192],[-83.01852,8.33815],[-83.02273,8.3388],[-83.03593,8.329],[-83.04398,8.31712],[-83.04437,8.3226],[-83.05229,8.33108],[-83.05188,8.33693],[-83.04596,8.3352],[-83.04794,8.34096],[-83.04607,8.34332],[-83.02888,8.35238],[-83.02019,8.35114],[-83.01717,8.35619],[-83.01096,8.35479],[-82.98959,8.37586],[-82.98399,8.37254],[-82.98353,8.37616],[-82.96927,8.38629],[-82.96674,8.39793],[-82.95594,8.40772],[-82.95356,8.414],[-82.93567,8.42371],[-82.9311,8.43502],[-82.9142,8.42826],[-82.87363,8.43838],[-82.84267,8.40163],[-82.83551,8.38558],[-82.82983,8.38036]]]}},{"type":"Feature","properties":{"corregimiento":"Limones","distrito":"Barú","provincia":"Chiriquí","bbox":[-82.91831,8.0303,-82.85222,8.18207]},"geometry":{"type":"Polygon","coordinates":[[[-82.88507,8.18207],[-82.87528,8.18153],[-82.87672,8.15118],[-82.87142,8.13052],[-82.87338,8.11987],[-82.857,8.0915],[-82.85642,8.08069],[-82.85222,8.07238],[-82.85777,8.05898],[-82.86839,8.05185],[-82.86666,8.03621],[-82.87462,8.0303],[-82.90343,8.04023],[-82.89089,8.05182],[-82.89515,8.05497],[-82.89603,8.06487],[-82.89042,8.07355],[-82.88766,8.07385],[-82.8883,8.0769],[-82.88351,8.07924],[-82.89033,8.0955],[-82.88607,8.1083],[-82.90114,8.12856],[-82.90294,8.13883],[-82.90678,8.14083],[-82.91033,8.15269],[-82.90896,8.16244],[-82.91404,8.16327],[-82.91391,8.16961],[-82.91831,8.17244],[-82.91259,8.17681],[-82.90337,8.17578],[-82.88507,8.18207]]]}}]}