{"type":"FeatureCollection","features":[{"type":"Feature","properties":{"corregimiento":"Boquerón (Cabecera)","distrito":"Boquerón","provincia":"Chiriquí","bbox":[-82.61176,8.47172,-82.54275,8.59932]},"geometry":{"type":"Polygon","coordinates":[[[-82.55963,8.59932],[-82.56121,8.55111],[-82.56902,8.53763],[-82.56913,8.52646],[-82.5568,8.49301],[-82.5506,8.48997],[-82.54275,8.47172],[-82.57711,8.4905],[-82.57676,8.51322],[-82.58816,8.5175],[-82.59342,8.52412],[-82.60816,8.53296],[-82.61176,8.54328],[-82.59601,8.58387],[-82.58082,8.58442],[-82.57318,8.57683],[-82.57221,8.57144],[-82.56814,8.58781],[-82.56481,8.58871],[-82.56361,8.59644],[-82.55963,8.59932]]]}},{"type":"Feature","properties":{"corregimiento":"Bágala","distrito":"Boquerón","provincia":"Chiriquí","bbox":[-82.56959,8.45341,-82.51902,8.56873]},"geometry":{"type":"Polygon","coordinates":[[[-82.52448,8.51381],[-82.53193,8.50813],[-82.5279,8.50394],[-82.53007,8.50015],[-82.52261,8.49223],[-82.52033,8.48381],[-82.52308,8.46761],[-82.51902,8.46642],[-82.53452,8.45341],[-82.5367,8.46369],[-82.54675,8.47694],[-82.5506,8.48997],[-82.5568,8.49301],[-82.56959,8.53044],[-82.569,8.53769],[-82.56124,8.55091],[-82.56178,8.55869],[-82.54632,8.56041],[-82.54579,8.56873],[-82.52588,8.5681],[-82.5232,8.55049],[-82.52577,8.54076],[-82.52322,8.53852],[-82.52532,8.53337],[-82.52448,8.51381]]]}},{"type":"Feature","properties":{"corregimiento":"Pedregal","distrito":"Boquerón","provincia":"Chiriquí","bbox":[-82.62323,8.4477,-82.57676,8.53117]},"geometry":{"type":"Polygon","coordinates":[[[-82.57711,8.4905],[-82.59498,8.49853],[-82.59008,8.48049],[-82.59163,8.47353],[-82.58651,8.46504],[-82.58681,8.45945],[-82.58266,8.4559],[-82.62323,8.4477],[-82.61654,8.4546],[-82.6166,8.46161],[-82.61181,8.46463],[-82.61144,8.47471],[-82.60663,8.4838],[-82.60606,8.53117],[-82.59342,8.52412],[-82.58816,8.5175],[-82.57676,8.51322],[-82.57711,8.4905]]]}},{"type":"Feature","properties":{"corregimiento":"Tijeras","distrito":"Boquerón","provincia":"Chiriquí","bbox":[-82.59498,8.45341,-82.53452,8.49853]},"geometry":{"type":"Polygon","coordinates":[[[-82.59498,8.49853],[-82.54148,8.47199],[-82.53452,8.45341],[-82.58266,8.4559],[-82.58664,8.45915],[-82.58651,8.46504],[-82.5917,8.47383],[-82.59008,8.48049],[-82.59498,8.49853]]]}},{"type":"Feature","properties":{"corregimiento":"Guabal","distrito":"Boquerón","provincia":"Chiriquí","bbox":[-82.56123,8.55823,-82.52579,8.704]},"geometry":{"type":"Polygon","coordinates":[[[-82.53585,8.63278],[-82.53478,8.60814],[-82.52964,8.59431],[-82.52973,8.5825],[-82.52579,8.57032],[-82.54579,8.56873],[-82.54632,8.56041],[-82.56123,8.55823],[-82.56101,8.57936],[-82.55889,8.58204],[-82.56065,8.58941],[-82.55835,8.59491],[-82.56097,8.62886],[-82.55957,8.63939],[-82.54842,8.66437],[-82.54723,8.704],[-82.53585,8.63278]]]}},{"type":"Feature","properties":{"corregimiento":"Guayabal","distrito":"Boquerón","provincia":"Chiriquí","bbox":[-82.59717,8.57106,-82.54723,8.77027]},"geometry":{"type":"Polygon","coordinates":[[[-82.54723,8.704],[-82.54842,8.66437],[-82.55957,8.63939],[-82.56095,8.62902],[-82.55919,8.60093],[-82.56361,8.59644],[-82.56481,8.58871],[-82.56814,8.58781],[-82.56962,8.57505],[-82.57341,8.57106],[-82.57302,8.57656],[-82.57896,8.58324],[-82.59601,8.58387],[-82.59717,8.58783],[-82.59336,8.60979],[-82.58174,8.62727],[-82.5793,8.63899],[-82.58266,8.64521],[-82.58212,8.65882],[-82.58795,8.66977],[-82.58151,8.69296],[-82.58305,8.69956],[-82.57006,8.72856],[-82.56545,8.72998],[-82.56274,8.7364],[-82.56454,8.74964],[-82.55923,8.77027],[-82.54723,8.704]]]}},{"type":"Feature","properties":{"corregimiento":"Cordillera","distrito":"Boquerón","provincia":"Chiriquí","bbox":[-82.62303,8.65394,-82.54297,8.81009]},"geometry":{"type":"Polygon","coordinates":[[[-82.58942,8.81009],[-82.58359,8.80445],[-82.58361,8.78763],[-82.54297,8.80931],[-82.55641,8.77887],[-82.56174,8.77494],[-82.58642,8.77116],[-82.59573,8.75895],[-82.59781,8.7514],[-82.59284,8.74561],[-82.59628,8.73912],[-82.59363,8.7223],[-82.59593,8.70843],[-82.59116,8.69768],[-82.60015,8.6774],[-82.59492,8.65949],[-82.59926,8.65394],[-82.60458,8.66206],[-82.60311,8.6685],[-82.60737,8.67941],[-82.60586,8.68442],[-82.61077,8.6891],[-82.62055,8.71915],[-82.62303,8.73399],[-82.61922,8.75475],[-82.62235,8.76267],[-82.6199,8.77095],[-82.61278,8.77492],[-82.6081,8.7925],[-82.6107,8.79755],[-82.60887,8.80078],[-82.60095,8.80661],[-82.58942,8.81009]]]}},{"type":"Feature","properties":{"corregimiento":"Paraíso","distrito":"Boquerón","provincia":"Chiriquí","bbox":[-82.60015,8.60995,-82.55501,8.78041]},"geometry":{"type":"Polygon","coordinates":[[[-82.55501,8.78041],[-82.56304,8.76125],[-82.56476,8.74344],[-82.56274,8.7364],[-82.56545,8.72998],[-82.57006,8.72856],[-82.58305,8.69956],[-82.58151,8.69296],[-82.58795,8.66977],[-82.58212,8.65882],[-82.58266,8.64521],[-82.5793,8.63899],[-82.58174,8.62727],[-82.59327,8.60995],[-82.59473,8.6162],[-82.59156,8.61951],[-82.59175,8.62633],[-82.59939,8.65237],[-82.59495,8.6592],[-82.59545,8.66685],[-82.60015,8.6774],[-82.59116,8.69768],[-82.59593,8.70843],[-82.59363,8.7223],[-82.59628,8.73912],[-82.59284,8.74575],[-82.59785,8.75264],[-82.58665,8.77103],[-82.56174,8.77494],[-82.55501,8.78041]]]}}]}