{"type":"FeatureCollection","features":[{"type":"Feature","properties":{"corregimiento":"Alto Boquete","distrito":"Boquete","provincia":"Chiriquí","bbox":[-82.46251,8.59494,-82.37982,8.76126]},"geometry":{"type":"Polygon","coordinates":[[[-82.43116,8.76028],[-82.42355,8.75118],[-82.42124,8.74227],[-82.40853,8.73906],[-82.39176,8.72999],[-82.39129,8.71994],[-82.40227,8.70433],[-82.40466,8.69467],[-82.40128,8.67901],[-82.40509,8.67134],[-82.40372,8.6658],[-82.40754,8.65444],[-82.39553,8.64812],[-82.393,8.64199],[-82.39502,8.63283],[-82.37982,8.62044],[-82.39096,8.60636],[-82.39741,8.60605],[-82.41352,8.59494],[-82.43586,8.6172],[-82.43609,8.62252],[-82.44232,8.63237],[-82.44133,8.63615],[-82.44588,8.64078],[-82.44583,8.64495],[-82.44884,8.6438],[-82.45214,8.65255],[-82.45,8.65764],[-82.45396,8.65913],[-82.45308,8.66195],[-82.45644,8.66183],[-82.45373,8.66413],[-82.45786,8.67023],[-82.45633,8.67287],[-82.45894,8.67974],[-82.46251,8.68116],[-82.45883,8.68409],[-82.46019,8.69028],[-82.45262,8.69356],[-82.45457,8.69574],[-82.45325,8.70565],[-82.45021,8.70609],[-82.44239,8.71896],[-82.44495,8.72106],[-82.44437,8.74498],[-82.4405,8.73897],[-82.4384,8.74225],[-82.4384,8.75673],[-82.44133,8.75954],[-82.4419,8.76126],[-82.43677,8.75782],[-82.43116,8.76028]]]}},{"type":"Feature","properties":{"corregimiento":"Boquete (Cabecera)","distrito":"Boquete","provincia":"Chiriquí","bbox":[-82.50582,8.7388,-82.42989,8.79928]},"geometry":{"type":"Polygon","coordinates":[[[-82.42989,8.78651],[-82.43116,8.76028],[-82.43677,8.75782],[-82.44195,8.76109],[-82.4384,8.75673],[-82.43996,8.7388],[-82.44391,8.74176],[-82.44314,8.75064],[-82.44981,8.75888],[-82.4508,8.76691],[-82.46161,8.77082],[-82.47328,8.78019],[-82.49515,8.78459],[-82.50582,8.79782],[-82.50357,8.79928],[-82.49922,8.79413],[-82.49308,8.79829],[-82.4689,8.79305],[-82.45125,8.79535],[-82.43955,8.78702],[-82.43338,8.7912],[-82.42989,8.78651]]]}},{"type":"Feature","properties":{"corregimiento":"Caldera","distrito":"Boquete","provincia":"Chiriquí","bbox":[-82.40751,8.6153,-82.25869,8.7946]},"geometry":{"type":"Polygon","coordinates":[[[-82.31802,8.79248],[-82.30697,8.78448],[-82.27774,8.78402],[-82.26836,8.77979],[-82.25929,8.78068],[-82.25869,8.77421],[-82.26699,8.76457],[-82.26809,8.75924],[-82.27768,8.75204],[-82.2847,8.74204],[-82.28439,8.73193],[-82.29059,8.7238],[-82.29069,8.70926],[-82.28687,8.70536],[-82.28851,8.69966],[-82.28522,8.69565],[-82.28694,8.69174],[-82.29308,8.68877],[-82.31172,8.69411],[-82.33339,8.68747],[-82.33415,8.68108],[-82.34615,8.6803],[-82.34669,8.67078],[-82.35125,8.6623],[-82.34176,8.65436],[-82.34211,8.65094],[-82.34483,8.64977],[-82.34463,8.64578],[-82.35006,8.64758],[-82.35736,8.63998],[-82.35639,8.63057],[-82.36047,8.62843],[-82.35578,8.61933],[-82.3671,8.6153],[-82.37545,8.62022],[-82.39572,8.64834],[-82.40751,8.65435],[-82.40372,8.6658],[-82.40509,8.67134],[-82.40153,8.67641],[-82.40467,8.69461],[-82.40254,8.70366],[-82.39129,8.71994],[-82.39279,8.73185],[-82.38735,8.72862],[-82.37655,8.72958],[-82.3709,8.72585],[-82.36982,8.71593],[-82.36639,8.71136],[-82.35897,8.72718],[-82.36229,8.73798],[-82.35793,8.74367],[-82.35983,8.74808],[-82.35622,8.76118],[-82.33918,8.77808],[-82.3334,8.79002],[-82.32562,8.7946],[-82.32087,8.78992],[-82.31802,8.79248]]]}},{"type":"Feature","properties":{"corregimiento":"Palmira","distrito":"Boquete","provincia":"Chiriquí","bbox":[-82.55923,8.69138,-82.44239,8.81219]},"geometry":{"type":"Polygon","coordinates":[[[-82.51801,8.80823],[-82.49515,8.78459],[-82.47328,8.78019],[-82.46161,8.77082],[-82.45068,8.76677],[-82.44981,8.75888],[-82.44311,8.75054],[-82.44578,8.73508],[-82.44349,8.73117],[-82.44495,8.72106],[-82.44239,8.71905],[-82.45021,8.70609],[-82.45325,8.70565],[-82.45294,8.6932],[-82.45869,8.69138],[-82.47326,8.72397],[-82.47271,8.72795],[-82.48369,8.73357],[-82.49167,8.74704],[-82.50023,8.74984],[-82.50605,8.76586],[-82.51748,8.78081],[-82.55923,8.77027],[-82.54297,8.80931],[-82.52735,8.81219],[-82.51801,8.80823]]]}},{"type":"Feature","properties":{"corregimiento":"Jaramillo","distrito":"Boquete","provincia":"Chiriquí","bbox":[-82.43157,8.71136,-82.31802,8.82353]},"geometry":{"type":"Polygon","coordinates":[[[-82.35907,8.82353],[-82.34413,8.79996],[-82.34149,8.80259],[-82.33129,8.79841],[-82.322,8.79915],[-82.31802,8.79248],[-82.32087,8.78992],[-82.32562,8.7946],[-82.3334,8.79002],[-82.33918,8.77808],[-82.35622,8.76118],[-82.35983,8.74808],[-82.35793,8.74367],[-82.36229,8.73798],[-82.35897,8.72718],[-82.36639,8.71136],[-82.36982,8.71593],[-82.36995,8.72466],[-82.37573,8.72914],[-82.38735,8.72862],[-82.42124,8.74227],[-82.42355,8.75118],[-82.43157,8.76097],[-82.43077,8.78177],[-82.43001,8.78734],[-82.42623,8.78901],[-82.41748,8.78669],[-82.4073,8.78809],[-82.40992,8.79549],[-82.40467,8.7956],[-82.40316,8.79898],[-82.39305,8.79186],[-82.38709,8.79173],[-82.37798,8.80131],[-82.3787,8.8068],[-82.37373,8.81199],[-82.37406,8.81606],[-82.36876,8.81768],[-82.36613,8.82348],[-82.35907,8.82353]]]}},{"type":"Feature","properties":{"corregimiento":"Los Naranjos","distrito":"Boquete","provincia":"Chiriquí","bbox":[-82.54301,8.78651,-82.37373,8.88663]},"geometry":{"type":"Polygon","coordinates":[[[-82.37406,8.81606],[-82.37373,8.81199],[-82.3787,8.8068],[-82.37798,8.80131],[-82.38701,8.79178],[-82.39305,8.79186],[-82.40309,8.79899],[-82.40467,8.7956],[-82.40992,8.79549],[-82.4073,8.78809],[-82.4174,8.78668],[-82.42501,8.78918],[-82.42989,8.78651],[-82.43338,8.7912],[-82.43955,8.78702],[-82.45281,8.79553],[-82.4689,8.79305],[-82.49308,8.79829],[-82.49922,8.79413],[-82.50357,8.79928],[-82.50582,8.79782],[-82.51801,8.80823],[-82.52735,8.81219],[-82.54297,8.80931],[-82.54301,8.88663],[-82.52949,8.86771],[-82.51642,8.87568],[-82.50233,8.86761],[-82.4871,8.86691],[-82.47948,8.85999],[-82.47409,8.85913],[-82.47053,8.86321],[-82.4624,8.8622],[-82.45223,8.84686],[-82.4396,8.84387],[-82.43789,8.83953],[-82.43127,8.84045],[-82.42721,8.83399],[-82.42176,8.83503],[-82.41182,8.82984],[-82.40709,8.83216],[-82.394,8.82667],[-82.384,8.81799],[-82.37406,8.81606]]]}}]}