{"type":"FeatureCollection","features":[{"type":"Feature","properties":{"corregimiento":"La Concepción (Cabecera)","distrito":"Bugaba","provincia":"Chiriquí","bbox":[-82.66453,8.48898,-82.61276,8.66833]},"geometry":{"type":"Polygon","coordinates":[[[-82.62429,8.66833],[-82.6247,8.65947],[-82.62185,8.6566],[-82.62537,8.64469],[-82.62306,8.64018],[-82.62736,8.62186],[-82.62451,8.60941],[-82.6332,8.59956],[-82.63564,8.58707],[-82.62665,8.57211],[-82.62002,8.54114],[-82.61276,8.53367],[-82.61896,8.50181],[-82.61659,8.49883],[-82.62071,8.48898],[-82.63473,8.49805],[-82.64539,8.49418],[-82.64598,8.49809],[-82.64984,8.49777],[-82.64823,8.50038],[-82.65115,8.50718],[-82.65299,8.50549],[-82.65585,8.50787],[-82.65405,8.50915],[-82.65823,8.50937],[-82.66453,8.51982],[-82.65211,8.54248],[-82.63015,8.54151],[-82.6359,8.55711],[-82.63544,8.56313],[-82.64269,8.57331],[-82.64046,8.57654],[-82.63938,8.61336],[-82.63162,8.61901],[-82.63967,8.63363],[-82.63946,8.64],[-82.64454,8.64127],[-82.65038,8.63854],[-82.6503,8.64134],[-82.64632,8.6469],[-82.64808,8.65365],[-82.64561,8.66154],[-82.62429,8.66833]]]}},{"type":"Feature","properties":{"corregimiento":"Aserrío de Gariché","distrito":"Bugaba","provincia":"Chiriquí","bbox":[-82.81365,8.43593,-82.73319,8.55329]},"geometry":{"type":"Polygon","coordinates":[[[-82.73319,8.53555],[-82.74084,8.52088],[-82.74585,8.52159],[-82.74845,8.51606],[-82.74637,8.51496],[-82.74893,8.5141],[-82.74723,8.5122],[-82.75066,8.51318],[-82.74986,8.50995],[-82.75352,8.51011],[-82.75177,8.50799],[-82.75693,8.50726],[-82.75464,8.505],[-82.75789,8.50613],[-82.75783,8.50279],[-82.76485,8.50103],[-82.76445,8.49643],[-82.76655,8.49669],[-82.77123,8.48668],[-82.77474,8.48701],[-82.77571,8.48334],[-82.77159,8.47418],[-82.77429,8.47144],[-82.77584,8.46159],[-82.77352,8.45946],[-82.77685,8.44945],[-82.79861,8.44363],[-82.79832,8.43893],[-82.80584,8.43593],[-82.80458,8.44035],[-82.80917,8.44372],[-82.81258,8.45281],[-82.80765,8.45416],[-82.80941,8.45731],[-82.80707,8.46319],[-82.81262,8.4709],[-82.81365,8.47816],[-82.81027,8.49266],[-82.79917,8.50031],[-82.79661,8.512],[-82.7938,8.51282],[-82.79037,8.53412],[-82.78008,8.54024],[-82.7695,8.55329],[-82.76727,8.54977],[-82.73465,8.54337],[-82.73319,8.53555]]]}},{"type":"Feature","properties":{"corregimiento":"Bugaba","distrito":"Bugaba","provincia":"Chiriquí","bbox":[-82.64304,8.4477,-82.60577,8.51059]},"geometry":{"type":"Polygon","coordinates":[[[-82.60577,8.504],[-82.6058,8.48827],[-82.6115,8.47448],[-82.61173,8.46482],[-82.6166,8.46161],[-82.61654,8.4546],[-82.62323,8.4477],[-82.62373,8.45553],[-82.62722,8.46044],[-82.6267,8.46835],[-82.63221,8.47158],[-82.63285,8.47865],[-82.63594,8.48039],[-82.63452,8.48355],[-82.63947,8.48524],[-82.64304,8.49369],[-82.63473,8.49805],[-82.62071,8.48898],[-82.61659,8.49883],[-82.61896,8.50181],[-82.6166,8.51059],[-82.60577,8.504]]]}},{"type":"Feature","properties":{"corregimiento":"La Estrella","distrito":"Bugaba","provincia":"Chiriquí","bbox":[-82.69879,8.44926,-82.62345,8.56503]},"geometry":{"type":"Polygon","coordinates":[[[-82.66679,8.55094],[-82.66907,8.54566],[-82.66185,8.52932],[-82.66449,8.51966],[-82.65823,8.50937],[-82.65405,8.50915],[-82.65585,8.50787],[-82.65299,8.50549],[-82.65115,8.50718],[-82.64823,8.50038],[-82.64984,8.49777],[-82.64605,8.49814],[-82.64548,8.49426],[-82.64322,8.49497],[-82.63947,8.48524],[-82.63452,8.48355],[-82.63594,8.48039],[-82.63285,8.47865],[-82.63229,8.47172],[-82.62543,8.4653],[-82.62722,8.46044],[-82.62345,8.45014],[-82.63102,8.4565],[-82.6478,8.45901],[-82.66178,8.45562],[-82.67249,8.46338],[-82.68514,8.45844],[-82.68597,8.44926],[-82.6927,8.4499],[-82.68738,8.46281],[-82.68792,8.47125],[-82.69284,8.47565],[-82.69056,8.47605],[-82.69245,8.47863],[-82.69055,8.48256],[-82.69293,8.48325],[-82.69009,8.49318],[-82.69243,8.49442],[-82.6878,8.49684],[-82.68452,8.51375],[-82.69275,8.52695],[-82.6898,8.53152],[-82.69058,8.53888],[-82.69523,8.54964],[-82.69817,8.54934],[-82.6963,8.55353],[-82.69879,8.55389],[-82.68948,8.56503],[-82.67432,8.55966],[-82.66679,8.55094]]]}},{"type":"Feature","properties":{"corregimiento":"Santa Marta","distrito":"Bugaba","provincia":"Chiriquí","bbox":[-82.7177,8.44788,-82.68452,8.58092]},"geometry":{"type":"Polygon","coordinates":[[[-82.69008,8.56469],[-82.69883,8.55364],[-82.6963,8.55353],[-82.69817,8.54934],[-82.69523,8.54964],[-82.69058,8.53888],[-82.6898,8.53152],[-82.69275,8.52695],[-82.68452,8.51375],[-82.6878,8.49684],[-82.69243,8.49442],[-82.69009,8.49318],[-82.69293,8.48325],[-82.69055,8.48256],[-82.69245,8.47863],[-82.69056,8.47605],[-82.69284,8.47565],[-82.68792,8.47125],[-82.68755,8.45832],[-82.69147,8.45646],[-82.6897,8.45342],[-82.69256,8.4497],[-82.69738,8.44788],[-82.70023,8.44838],[-82.7003,8.45426],[-82.71126,8.45655],[-82.71136,8.48065],[-82.70543,8.49015],[-82.70252,8.50818],[-82.70341,8.51871],[-82.71043,8.52586],[-82.71415,8.52479],[-82.71396,8.53689],[-82.7177,8.53858],[-82.71317,8.54854],[-82.71673,8.55355],[-82.71342,8.55357],[-82.71554,8.55531],[-82.71227,8.56146],[-82.71591,8.56489],[-82.7135,8.56747],[-82.71655,8.57621],[-82.7114,8.58092],[-82.71116,8.5788],[-82.69766,8.57473],[-82.69008,8.56469]]]}},{"type":"Feature","properties":{"corregimiento":"Santo Domingo","distrito":"Bugaba","provincia":"Chiriquí","bbox":[-82.77846,8.44756,-82.70252,8.53944]},"geometry":{"type":"Polygon","coordinates":[[[-82.71126,8.45675],[-82.72401,8.4585],[-82.77846,8.44756],[-82.77352,8.45946],[-82.77584,8.46159],[-82.77429,8.47144],[-82.77159,8.47418],[-82.77571,8.48334],[-82.77466,8.48713],[-82.7712,8.48671],[-82.76655,8.49669],[-82.76445,8.49643],[-82.76476,8.50112],[-82.75783,8.50279],[-82.75789,8.50613],[-82.75464,8.505],[-82.75696,8.50722],[-82.75177,8.50799],[-82.75352,8.51011],[-82.74986,8.50995],[-82.75066,8.51318],[-82.74723,8.5122],[-82.74893,8.5141],[-82.74637,8.51496],[-82.74845,8.51606],[-82.74585,8.52159],[-82.74077,8.5209],[-82.73392,8.5285],[-82.73239,8.52557],[-82.72929,8.53081],[-82.72088,8.53056],[-82.72164,8.53337],[-82.719,8.5332],[-82.71661,8.53944],[-82.71394,8.53681],[-82.71415,8.52479],[-82.71043,8.52586],[-82.70472,8.52117],[-82.70252,8.50818],[-82.70543,8.49015],[-82.71136,8.48065],[-82.71126,8.45675]]]}},{"type":"Feature","properties":{"corregimiento":"San Isidro","distrito":"Bugaba","provincia":"Chiriquí","bbox":[-82.8366,8.44176,-82.7699,8.58087]},"geometry":{"type":"Polygon","coordinates":[[[-82.7699,8.55314],[-82.78008,8.54024],[-82.79045,8.53401],[-82.79303,8.52611],[-82.79104,8.52063],[-82.79403,8.51989],[-82.79375,8.51296],[-82.79661,8.512],[-82.79914,8.50036],[-82.81128,8.49053],[-82.81268,8.47108],[-82.80708,8.46282],[-82.80941,8.45731],[-82.80765,8.45416],[-82.81258,8.45281],[-82.80834,8.44602],[-82.80949,8.44424],[-82.81327,8.44682],[-82.81422,8.44176],[-82.82399,8.44354],[-82.82505,8.44634],[-82.81823,8.45048],[-82.82491,8.45484],[-82.8287,8.45349],[-82.83055,8.46751],[-82.82657,8.46896],[-82.82425,8.48419],[-82.82632,8.48836],[-82.82566,8.51276],[-82.82812,8.52211],[-82.833,8.52577],[-82.83181,8.53578],[-82.8366,8.54315],[-82.83075,8.55245],[-82.80958,8.56874],[-82.80014,8.57552],[-82.79588,8.57324],[-82.79376,8.57844],[-82.78716,8.58087],[-82.78948,8.57539],[-82.78661,8.56828],[-82.78052,8.56551],[-82.7699,8.55314]]]}},{"type":"Feature","properties":{"corregimiento":"Gómez","distrito":"Bugaba","provincia":"Chiriquí","bbox":[-82.79066,8.52255,-82.71161,8.60602]},"geometry":{"type":"Polygon","coordinates":[[[-82.74818,8.59451],[-82.73647,8.58338],[-82.73828,8.58239],[-82.73471,8.57499],[-82.71984,8.58198],[-82.72025,8.58709],[-82.71587,8.5811],[-82.71161,8.58064],[-82.71656,8.57614],[-82.7135,8.56747],[-82.71591,8.56489],[-82.71227,8.56146],[-82.71554,8.55531],[-82.71342,8.55357],[-82.71673,8.55355],[-82.71317,8.54854],[-82.7137,8.54487],[-82.71684,8.54439],[-82.71685,8.5372],[-82.71913,8.53306],[-82.72161,8.53344],[-82.72088,8.53056],[-82.72929,8.53081],[-82.73233,8.5256],[-82.73392,8.5285],[-82.73973,8.52255],[-82.73319,8.53555],[-82.73461,8.54333],[-82.76771,8.54998],[-82.78052,8.56551],[-82.78661,8.56828],[-82.78948,8.57539],[-82.78716,8.58087],[-82.79066,8.57985],[-82.78807,8.58419],[-82.79016,8.58587],[-82.78897,8.59057],[-82.78325,8.59044],[-82.78053,8.59829],[-82.76969,8.60107],[-82.76805,8.60602],[-82.76011,8.6029],[-82.75772,8.59658],[-82.74818,8.59451]]]}},{"type":"Feature","properties":{"corregimiento":"San Andrés","distrito":"Bugaba","provincia":"Chiriquí","bbox":[-82.74989,8.57499,-82.68672,8.72692]},"geometry":{"type":"Polygon","coordinates":[[[-82.6944,8.72692],[-82.69745,8.71694],[-82.70241,8.71281],[-82.70396,8.70096],[-82.69785,8.69507],[-82.69658,8.68897],[-82.69981,8.68461],[-82.69599,8.67434],[-82.68672,8.66746],[-82.68926,8.64682],[-82.69191,8.64588],[-82.69003,8.64064],[-82.69517,8.63258],[-82.69288,8.62533],[-82.69734,8.62069],[-82.69575,8.61842],[-82.69811,8.6142],[-82.70357,8.61181],[-82.70537,8.60252],[-82.70337,8.6009],[-82.70669,8.59955],[-82.70809,8.5904],[-82.71199,8.58802],[-82.71391,8.58292],[-82.71166,8.58087],[-82.71587,8.5811],[-82.72025,8.58709],[-82.71984,8.58198],[-82.73471,8.57499],[-82.73828,8.58239],[-82.73647,8.58338],[-82.74287,8.59037],[-82.74738,8.59122],[-82.74505,8.59785],[-82.74989,8.60613],[-82.74732,8.6242],[-82.73508,8.65078],[-82.73863,8.65925],[-82.73857,8.66923],[-82.73184,8.6761],[-82.73094,8.69631],[-82.72654,8.69658],[-82.72157,8.70127],[-82.72494,8.70675],[-82.72165,8.7119],[-82.71205,8.71267],[-82.7121,8.71635],[-82.7092,8.71509],[-82.70622,8.71871],[-82.70063,8.71789],[-82.6944,8.72692]]]}},{"type":"Feature","properties":{"corregimiento":"Santa Rosa","distrito":"Bugaba","provincia":"Chiriquí","bbox":[-82.71391,8.55042,-82.64568,8.67284]},"geometry":{"type":"Polygon","coordinates":[[[-82.64568,8.66132],[-82.64808,8.65365],[-82.64632,8.6469],[-82.65009,8.64292],[-82.65109,8.6327],[-82.66053,8.61534],[-82.6657,8.61263],[-82.66569,8.60171],[-82.6697,8.59902],[-82.67003,8.59193],[-82.67346,8.58786],[-82.67171,8.58278],[-82.66852,8.58241],[-82.67071,8.57852],[-82.66594,8.56959],[-82.66463,8.55539],[-82.66758,8.55042],[-82.67432,8.55966],[-82.69008,8.56469],[-82.69766,8.57473],[-82.71116,8.5788],[-82.71391,8.58301],[-82.70809,8.5904],[-82.70669,8.59955],[-82.70337,8.6009],[-82.70537,8.60252],[-82.70357,8.61181],[-82.69811,8.6142],[-82.69575,8.61842],[-82.69734,8.62069],[-82.69292,8.6252],[-82.69518,8.63247],[-82.69004,8.64058],[-82.6915,8.64404],[-82.68062,8.65005],[-82.67871,8.6581],[-82.67477,8.65951],[-82.67414,8.67054],[-82.65714,8.67284],[-82.64568,8.66132]]]}},{"type":"Feature","properties":{"corregimiento":"Sortová","distrito":"Bugaba","provincia":"Chiriquí","bbox":[-82.67346,8.5253,-82.63014,8.64103]},"geometry":{"type":"Polygon","coordinates":[[[-82.66246,8.5253],[-82.66186,8.52937],[-82.66434,8.53067],[-82.66232,8.53185],[-82.66585,8.53402],[-82.66615,8.54275],[-82.66908,8.54577],[-82.66463,8.55539],[-82.66594,8.56959],[-82.67071,8.57852],[-82.66852,8.58241],[-82.67171,8.58278],[-82.67346,8.58786],[-82.67003,8.59193],[-82.6697,8.59902],[-82.66569,8.60171],[-82.6657,8.61263],[-82.65615,8.62205],[-82.65121,8.63812],[-82.64293,8.64103],[-82.63938,8.6399],[-82.63967,8.63363],[-82.63162,8.61901],[-82.63938,8.61336],[-82.64046,8.57654],[-82.64269,8.57325],[-82.63544,8.56313],[-82.6359,8.55711],[-82.63014,8.54157],[-82.65211,8.54248],[-82.66246,8.5253]]]}},{"type":"Feature","properties":{"corregimiento":"El Bongo","distrito":"Bugaba","provincia":"Chiriquí","bbox":[-82.63564,8.53575,-82.59154,8.66667]},"geometry":{"type":"Polygon","coordinates":[[[-82.60528,8.66553],[-82.59721,8.65015],[-82.59798,8.64262],[-82.59154,8.61962],[-82.59473,8.6162],[-82.59602,8.58334],[-82.61054,8.54949],[-82.60989,8.53575],[-82.61495,8.53583],[-82.62036,8.54206],[-82.62671,8.57227],[-82.63564,8.58707],[-82.6332,8.59956],[-82.62451,8.60941],[-82.62736,8.62186],[-82.62306,8.64018],[-82.62537,8.64469],[-82.62185,8.6566],[-82.6247,8.65947],[-82.62397,8.66667],[-82.60528,8.66553]]]}},{"type":"Feature","properties":{"corregimiento":"Solano","distrito":"Bugaba","provincia":"Chiriquí","bbox":[-82.6166,8.504,-82.60438,8.53583]},"geometry":{"type":"Polygon","coordinates":[[[-82.60989,8.53575],[-82.60614,8.53152],[-82.60438,8.52195],[-82.60737,8.51614],[-82.60577,8.504],[-82.6166,8.51059],[-82.61275,8.53352],[-82.61495,8.53583],[-82.60989,8.53575]]]}}]}