{"type":"FeatureCollection","features":[{"type":"Feature","properties":{"corregimiento":"Chiriquí","distrito":"David","provincia":"Chiriquí","bbox":[-82.39865,8.29009,-82.20468,8.44175]},"geometry":{"type":"Polygon","coordinates":[[[-82.20468,8.42819],[-82.20904,8.42282],[-82.22131,8.41929],[-82.22289,8.4135],[-82.22052,8.40497],[-82.21395,8.40056],[-82.21394,8.38956],[-82.20874,8.3867],[-82.2117,8.3799],[-82.20933,8.37777],[-82.21926,8.37298],[-82.21735,8.36592],[-82.22453,8.35355],[-82.22268,8.34845],[-82.23478,8.33696],[-82.237,8.32713],[-82.24079,8.32565],[-82.23776,8.31939],[-82.24104,8.31713],[-82.24468,8.30218],[-82.25534,8.29577],[-82.26681,8.29603],[-82.2696,8.29009],[-82.28534,8.30619],[-82.29463,8.31025],[-82.30497,8.31003],[-82.3078,8.31723],[-82.30611,8.32178],[-82.30959,8.32527],[-82.32654,8.32942],[-82.33133,8.32348],[-82.33911,8.32276],[-82.34289,8.33029],[-82.3493,8.33287],[-82.36495,8.3266],[-82.37035,8.33369],[-82.37687,8.33617],[-82.38368,8.3268],[-82.38924,8.32966],[-82.38562,8.33037],[-82.38542,8.33326],[-82.39521,8.3331],[-82.39002,8.33615],[-82.38984,8.34009],[-82.39445,8.34223],[-82.39865,8.33895],[-82.39622,8.3713],[-82.38589,8.37707],[-82.38351,8.3909],[-82.37974,8.39031],[-82.37547,8.38282],[-82.37096,8.38106],[-82.3718,8.39008],[-82.36473,8.39349],[-82.36187,8.40454],[-82.34485,8.41328],[-82.33085,8.41235],[-82.32646,8.42485],[-82.31241,8.42693],[-82.31008,8.43149],[-82.30085,8.43499],[-82.29298,8.43426],[-82.29253,8.43918],[-82.28883,8.44175],[-82.28678,8.43311],[-82.27876,8.43419],[-82.27295,8.43866],[-82.26477,8.43313],[-82.26386,8.42911],[-82.26009,8.43057],[-82.25377,8.42623],[-82.24702,8.43214],[-82.24322,8.42702],[-82.23851,8.42653],[-82.20468,8.42819]]]}},{"type":"Feature","properties":{"corregimiento":"Las Lomas","distrito":"David","provincia":"Chiriquí","bbox":[-82.4147,8.37375,-82.31336,8.51009]},"geometry":{"type":"Polygon","coordinates":[[[-82.36533,8.48864],[-82.36057,8.48012],[-82.36503,8.47601],[-82.36774,8.4654],[-82.36432,8.45807],[-82.35633,8.45503],[-82.34834,8.4444],[-82.33415,8.44612],[-82.31336,8.43794],[-82.32037,8.43628],[-82.3267,8.4279],[-82.32761,8.41667],[-82.33071,8.41244],[-82.34485,8.41328],[-82.36011,8.40602],[-82.36372,8.40216],[-82.36473,8.39349],[-82.3718,8.39008],[-82.36999,8.38179],[-82.37526,8.38263],[-82.38288,8.3913],[-82.38564,8.37747],[-82.39292,8.37375],[-82.39466,8.38723],[-82.39101,8.38769],[-82.39493,8.39213],[-82.39207,8.39418],[-82.39374,8.39713],[-82.39671,8.39316],[-82.39907,8.39529],[-82.38793,8.39957],[-82.3878,8.4049],[-82.39002,8.4049],[-82.39067,8.40039],[-82.39397,8.40485],[-82.39384,8.41291],[-82.39815,8.41395],[-82.39877,8.41671],[-82.40996,8.41497],[-82.4147,8.42301],[-82.40978,8.43677],[-82.41283,8.46102],[-82.40767,8.46562],[-82.41062,8.47732],[-82.40611,8.48258],[-82.40946,8.49266],[-82.40505,8.50198],[-82.40658,8.50603],[-82.39853,8.51009],[-82.39684,8.50814],[-82.39068,8.51002],[-82.3871,8.50756],[-82.38119,8.49297],[-82.37435,8.49471],[-82.36533,8.48864]]]}},{"type":"Feature","properties":{"corregimiento":"Pedregal","distrito":"David","provincia":"Chiriquí","bbox":[-82.46459,8.08672,-82.29526,8.3931]},"geometry":{"type":"MultiPolygon","coordinates":[[[[-82.33109,8.31725],[-82.31279,8.31141],[-82.30681,8.29619],[-82.29526,8.28637],[-82.30047,8.2829],[-82.31194,8.28799],[-82.32602,8.28769],[-82.33539,8.29135],[-82.33933,8.30557],[-82.33109,8.31725]]],[[[-82.35842,8.27967],[-82.34359,8.26677],[-82.34651,8.26232],[-82.3506,8.26171],[-82.3444,8.25901],[-82.34795,8.25443],[-82.3429,8.25582],[-82.34174,8.25898],[-82.31742,8.24946],[-82.31585,8.24606],[-82.32856,8.24753],[-82.33018,8.24386],[-82.32379,8.23953],[-82.32884,8.23477],[-82.35195,8.2347],[-82.3537,8.23653],[-82.35037,8.23708],[-82.35632,8.23765],[-82.37374,8.23475],[-82.37568,8.23353],[-82.37357,8.22953],[-82.38667,8.22509],[-82.39029,8.21977],[-82.4331,8.25746],[-82.43113,8.26075],[-82.42184,8.25709],[-82.40611,8.25976],[-82.40275,8.25746],[-82.40039,8.26237],[-82.38845,8.26877],[-82.38557,8.27544],[-82.38022,8.27411],[-82.37822,8.27056],[-82.37465,8.27795],[-82.36752,8.27221],[-82.35842,8.27967]]],[[[-82.32114,8.14202],[-82.32356,8.13899],[-82.31865,8.13596],[-82.32398,8.13268],[-82.32117,8.1301],[-82.32649,8.13003],[-82.32943,8.12281],[-82.32452,8.11738],[-82.32757,8.1155],[-82.32767,8.11119],[-82.31894,8.10509],[-82.32224,8.10439],[-82.33229,8.11123],[-82.33417,8.11005],[-82.32929,8.1067],[-82.33634,8.10745],[-82.33034,8.10395],[-82.32645,8.09315],[-82.33062,8.0959],[-82.3426,8.09639],[-82.3396,8.09039],[-82.34447,8.08672],[-82.3451,8.09259],[-82.34933,8.09412],[-82.35196,8.09316],[-82.3511,8.09113],[-82.35293,8.09016],[-82.35186,8.09204],[-82.35681,8.09416],[-82.35555,8.09734],[-82.3581,8.09842],[-82.36138,8.09892],[-82.36709,8.09058],[-82.3698,8.09846],[-82.3653,8.10005],[-82.36572,8.10363],[-82.36267,8.10519],[-82.36473,8.11217],[-82.34534,8.11885],[-82.34419,8.12224],[-82.34779,8.1258],[-82.34619,8.13396],[-82.33698,8.1375],[-82.3369,8.13331],[-82.32114,8.14202]]],[[[-82.36968,8.28956],[-82.35313,8.28513],[-82.34711,8.28876],[-82.34182,8.28645],[-82.33836,8.28863],[-82.33146,8.28264],[-82.32459,8.28335],[-82.31935,8.27789],[-82.32004,8.26936],[-82.32971,8.25674],[-82.34138,8.26143],[-82.34221,8.26831],[-82.34962,8.27676],[-82.35829,8.28116],[-82.36535,8.27768],[-82.37417,8.2883],[-82.38104,8.28564],[-82.39591,8.2683],[-82.41055,8.26226],[-82.41755,8.26394],[-82.4212,8.27404],[-82.39738,8.27881],[-82.39393,8.28694],[-82.38756,8.28559],[-82.36968,8.28956]]],[[[-82.42134,8.39229],[-82.41448,8.3758],[-82.41077,8.3754],[-82.41271,8.37086],[-82.40836,8.37005],[-82.41372,8.36636],[-82.41323,8.36335],[-82.41565,8.36365],[-82.41573,8.35481],[-82.41745,8.3582],[-82.42047,8.35403],[-82.42367,8.3559],[-82.42466,8.34751],[-82.43214,8.34719],[-82.42996,8.34532],[-82.43215,8.3432],[-82.43122,8.33334],[-82.43648,8.33007],[-82.42601,8.32691],[-82.42463,8.33624],[-82.4154,8.33487],[-82.41002,8.34719],[-82.40369,8.33811],[-82.39661,8.33877],[-82.39445,8.34223],[-82.38984,8.34009],[-82.39002,8.33615],[-82.39521,8.3331],[-82.38542,8.33326],[-82.38562,8.33037],[-82.38924,8.32966],[-82.38385,8.32684],[-82.37702,8.33616],[-82.37056,8.33386],[-82.3646,8.32655],[-82.35389,8.3323],[-82.34543,8.33212],[-82.34081,8.32686],[-82.33745,8.3144],[-82.35069,8.28924],[-82.3583,8.29311],[-82.37862,8.29042],[-82.39116,8.29346],[-82.41415,8.28422],[-82.41976,8.28658],[-82.41984,8.2919],[-82.43629,8.29795],[-82.44259,8.31765],[-82.44761,8.31712],[-82.45137,8.313],[-82.44948,8.30992],[-82.45239,8.30609],[-82.45851,8.30939],[-82.4591,8.30649],[-82.46459,8.31303],[-82.46231,8.32739],[-82.45668,8.32578],[-82.45539,8.32769],[-82.46095,8.33489],[-82.45595,8.33812],[-82.46081,8.33877],[-82.45602,8.34202],[-82.45913,8.34377],[-82.45706,8.34856],[-82.46105,8.36666],[-82.45985,8.36425],[-82.44866,8.362],[-82.44933,8.35271],[-82.44463,8.35471],[-82.43993,8.35239],[-82.43995,8.35519],[-82.43756,8.35284],[-82.43539,8.36085],[-82.43961,8.35868],[-82.44345,8.36145],[-82.43831,8.36304],[-82.44108,8.37012],[-82.43291,8.37562],[-82.43258,8.37924],[-82.43459,8.3748],[-82.43778,8.37848],[-82.43718,8.38275],[-82.42903,8.3931],[-82.42134,8.39229]]]]}},{"type":"Feature","properties":{"corregimiento":"San Pablo Nuevo","distrito":"David","provincia":"Chiriquí","bbox":[-82.53452,8.31303,-82.43524,8.46391]},"geometry":{"type":"Polygon","coordinates":[[[-82.46563,8.40134],[-82.46642,8.39821],[-82.45942,8.38694],[-82.46534,8.37923],[-82.46742,8.37982],[-82.4632,8.37641],[-82.46478,8.36862],[-82.44977,8.36676],[-82.44507,8.37113],[-82.44621,8.36541],[-82.44149,8.36647],[-82.44154,8.37],[-82.43834,8.36374],[-82.44304,8.36044],[-82.43954,8.35868],[-82.43524,8.36055],[-82.43756,8.35284],[-82.43995,8.35519],[-82.43993,8.35239],[-82.44463,8.35471],[-82.44904,8.35262],[-82.44866,8.362],[-82.45985,8.36425],[-82.46105,8.36666],[-82.45706,8.34856],[-82.45913,8.34377],[-82.45602,8.34202],[-82.46081,8.33877],[-82.45595,8.33812],[-82.46095,8.33489],[-82.45539,8.32769],[-82.45668,8.32578],[-82.46231,8.32739],[-82.46459,8.31303],[-82.46903,8.31485],[-82.46903,8.32143],[-82.47353,8.31933],[-82.4766,8.3224],[-82.47401,8.32665],[-82.47975,8.33089],[-82.47341,8.34168],[-82.47922,8.34309],[-82.48365,8.35054],[-82.48959,8.34944],[-82.49037,8.36198],[-82.50044,8.36124],[-82.5065,8.36503],[-82.50698,8.3892],[-82.5116,8.39683],[-82.51024,8.40045],[-82.51549,8.40295],[-82.53446,8.40083],[-82.52684,8.40454],[-82.5245,8.41232],[-82.52548,8.42804],[-82.53452,8.45341],[-82.52055,8.46391],[-82.52196,8.46199],[-82.51703,8.45334],[-82.50698,8.44177],[-82.50515,8.4442],[-82.5024,8.44298],[-82.50354,8.43843],[-82.4974,8.43501],[-82.49981,8.43054],[-82.49638,8.42762],[-82.49272,8.42976],[-82.48611,8.42764],[-82.4835,8.41842],[-82.47867,8.4146],[-82.47963,8.41081],[-82.47089,8.40618],[-82.46879,8.4077],[-82.47204,8.40236],[-82.46919,8.39871],[-82.46563,8.40134]]]}},{"type":"Feature","properties":{"corregimiento":"David Este","distrito":"David","provincia":"Chiriquí","bbox":[-82.43648,8.32619,-82.38774,8.42823]},"geometry":{"type":"Polygon","coordinates":[[[-82.41457,8.42402],[-82.41412,8.41879],[-82.40996,8.41497],[-82.39877,8.41671],[-82.39815,8.41395],[-82.39384,8.41291],[-82.39388,8.40459],[-82.39012,8.40032],[-82.38807,8.40524],[-82.38774,8.4],[-82.39907,8.39531],[-82.39678,8.39314],[-82.39352,8.39703],[-82.39207,8.39387],[-82.39491,8.39191],[-82.39101,8.38762],[-82.39465,8.38726],[-82.39196,8.37592],[-82.39628,8.37105],[-82.39795,8.33977],[-82.4046,8.33855],[-82.40771,8.34611],[-82.4107,8.34698],[-82.41454,8.33566],[-82.41823,8.334],[-82.42418,8.33662],[-82.42458,8.32863],[-82.42917,8.32619],[-82.43648,8.33007],[-82.43122,8.33334],[-82.43215,8.3432],[-82.42996,8.34532],[-82.43214,8.34719],[-82.42466,8.34751],[-82.42367,8.3559],[-82.42047,8.35403],[-82.41745,8.3582],[-82.41573,8.35481],[-82.41565,8.36365],[-82.41323,8.36335],[-82.41372,8.36636],[-82.40836,8.37005],[-82.41271,8.37086],[-82.41077,8.3754],[-82.41421,8.37552],[-82.41503,8.37965],[-82.4186,8.38137],[-82.42134,8.39229],[-82.42738,8.39343],[-82.43231,8.41681],[-82.42345,8.42823],[-82.41457,8.42402]]]}},{"type":"Feature","properties":{"corregimiento":"David Sur","distrito":"David","provincia":"Chiriquí","bbox":[-82.46742,8.36521,-82.42737,8.43562]},"geometry":{"type":"Polygon","coordinates":[[[-82.42747,8.42304],[-82.43231,8.41681],[-82.42737,8.39334],[-82.43785,8.38104],[-82.435,8.37485],[-82.43258,8.37924],[-82.43337,8.37447],[-82.44225,8.36991],[-82.44149,8.36647],[-82.44541,8.36521],[-82.44515,8.37115],[-82.44977,8.36676],[-82.46448,8.36831],[-82.4632,8.37641],[-82.46742,8.37982],[-82.46534,8.37923],[-82.45942,8.38694],[-82.46642,8.39887],[-82.46097,8.41614],[-82.46254,8.41972],[-82.45882,8.42192],[-82.45979,8.42447],[-82.45422,8.42442],[-82.45173,8.42912],[-82.45415,8.43562],[-82.4422,8.43385],[-82.42747,8.42304]]]}},{"type":"Feature","properties":{"corregimiento":"David (Cabecera)","distrito":"David","provincia":"Chiriquí","bbox":[-82.45145,8.42304,-82.40743,8.48362]},"geometry":{"type":"Polygon","coordinates":[[[-82.41974,8.48264],[-82.40743,8.4713],[-82.40772,8.46536],[-82.41283,8.461],[-82.40978,8.43677],[-82.41452,8.42399],[-82.42345,8.42823],[-82.42747,8.42304],[-82.44214,8.43382],[-82.45145,8.43642],[-82.44416,8.43773],[-82.44356,8.44255],[-82.4348,8.44342],[-82.42852,8.4606],[-82.43135,8.4741],[-82.42981,8.48362],[-82.42673,8.47907],[-82.41974,8.48264]]]}},{"type":"Feature","properties":{"corregimiento":"San Carlos","distrito":"David","provincia":"Chiriquí","bbox":[-82.53585,8.43648,-82.42926,8.6328]},"geometry":{"type":"Polygon","coordinates":[[[-82.44076,8.48432],[-82.42981,8.48367],[-82.42926,8.45603],[-82.43374,8.45052],[-82.43497,8.44311],[-82.4436,8.44253],[-82.44416,8.43773],[-82.44778,8.43648],[-82.44932,8.45043],[-82.45427,8.45815],[-82.45048,8.46778],[-82.45366,8.47296],[-82.45947,8.4733],[-82.46568,8.47771],[-82.46444,8.48775],[-82.48862,8.50062],[-82.50739,8.50379],[-82.52235,8.51078],[-82.53034,8.51046],[-82.5245,8.51369],[-82.52532,8.53337],[-82.52322,8.53852],[-82.52577,8.54076],[-82.5232,8.55049],[-82.52546,8.57326],[-82.52973,8.5825],[-82.52964,8.59431],[-82.53478,8.60814],[-82.53585,8.63278],[-82.52883,8.6328],[-82.52324,8.61842],[-82.52051,8.59597],[-82.51605,8.58951],[-82.51357,8.57107],[-82.50941,8.56283],[-82.51031,8.55454],[-82.4994,8.53675],[-82.49558,8.52134],[-82.4919,8.52171],[-82.48291,8.51358],[-82.44924,8.49764],[-82.44076,8.49193],[-82.44076,8.48432]]]}},{"type":"Feature","properties":{"corregimiento":"San Pablo Viejo","distrito":"David","provincia":"Chiriquí","bbox":[-82.5317,8.39852,-82.44824,8.51078]},"geometry":{"type":"Polygon","coordinates":[[[-82.44824,8.43695],[-82.45419,8.43556],[-82.45173,8.42912],[-82.45422,8.42442],[-82.45979,8.42447],[-82.45882,8.42192],[-82.46254,8.41972],[-82.46097,8.41618],[-82.46411,8.40298],[-82.4689,8.39852],[-82.47204,8.40236],[-82.46879,8.4077],[-82.47089,8.40618],[-82.47963,8.41081],[-82.47867,8.4146],[-82.4835,8.41842],[-82.48616,8.42769],[-82.49272,8.42976],[-82.49638,8.42762],[-82.49981,8.43054],[-82.49726,8.4347],[-82.50359,8.43852],[-82.50234,8.44291],[-82.50515,8.4442],[-82.50708,8.44186],[-82.52193,8.46191],[-82.51902,8.46642],[-82.52309,8.46771],[-82.52033,8.48381],[-82.52261,8.49223],[-82.53002,8.5],[-82.5279,8.50404],[-82.5317,8.50918],[-82.52235,8.51078],[-82.50739,8.50379],[-82.48883,8.50069],[-82.46444,8.48775],[-82.46568,8.47771],[-82.45947,8.4733],[-82.45366,8.47296],[-82.45048,8.46778],[-82.45427,8.45815],[-82.44932,8.45043],[-82.44824,8.43695]]]}},{"type":"Feature","properties":{"corregimiento":"Bijagual","distrito":"David","provincia":"Chiriquí","bbox":[-82.37982,8.42472,-82.2841,8.59365]},"geometry":{"type":"Polygon","coordinates":[[[-82.33581,8.5912],[-82.32385,8.57549],[-82.32619,8.56026],[-82.32224,8.5508],[-82.32209,8.53378],[-82.31682,8.52925],[-82.31408,8.51411],[-82.30758,8.51092],[-82.3085,8.50582],[-82.30137,8.49887],[-82.30322,8.48367],[-82.2927,8.47555],[-82.2841,8.45788],[-82.28459,8.45232],[-82.29069,8.44827],[-82.29389,8.4403],[-82.29982,8.43508],[-82.31008,8.43149],[-82.31241,8.42693],[-82.32663,8.42472],[-82.32048,8.43619],[-82.31351,8.4386],[-82.33309,8.44423],[-82.33592,8.45354],[-82.35577,8.46946],[-82.35237,8.47439],[-82.35337,8.47808],[-82.34618,8.48258],[-82.35164,8.48802],[-82.34834,8.48983],[-82.35094,8.49071],[-82.34942,8.49509],[-82.35159,8.49694],[-82.34591,8.5016],[-82.35129,8.50676],[-82.34916,8.50782],[-82.35104,8.51333],[-82.34798,8.52146],[-82.35428,8.529],[-82.35546,8.54214],[-82.35941,8.54467],[-82.35932,8.54914],[-82.36358,8.55038],[-82.36415,8.55987],[-82.3753,8.56821],[-82.37454,8.572],[-82.37982,8.57962],[-82.36734,8.58585],[-82.35931,8.59365],[-82.34152,8.58556],[-82.33549,8.58605],[-82.33581,8.5912]]]}},{"type":"Feature","properties":{"corregimiento":"Cochea","distrito":"David","provincia":"Chiriquí","bbox":[-82.41353,8.44435,-82.33407,8.64783]},"geometry":{"type":"Polygon","coordinates":[[[-82.35578,8.61933],[-82.34104,8.602],[-82.34167,8.59802],[-82.33581,8.5912],[-82.33543,8.58613],[-82.34164,8.58558],[-82.35914,8.59369],[-82.36734,8.58585],[-82.37982,8.57962],[-82.37454,8.572],[-82.3753,8.56821],[-82.36415,8.55987],[-82.36358,8.55038],[-82.35932,8.54914],[-82.35941,8.54467],[-82.35546,8.54214],[-82.35428,8.529],[-82.34798,8.52146],[-82.35104,8.51333],[-82.34916,8.50782],[-82.35129,8.50676],[-82.34591,8.5016],[-82.35159,8.49694],[-82.34942,8.49509],[-82.35094,8.49071],[-82.34834,8.48983],[-82.35164,8.48802],[-82.34618,8.48258],[-82.35337,8.47808],[-82.35237,8.47439],[-82.3558,8.46957],[-82.33592,8.45354],[-82.33407,8.44635],[-82.34806,8.44435],[-82.35633,8.45503],[-82.36432,8.45807],[-82.36477,8.46319],[-82.36772,8.46488],[-82.36503,8.47601],[-82.36057,8.48012],[-82.36781,8.49319],[-82.3667,8.49865],[-82.37264,8.50263],[-82.36898,8.51539],[-82.37469,8.52287],[-82.3744,8.5327],[-82.38343,8.54044],[-82.39209,8.56207],[-82.40323,8.57456],[-82.41353,8.59472],[-82.39741,8.60605],[-82.39096,8.60636],[-82.37981,8.62033],[-82.39496,8.63273],[-82.393,8.64199],[-82.39602,8.64783],[-82.39193,8.6412],[-82.38631,8.63833],[-82.37369,8.6186],[-82.36658,8.61524],[-82.35578,8.61933]]]}},{"type":"Feature","properties":{"corregimiento":"Guacá","distrito":"David","provincia":"Chiriquí","bbox":[-82.55923,8.48423,-82.43549,8.77027]},"geometry":{"type":"Polygon","coordinates":[[[-82.50901,8.61804],[-82.50327,8.59726],[-82.4964,8.58895],[-82.49509,8.5806],[-82.49141,8.57862],[-82.49185,8.57391],[-82.4834,8.56742],[-82.47805,8.55574],[-82.46345,8.54388],[-82.4566,8.53175],[-82.45279,8.53052],[-82.45245,8.52657],[-82.44629,8.52134],[-82.45053,8.50107],[-82.44053,8.49776],[-82.43578,8.49174],[-82.43755,8.48836],[-82.43549,8.48423],[-82.44076,8.48432],[-82.44076,8.49193],[-82.44924,8.49764],[-82.48291,8.51358],[-82.4919,8.52171],[-82.49548,8.52123],[-82.4994,8.53675],[-82.51031,8.55454],[-82.50941,8.56283],[-82.51357,8.57107],[-82.51605,8.58951],[-82.52051,8.59597],[-82.52324,8.61842],[-82.52883,8.6328],[-82.53609,8.63348],[-82.55923,8.77027],[-82.53463,8.74714],[-82.53785,8.73736],[-82.53587,8.72203],[-82.53881,8.71225],[-82.53516,8.70085],[-82.53783,8.68915],[-82.53254,8.68214],[-82.52936,8.67359],[-82.53076,8.67036],[-82.52494,8.6609],[-82.52817,8.65732],[-82.52623,8.6565],[-82.52692,8.64797],[-82.5147,8.63269],[-82.51603,8.62736],[-82.50901,8.61804]]]}}]}