{"type":"FeatureCollection","features":[{"type":"Feature","properties":{"corregimiento":"Dolega (Cabecera)","distrito":"Dolega","provincia":"Chiriquí","bbox":[-82.47222,8.51417,-82.39111,8.61715]},"geometry":{"type":"Polygon","coordinates":[[[-82.42232,8.60264],[-82.41336,8.59564],[-82.41731,8.58461],[-82.4161,8.57576],[-82.40712,8.5691],[-82.40324,8.55216],[-82.39712,8.54325],[-82.39899,8.5416],[-82.39402,8.54028],[-82.39652,8.53699],[-82.39233,8.5324],[-82.39111,8.51976],[-82.39738,8.51976],[-82.39895,8.52414],[-82.399,8.51417],[-82.4051,8.52593],[-82.40651,8.54295],[-82.41318,8.55452],[-82.41579,8.55741],[-82.41877,8.55178],[-82.42502,8.55909],[-82.43371,8.55417],[-82.45638,8.59183],[-82.47222,8.60981],[-82.46853,8.61715],[-82.46823,8.61432],[-82.46548,8.61587],[-82.46578,8.6082],[-82.46328,8.61185],[-82.4591,8.60457],[-82.43785,8.58883],[-82.43692,8.59351],[-82.44794,8.60815],[-82.4346,8.60916],[-82.42929,8.60031],[-82.42129,8.60052],[-82.42232,8.60264]]]}},{"type":"Feature","properties":{"corregimiento":"Dos Ríos","distrito":"Dolega","provincia":"Chiriquí","bbox":[-82.41731,8.48864,-82.36533,8.59482]},"geometry":{"type":"Polygon","coordinates":[[[-82.36533,8.48864],[-82.37435,8.49471],[-82.38119,8.49297],[-82.3871,8.50756],[-82.39068,8.51002],[-82.40135,8.50863],[-82.39895,8.52414],[-82.39738,8.51976],[-82.3919,8.51897],[-82.39038,8.52404],[-82.39288,8.52343],[-82.39228,8.53226],[-82.39652,8.53699],[-82.39402,8.54028],[-82.39899,8.5416],[-82.39712,8.54325],[-82.40324,8.55216],[-82.40712,8.5691],[-82.4161,8.57576],[-82.41731,8.58461],[-82.41424,8.59482],[-82.40323,8.57456],[-82.39209,8.56207],[-82.38343,8.54044],[-82.3744,8.5327],[-82.37469,8.52287],[-82.36898,8.51539],[-82.37264,8.50263],[-82.3667,8.49865],[-82.36784,8.49332],[-82.36533,8.48864]]]}},{"type":"Feature","properties":{"corregimiento":"Potrerillos","distrito":"Dolega","provincia":"Chiriquí","bbox":[-82.52855,8.64957,-82.45,8.7804]},"geometry":{"type":"Polygon","coordinates":[[[-82.45869,8.69138],[-82.45883,8.68409],[-82.46249,8.68104],[-82.45901,8.67987],[-82.45635,8.67297],[-82.45786,8.67023],[-82.45373,8.66401],[-82.45634,8.66156],[-82.45308,8.66195],[-82.45396,8.65913],[-82.45,8.65764],[-82.45229,8.65336],[-82.45013,8.64957],[-82.48349,8.67446],[-82.49251,8.669],[-82.49638,8.67285],[-82.5067,8.67326],[-82.51107,8.69888],[-82.51346,8.6991],[-82.51328,8.71101],[-82.52636,8.73066],[-82.52855,8.77928],[-82.517,8.7804],[-82.50605,8.76586],[-82.50036,8.75],[-82.49167,8.74704],[-82.48369,8.73357],[-82.47281,8.72808],[-82.47326,8.72397],[-82.45869,8.69138]]]}},{"type":"Feature","properties":{"corregimiento":"Potrerillos Abajo","distrito":"Dolega","provincia":"Chiriquí","bbox":[-82.50974,8.58881,-82.42129,8.68388]},"geometry":{"type":"Polygon","coordinates":[[[-82.45013,8.64957],[-82.44884,8.6438],[-82.44583,8.64495],[-82.44588,8.64078],[-82.44133,8.63615],[-82.44232,8.63237],[-82.43609,8.62252],[-82.43586,8.6172],[-82.42397,8.60717],[-82.42129,8.60052],[-82.42929,8.60031],[-82.4346,8.60916],[-82.44794,8.60815],[-82.43692,8.59351],[-82.43763,8.58881],[-82.4591,8.60457],[-82.46328,8.61185],[-82.46578,8.6082],[-82.46526,8.61569],[-82.46829,8.61437],[-82.47048,8.62127],[-82.47472,8.62065],[-82.48614,8.62907],[-82.48584,8.63239],[-82.49491,8.64162],[-82.49817,8.65476],[-82.50259,8.65832],[-82.50974,8.67296],[-82.50917,8.68388],[-82.50569,8.67252],[-82.49638,8.67285],[-82.49251,8.669],[-82.48349,8.67446],[-82.45013,8.64957]]]}},{"type":"Feature","properties":{"corregimiento":"Rovira","distrito":"Dolega","provincia":"Chiriquí","bbox":[-82.55923,8.60436,-82.46853,8.77928]},"geometry":{"type":"Polygon","coordinates":[[[-82.51107,8.69888],[-82.50977,8.67304],[-82.50259,8.65832],[-82.49817,8.65476],[-82.49491,8.64162],[-82.48584,8.63239],[-82.48588,8.6288],[-82.47472,8.62065],[-82.47048,8.62127],[-82.46853,8.61715],[-82.4749,8.60436],[-82.48785,8.62331],[-82.48913,8.61869],[-82.49112,8.62051],[-82.49676,8.61851],[-82.50107,8.61173],[-82.50884,8.61094],[-82.50901,8.61804],[-82.51603,8.62736],[-82.5147,8.63269],[-82.52692,8.64797],[-82.52623,8.6565],[-82.52817,8.65732],[-82.52494,8.6609],[-82.53076,8.67036],[-82.52936,8.67359],[-82.53254,8.68214],[-82.53783,8.68915],[-82.53516,8.70085],[-82.53881,8.71225],[-82.53587,8.72203],[-82.53785,8.73736],[-82.53463,8.74714],[-82.55923,8.77027],[-82.52855,8.77928],[-82.52636,8.73066],[-82.51334,8.7112],[-82.51346,8.6991],[-82.51107,8.69888]]]}},{"type":"Feature","properties":{"corregimiento":"Tinajas","distrito":"Dolega","provincia":"Chiriquí","bbox":[-82.50972,8.4973,-82.4339,8.62331]},"geometry":{"type":"Polygon","coordinates":[[[-82.4749,8.60436],[-82.46037,8.5737],[-82.46124,8.57042],[-82.45701,8.56706],[-82.45831,8.56367],[-82.45248,8.55618],[-82.45443,8.55368],[-82.44285,8.53745],[-82.44196,8.52978],[-82.43608,8.52337],[-82.4339,8.52457],[-82.44028,8.4973],[-82.45058,8.50128],[-82.44629,8.52134],[-82.45245,8.52657],[-82.45279,8.53052],[-82.4566,8.53175],[-82.46345,8.54388],[-82.47805,8.55574],[-82.4834,8.56742],[-82.48956,8.57073],[-82.49881,8.59411],[-82.50972,8.6091],[-82.50107,8.61173],[-82.49683,8.61848],[-82.49112,8.62051],[-82.48913,8.61869],[-82.48785,8.62331],[-82.4749,8.60436]]]}},{"type":"Feature","properties":{"corregimiento":"Los Algarrobos","distrito":"Dolega","provincia":"Chiriquí","bbox":[-82.47433,8.47373,-82.40607,8.60981]},"geometry":{"type":"Polygon","coordinates":[[[-82.43371,8.55417],[-82.42418,8.53152],[-82.4172,8.52093],[-82.41308,8.51949],[-82.41566,8.51272],[-82.41331,8.51155],[-82.41347,8.50588],[-82.40836,8.50269],[-82.4103,8.49551],[-82.40607,8.4833],[-82.41057,8.47759],[-82.41001,8.47373],[-82.41974,8.48264],[-82.42673,8.47907],[-82.4277,8.48332],[-82.4368,8.48566],[-82.43578,8.49174],[-82.44028,8.4973],[-82.4339,8.52457],[-82.43608,8.52337],[-82.44196,8.52978],[-82.44285,8.53745],[-82.45443,8.55368],[-82.45245,8.55606],[-82.45836,8.56379],[-82.45701,8.56706],[-82.46115,8.57024],[-82.46037,8.5737],[-82.47433,8.60044],[-82.47222,8.60981],[-82.45638,8.59183],[-82.43371,8.55417]]]}},{"type":"Feature","properties":{"corregimiento":"Los Anastacios","distrito":"Dolega","provincia":"Chiriquí","bbox":[-82.43348,8.4931,-82.399,8.55905]},"geometry":{"type":"Polygon","coordinates":[[[-82.399,8.51417],[-82.40096,8.50899],[-82.40658,8.50603],[-82.40505,8.50198],[-82.4094,8.4931],[-82.40836,8.50269],[-82.41347,8.50588],[-82.41331,8.51155],[-82.41566,8.51272],[-82.41308,8.51949],[-82.4172,8.52093],[-82.42418,8.53152],[-82.43348,8.5544],[-82.42355,8.55905],[-82.4184,8.55168],[-82.41523,8.55707],[-82.40651,8.54295],[-82.4051,8.52593],[-82.399,8.51417]]]}}]}