{"type":"FeatureCollection","features":[{"type":"Feature","properties":{"corregimiento":"Gualaca","distrito":"Gualaca","provincia":"Chiriquí","bbox":[-82.34161,8.47037,-82.14936,8.66232]},"geometry":{"type":"Polygon","coordinates":[[[-82.1579,8.65337],[-82.15918,8.61201],[-82.15369,8.61138],[-82.14936,8.60246],[-82.15185,8.59945],[-82.15215,8.58846],[-82.16058,8.58635],[-82.15915,8.58044],[-82.16306,8.57877],[-82.16236,8.57416],[-82.17886,8.56785],[-82.1859,8.56822],[-82.19577,8.57376],[-82.21516,8.56826],[-82.22481,8.56916],[-82.22923,8.56611],[-82.23523,8.55031],[-82.24335,8.54074],[-82.23741,8.53164],[-82.24053,8.51748],[-82.23446,8.51525],[-82.23192,8.4963],[-82.24067,8.49149],[-82.2422,8.50259],[-82.25355,8.49684],[-82.26731,8.49555],[-82.26864,8.49923],[-82.27441,8.49904],[-82.26824,8.49138],[-82.27002,8.48964],[-82.28226,8.49236],[-82.27866,8.48111],[-82.28747,8.47879],[-82.28686,8.47301],[-82.28951,8.47037],[-82.30322,8.48367],[-82.30137,8.49887],[-82.3085,8.50582],[-82.30758,8.51092],[-82.31408,8.51411],[-82.31682,8.52925],[-82.32195,8.53334],[-82.32224,8.5508],[-82.32619,8.56026],[-82.32308,8.57281],[-82.34161,8.59787],[-82.34051,8.60807],[-82.32619,8.61769],[-82.32542,8.62596],[-82.32132,8.63275],[-82.31875,8.6308],[-82.31239,8.63432],[-82.2986,8.63465],[-82.28863,8.62276],[-82.28222,8.63026],[-82.27959,8.63884],[-82.26676,8.64775],[-82.26125,8.64298],[-82.2441,8.63901],[-82.23736,8.64195],[-82.23582,8.64549],[-82.21024,8.64855],[-82.20651,8.65188],[-82.20065,8.64947],[-82.1828,8.64971],[-82.16728,8.66232],[-82.1579,8.65337]]]}},{"type":"Feature","properties":{"corregimiento":"Los Ángeles","distrito":"Gualaca","provincia":"Chiriquí","bbox":[-82.2427,8.47232,-82.1269,8.57421]},"geometry":{"type":"Polygon","coordinates":[[[-82.17782,8.47856],[-82.18999,8.47232],[-82.213,8.48801],[-82.21657,8.49206],[-82.21492,8.49741],[-82.21806,8.50399],[-82.22539,8.50533],[-82.22916,8.50151],[-82.23351,8.50247],[-82.23453,8.5154],[-82.24052,8.51744],[-82.23732,8.5312],[-82.2427,8.54244],[-82.23523,8.55031],[-82.22929,8.56606],[-82.22492,8.56912],[-82.21516,8.56826],[-82.19577,8.57376],[-82.1859,8.56822],[-82.17886,8.56785],[-82.16471,8.5737],[-82.17489,8.55329],[-82.16764,8.53227],[-82.16464,8.53028],[-82.16269,8.54015],[-82.15936,8.54078],[-82.16432,8.55698],[-82.16034,8.57145],[-82.15094,8.57421],[-82.14722,8.57171],[-82.14726,8.56527],[-82.14389,8.56272],[-82.13627,8.57099],[-82.1269,8.57151],[-82.12793,8.55826],[-82.13109,8.55804],[-82.13117,8.563],[-82.13855,8.56101],[-82.13675,8.55612],[-82.14365,8.55452],[-82.14855,8.53815],[-82.15723,8.53594],[-82.15758,8.5317],[-82.15106,8.52699],[-82.14838,8.51894],[-82.15097,8.51568],[-82.15826,8.51434],[-82.16111,8.5041],[-82.17708,8.49252],[-82.17972,8.48203],[-82.17782,8.47856]]]}},{"type":"Feature","properties":{"corregimiento":"Paja de Sombrero","distrito":"Gualaca","provincia":"Chiriquí","bbox":[-82.36047,8.60115,-82.23149,8.69411]},"geometry":{"type":"Polygon","coordinates":[[[-82.29224,8.68912],[-82.27752,8.68169],[-82.27719,8.67647],[-82.25861,8.66476],[-82.25166,8.64837],[-82.23149,8.64642],[-82.2441,8.63901],[-82.26125,8.64298],[-82.2668,8.64773],[-82.27959,8.63884],[-82.28222,8.63026],[-82.28863,8.62276],[-82.2986,8.63465],[-82.31239,8.63432],[-82.31875,8.6308],[-82.32132,8.63275],[-82.32542,8.62596],[-82.32616,8.61773],[-82.34051,8.60807],[-82.34075,8.60115],[-82.35816,8.62082],[-82.35702,8.62481],[-82.36047,8.62843],[-82.35639,8.63057],[-82.35702,8.64054],[-82.35006,8.64758],[-82.34463,8.64578],[-82.34483,8.64977],[-82.34207,8.65107],[-82.34176,8.65436],[-82.35125,8.6623],[-82.34669,8.67078],[-82.3462,8.68022],[-82.33415,8.68108],[-82.33339,8.68747],[-82.31172,8.69411],[-82.29224,8.68912]]]}},{"type":"Feature","properties":{"corregimiento":"Rincón","distrito":"Gualaca","provincia":"Chiriquí","bbox":[-82.29982,8.42623,-82.18999,8.50423]},"geometry":{"type":"Polygon","coordinates":[[[-82.18999,8.47232],[-82.19824,8.46186],[-82.20481,8.46657],[-82.21177,8.46038],[-82.20468,8.42819],[-82.23851,8.42653],[-82.24322,8.42702],[-82.24702,8.43214],[-82.25377,8.42623],[-82.26009,8.43057],[-82.26386,8.42911],[-82.26477,8.43313],[-82.27295,8.43866],[-82.27876,8.43419],[-82.28678,8.43311],[-82.28883,8.44175],[-82.29253,8.43918],[-82.29284,8.43434],[-82.29982,8.43508],[-82.2842,8.45341],[-82.28951,8.47037],[-82.28686,8.47301],[-82.28747,8.47879],[-82.27866,8.48111],[-82.28226,8.49236],[-82.27002,8.48964],[-82.26818,8.49153],[-82.27325,8.49951],[-82.26855,8.49918],[-82.26571,8.49552],[-82.25327,8.49689],[-82.2422,8.50259],[-82.24067,8.49149],[-82.232,8.4962],[-82.23206,8.50184],[-82.228,8.50423],[-82.21806,8.50399],[-82.21492,8.49741],[-82.21657,8.49206],[-82.213,8.48801],[-82.18999,8.47232]]]}},{"type":"Feature","properties":{"corregimiento":"Hornito","distrito":"Gualaca","provincia":"Chiriquí","bbox":[-82.29224,8.64642,-82.15732,8.78652]},"geometry":{"type":"Polygon","coordinates":[[[-82.15732,8.76825],[-82.15757,8.75342],[-82.16011,8.75567],[-82.16271,8.75648],[-82.16345,8.75825],[-82.16381,8.75851],[-82.1668,8.75839],[-82.1697,8.75594],[-82.18003,8.7597],[-82.18576,8.75814],[-82.18731,8.76303],[-82.18997,8.76252],[-82.18693,8.75988],[-82.18905,8.7578],[-82.18617,8.75469],[-82.18806,8.7518],[-82.18893,8.75411],[-82.1939,8.75412],[-82.19418,8.75918],[-82.20363,8.76408],[-82.20182,8.76714],[-82.20245,8.76907],[-82.20298,8.76997],[-82.20608,8.77143],[-82.20259,8.76898],[-82.20452,8.76346],[-82.1976,8.75541],[-82.19976,8.75593],[-82.19921,8.75214],[-82.20396,8.75591],[-82.20712,8.75543],[-82.21061,8.75283],[-82.20364,8.75416],[-82.20194,8.74987],[-82.20678,8.74458],[-82.20883,8.7464],[-82.2143,8.74346],[-82.21452,8.74687],[-82.21517,8.74269],[-82.21776,8.74264],[-82.21666,8.73538],[-82.21888,8.74053],[-82.22783,8.73757],[-82.22831,8.73981],[-82.23452,8.73966],[-82.23504,8.74309],[-82.23924,8.74205],[-82.23883,8.74543],[-82.24198,8.7429],[-82.24719,8.74598],[-82.25042,8.74014],[-82.24345,8.73964],[-82.24339,8.73721],[-82.24037,8.73887],[-82.23198,8.73419],[-82.23255,8.72608],[-82.23138,8.72379],[-82.23047,8.72303],[-82.22909,8.72287],[-82.22961,8.7217],[-82.2293,8.72051],[-82.22875,8.71972],[-82.22762,8.71932],[-82.22716,8.71858],[-82.22944,8.7174],[-82.22976,8.71671],[-82.22729,8.71793],[-82.22705,8.71871],[-82.22897,8.72298],[-82.23139,8.72406],[-82.2318,8.72726],[-82.22619,8.73242],[-82.22426,8.73006],[-82.22065,8.73176],[-82.21929,8.72763],[-82.2149,8.72686],[-82.20966,8.73553],[-82.21179,8.73826],[-82.20731,8.73418],[-82.20751,8.72926],[-82.21051,8.72659],[-82.21061,8.72613],[-82.2104,8.72523],[-82.20745,8.72266],[-82.20361,8.72104],[-82.21048,8.72625],[-82.20708,8.72921],[-82.20611,8.73392],[-82.20562,8.72962],[-82.20231,8.7303],[-82.20423,8.73339],[-82.19884,8.74851],[-82.19232,8.74676],[-82.18478,8.74886],[-82.18482,8.75167],[-82.1797,8.75472],[-82.17791,8.75285],[-82.17628,8.75224],[-82.17575,8.75357],[-82.17553,8.75128],[-82.17517,8.75079],[-82.16955,8.74855],[-82.17573,8.75373],[-82.17767,8.7532],[-82.17852,8.75596],[-82.17673,8.75509],[-82.17515,8.75492],[-82.1783,8.75837],[-82.16962,8.75571],[-82.1639,8.75837],[-82.16276,8.75629],[-82.15941,8.75502],[-82.15757,8.75326],[-82.1579,8.65337],[-82.16721,8.66232],[-82.18296,8.64967],[-82.20065,8.64947],[-82.20616,8.65191],[-82.21024,8.64855],[-82.23149,8.64642],[-82.25166,8.64837],[-82.25861,8.66476],[-82.27719,8.67647],[-82.27752,8.68169],[-82.28701,8.68732],[-82.29092,8.68684],[-82.29224,8.68912],[-82.28522,8.69532],[-82.28851,8.69966],[-82.28687,8.70536],[-82.29069,8.70926],[-82.29059,8.7238],[-82.28439,8.73193],[-82.2847,8.74204],[-82.27768,8.75204],[-82.26798,8.75938],[-82.26699,8.76457],[-82.2587,8.77418],[-82.25929,8.78068],[-82.25143,8.78087],[-82.23623,8.77424],[-82.23142,8.77794],[-82.22821,8.78567],[-82.21756,8.78652],[-82.19643,8.77101],[-82.18495,8.77131],[-82.18187,8.76399],[-82.17431,8.76724],[-82.16751,8.76616],[-82.16416,8.76991],[-82.15732,8.76825]]]}}]}