{"type":"FeatureCollection","features":[{"type":"Feature","properties":{"corregimiento":"Remedios (Cabecera)","distrito":"Remedios","provincia":"Chiriquí","bbox":[-81.86643,8.12817,-81.75924,8.27362]},"geometry":{"type":"Polygon","coordinates":[[[-81.84123,8.24844],[-81.83455,8.23128],[-81.82063,8.22284],[-81.81548,8.22356],[-81.81972,8.21609],[-81.80863,8.20688],[-81.80266,8.18868],[-81.79247,8.18642],[-81.79471,8.17716],[-81.78792,8.17512],[-81.78659,8.15967],[-81.7618,8.15219],[-81.7604,8.14319],[-81.76402,8.14034],[-81.75924,8.14002],[-81.76488,8.12942],[-81.7715,8.12817],[-81.78727,8.13393],[-81.79767,8.14096],[-81.79925,8.14632],[-81.81816,8.15455],[-81.84423,8.16091],[-81.84248,8.16605],[-81.83999,8.16612],[-81.8392,8.16118],[-81.83671,8.16667],[-81.84043,8.17353],[-81.84085,8.18125],[-81.83796,8.1805],[-81.83565,8.18358],[-81.83826,8.18776],[-81.83408,8.18868],[-81.82999,8.18481],[-81.82737,8.18664],[-81.83168,8.18754],[-81.82848,8.19353],[-81.82454,8.19018],[-81.82453,8.20218],[-81.82797,8.20436],[-81.83164,8.20081],[-81.83229,8.21404],[-81.83766,8.21738],[-81.83722,8.22254],[-81.84771,8.23026],[-81.84306,8.24117],[-81.84667,8.24777],[-81.85736,8.24738],[-81.85632,8.25198],[-81.86267,8.25742],[-81.86643,8.26836],[-81.86244,8.27362],[-81.8478,8.25952],[-81.84743,8.25259],[-81.84123,8.24844]]]}},{"type":"Feature","properties":{"corregimiento":"El Puerto","distrito":"Remedios","provincia":"Chiriquí","bbox":[-81.81972,8.15219,-81.75195,8.23916]},"geometry":{"type":"Polygon","coordinates":[[[-81.798,8.23916],[-81.78793,8.23047],[-81.7885,8.22385],[-81.78443,8.22639],[-81.77872,8.22508],[-81.77757,8.23138],[-81.7707,8.22842],[-81.76892,8.22438],[-81.76069,8.22311],[-81.76044,8.21039],[-81.76563,8.20107],[-81.76015,8.1927],[-81.7634,8.1808],[-81.7707,8.18294],[-81.76267,8.17237],[-81.76596,8.17345],[-81.76599,8.17111],[-81.77184,8.17437],[-81.77063,8.17221],[-81.7735,8.1706],[-81.77092,8.16859],[-81.7781,8.16771],[-81.77342,8.16555],[-81.76791,8.16724],[-81.76626,8.16441],[-81.75195,8.169],[-81.75298,8.15938],[-81.7618,8.15219],[-81.78638,8.15942],[-81.78792,8.17512],[-81.79471,8.17716],[-81.79247,8.18642],[-81.80262,8.18863],[-81.80863,8.20688],[-81.81972,8.21609],[-81.81545,8.2208],[-81.81557,8.22367],[-81.8179,8.22311],[-81.81276,8.23498],[-81.80425,8.23447],[-81.798,8.23916]]]}},{"type":"Feature","properties":{"corregimiento":"El Nancito","distrito":"Remedios","provincia":"Chiriquí","bbox":[-81.78296,8.20774,-81.71288,8.28348]},"geometry":{"type":"Polygon","coordinates":[[[-81.76062,8.28348],[-81.74451,8.27875],[-81.7493,8.27707],[-81.748,8.26937],[-81.75169,8.2629],[-81.7459,8.26389],[-81.74245,8.26146],[-81.74182,8.26881],[-81.73721,8.27221],[-81.73403,8.2708],[-81.73173,8.26082],[-81.72715,8.258],[-81.72881,8.25241],[-81.72079,8.24648],[-81.71945,8.24059],[-81.71436,8.2402],[-81.71557,8.23338],[-81.71288,8.22892],[-81.71736,8.2249],[-81.71653,8.22237],[-81.72795,8.21811],[-81.73651,8.20774],[-81.7413,8.21761],[-81.74797,8.21665],[-81.74745,8.21902],[-81.75139,8.21522],[-81.75301,8.2194],[-81.7566,8.22019],[-81.76088,8.21614],[-81.76129,8.22403],[-81.76943,8.22478],[-81.76964,8.22786],[-81.7677,8.2264],[-81.76512,8.23035],[-81.77218,8.23873],[-81.77511,8.23858],[-81.77576,8.24516],[-81.78058,8.24829],[-81.77921,8.25362],[-81.78296,8.25714],[-81.7793,8.26606],[-81.77619,8.26305],[-81.76988,8.26309],[-81.76908,8.26707],[-81.77464,8.26968],[-81.76829,8.27197],[-81.76039,8.2804],[-81.76062,8.28348]]]}},{"type":"Feature","properties":{"corregimiento":"El Porvenir","distrito":"Remedios","provincia":"Chiriquí","bbox":[-81.86244,8.22798,-81.8158,8.31551]},"geometry":{"type":"Polygon","coordinates":[[[-81.84966,8.31551],[-81.83922,8.31487],[-81.83942,8.30968],[-81.83471,8.31072],[-81.83356,8.30489],[-81.82352,8.31003],[-81.81715,8.30547],[-81.8256,8.29486],[-81.82464,8.28995],[-81.82052,8.2873],[-81.82256,8.2851],[-81.81927,8.2831],[-81.82262,8.2737],[-81.81697,8.26833],[-81.81902,8.2658],[-81.8158,8.257],[-81.81873,8.2536],[-81.82227,8.25551],[-81.82613,8.25318],[-81.82635,8.24568],[-81.82157,8.24214],[-81.82529,8.2422],[-81.82383,8.23928],[-81.82821,8.22798],[-81.83654,8.23404],[-81.84106,8.24818],[-81.84809,8.25383],[-81.8478,8.25952],[-81.86244,8.27362],[-81.8563,8.28173],[-81.85673,8.29074],[-81.84966,8.31551]]]}},{"type":"Feature","properties":{"corregimiento":"Santa Lucía","distrito":"Remedios","provincia":"Chiriquí","bbox":[-81.82827,8.22311,-81.76512,8.28191]},"geometry":{"type":"Polygon","coordinates":[[[-81.80681,8.27777],[-81.79534,8.27763],[-81.79558,8.27454],[-81.79105,8.2735],[-81.792,8.28023],[-81.77592,8.27189],[-81.78249,8.26917],[-81.77914,8.2661],[-81.78293,8.25698],[-81.77921,8.25362],[-81.78058,8.24829],[-81.77576,8.24516],[-81.77511,8.23858],[-81.77218,8.23873],[-81.76512,8.23035],[-81.76766,8.22643],[-81.77763,8.23138],[-81.77872,8.22508],[-81.78443,8.22639],[-81.7886,8.22389],[-81.78793,8.23047],[-81.79164,8.23129],[-81.798,8.23916],[-81.80425,8.23447],[-81.81276,8.23498],[-81.8179,8.22311],[-81.82827,8.22718],[-81.82383,8.23928],[-81.82529,8.2422],[-81.82434,8.24342],[-81.82323,8.24223],[-81.8224,8.24201],[-81.82191,8.24204],[-81.82157,8.24214],[-81.82635,8.24568],[-81.82613,8.25318],[-81.82227,8.25551],[-81.81873,8.2536],[-81.8158,8.257],[-81.81902,8.2658],[-81.81697,8.26833],[-81.82262,8.2737],[-81.82044,8.28067],[-81.81912,8.28191],[-81.81766,8.27775],[-81.80903,8.28103],[-81.80681,8.27777]]]}}]}