{"type":"FeatureCollection","features":[{"type":"Feature","properties":{"corregimiento":"Breñón","distrito":"Renacimiento","provincia":"Chiriquí","bbox":[-82.86442,8.5732,-82.78513,8.68348]},"geometry":{"type":"Polygon","coordinates":[[[-82.81895,8.66187],[-82.81566,8.65313],[-82.80206,8.63719],[-82.80085,8.63009],[-82.78582,8.60235],[-82.78871,8.59965],[-82.78513,8.59436],[-82.78916,8.59026],[-82.78813,8.584],[-82.796,8.5732],[-82.8009,8.57511],[-82.80073,8.57905],[-82.80527,8.58341],[-82.81115,8.58386],[-82.82378,8.59274],[-82.83334,8.59417],[-82.82647,8.60051],[-82.82817,8.60483],[-82.8386,8.61286],[-82.82846,8.6159],[-82.8302,8.63604],[-82.8355,8.6401],[-82.83542,8.64674],[-82.8552,8.66306],[-82.85924,8.67595],[-82.86442,8.6792],[-82.86387,8.68348],[-82.84909,8.66844],[-82.8429,8.6705],[-82.83635,8.66875],[-82.82966,8.66182],[-82.81895,8.66187]]]}},{"type":"Feature","properties":{"corregimiento":"Cañas Gordas","distrito":"Renacimiento","provincia":"Chiriquí","bbox":[-82.9203,8.66091,-82.8188,8.77528]},"geometry":{"type":"Polygon","coordinates":[[[-82.89265,8.77192],[-82.89347,8.76952],[-82.8875,8.77184],[-82.87903,8.7666],[-82.87534,8.75376],[-82.8672,8.75238],[-82.86443,8.7421],[-82.85562,8.73969],[-82.84678,8.73253],[-82.83524,8.73312],[-82.83819,8.72912],[-82.8323,8.71783],[-82.83602,8.70615],[-82.83008,8.69182],[-82.82672,8.6899],[-82.82706,8.68576],[-82.8242,8.6851],[-82.81972,8.67627],[-82.82274,8.67309],[-82.8188,8.6696],[-82.81895,8.66187],[-82.82653,8.66091],[-82.83664,8.66659],[-82.83646,8.66881],[-82.84295,8.6705],[-82.84864,8.66829],[-82.85307,8.67124],[-82.86387,8.68348],[-82.86183,8.68832],[-82.86569,8.69031],[-82.86709,8.6968],[-82.87026,8.699],[-82.88039,8.69689],[-82.88029,8.7],[-82.89741,8.71557],[-82.90135,8.72562],[-82.90075,8.73214],[-82.90414,8.73637],[-82.90918,8.73587],[-82.91313,8.74108],[-82.91666,8.74124],[-82.9203,8.75168],[-82.90934,8.75786],[-82.91583,8.76005],[-82.9186,8.76661],[-82.9141,8.76689],[-82.91462,8.77006],[-82.90661,8.77495],[-82.8989,8.77528],[-82.89699,8.77213],[-82.89265,8.77192]]]}},{"type":"Feature","properties":{"corregimiento":"Santa Cruz","distrito":"Renacimiento","provincia":"Chiriquí","bbox":[-82.8074,8.59044,-82.7215,8.70605]},"geometry":{"type":"Polygon","coordinates":[[[-82.7215,8.70243],[-82.72654,8.69658],[-82.73094,8.69631],[-82.73184,8.6761],[-82.73857,8.66923],[-82.73863,8.65925],[-82.73495,8.65158],[-82.74732,8.6242],[-82.74989,8.60613],[-82.74505,8.59785],[-82.7467,8.59288],[-82.75764,8.59652],[-82.75828,8.60143],[-82.76805,8.60602],[-82.76969,8.60107],[-82.78053,8.59829],[-82.78325,8.59044],[-82.78709,8.59182],[-82.78519,8.59522],[-82.78871,8.59965],[-82.78587,8.60251],[-82.80085,8.63009],[-82.80206,8.63719],[-82.8074,8.64173],[-82.80345,8.6533],[-82.80052,8.65728],[-82.7947,8.65719],[-82.77502,8.66983],[-82.77151,8.67776],[-82.76727,8.67894],[-82.76045,8.69688],[-82.7486,8.69583],[-82.748,8.70214],[-82.73728,8.70605],[-82.7215,8.70243]]]}},{"type":"Feature","properties":{"corregimiento":"Dominical","distrito":"Renacimiento","provincia":"Chiriquí","bbox":[-82.82263,8.64513,-82.68443,8.76657]},"geometry":{"type":"Polygon","coordinates":[[[-82.68443,8.74584],[-82.70058,8.71792],[-82.70622,8.71871],[-82.7092,8.71509],[-82.7121,8.71635],[-82.71205,8.71267],[-82.72161,8.71194],[-82.72494,8.70675],[-82.7215,8.70243],[-82.73728,8.70605],[-82.748,8.70214],[-82.7486,8.69583],[-82.76048,8.69686],[-82.76727,8.67894],[-82.77151,8.67776],[-82.77494,8.66992],[-82.7947,8.65719],[-82.80052,8.65728],[-82.80697,8.64513],[-82.81571,8.6532],[-82.81995,8.66391],[-82.8188,8.6696],[-82.82263,8.67237],[-82.81966,8.67577],[-82.82191,8.68497],[-82.81729,8.69113],[-82.81118,8.6932],[-82.80279,8.71243],[-82.79529,8.71385],[-82.79285,8.71703],[-82.7911,8.72666],[-82.77923,8.7349],[-82.76626,8.73747],[-82.76244,8.74572],[-82.74675,8.75035],[-82.7419,8.74906],[-82.72805,8.76303],[-82.71114,8.75688],[-82.70698,8.76065],[-82.69287,8.76237],[-82.68923,8.76657],[-82.68443,8.74584]]]}},{"type":"Feature","properties":{"corregimiento":"Río Sereno (Cabecera)","distrito":"Renacimiento","provincia":"Chiriquí","bbox":[-82.89478,8.73258,-82.70654,8.9213]},"geometry":{"type":"Polygon","coordinates":[[[-82.70998,8.9213],[-82.70654,8.90692],[-82.71031,8.90074],[-82.71546,8.89911],[-82.71722,8.89404],[-82.72468,8.89301],[-82.72772,8.88769],[-82.73715,8.88184],[-82.75006,8.87935],[-82.75248,8.87419],[-82.7753,8.86947],[-82.7797,8.86095],[-82.79095,8.86135],[-82.80051,8.85216],[-82.8044,8.85419],[-82.80548,8.85095],[-82.8227,8.84875],[-82.82994,8.83908],[-82.834,8.83936],[-82.84444,8.83134],[-82.84512,8.82695],[-82.84029,8.82765],[-82.8408,8.82261],[-82.84409,8.82125],[-82.8432,8.81875],[-82.84987,8.81662],[-82.84673,8.81154],[-82.85263,8.80287],[-82.84952,8.79933],[-82.85358,8.79002],[-82.84768,8.78659],[-82.85125,8.77475],[-82.84972,8.77211],[-82.83757,8.76424],[-82.83076,8.76429],[-82.83625,8.75765],[-82.83681,8.75228],[-82.84097,8.7524],[-82.8394,8.74894],[-82.84268,8.7453],[-82.83836,8.74263],[-82.84169,8.74026],[-82.83705,8.73409],[-82.8389,8.73258],[-82.84699,8.73259],[-82.85562,8.73969],[-82.86443,8.7421],[-82.8672,8.75238],[-82.87534,8.75376],[-82.87908,8.76665],[-82.8875,8.77184],[-82.89347,8.76952],[-82.89154,8.77902],[-82.89478,8.78276],[-82.88999,8.78625],[-82.89155,8.79367],[-82.88265,8.7954],[-82.86635,8.80521],[-82.86289,8.81356],[-82.86312,8.81831],[-82.86733,8.81501],[-82.87224,8.81571],[-82.87162,8.81848],[-82.87718,8.82004],[-82.87674,8.82289],[-82.88113,8.82262],[-82.88422,8.82957],[-82.87065,8.84251],[-82.87091,8.8454],[-82.86246,8.8493],[-82.86168,8.85296],[-82.85645,8.85295],[-82.85533,8.85633],[-82.84826,8.85343],[-82.82039,8.86015],[-82.81312,8.86416],[-82.80973,8.87232],[-82.798,8.87709],[-82.77881,8.87566],[-82.77314,8.87825],[-82.76823,8.88526],[-82.76029,8.88532],[-82.75132,8.89284],[-82.74689,8.89909],[-82.74872,8.90603],[-82.74457,8.90961],[-82.71935,8.92129],[-82.70998,8.9213]]]}},{"type":"Feature","properties":{"corregimiento":"Monte Lirio","distrito":"Renacimiento","provincia":"Chiriquí","bbox":[-82.85357,8.76417,-82.74794,8.82955]},"geometry":{"type":"Polygon","coordinates":[[[-82.7568,8.80489],[-82.74794,8.79983],[-82.75431,8.79763],[-82.75645,8.79207],[-82.76091,8.79318],[-82.76854,8.78678],[-82.78864,8.78618],[-82.79121,8.7798],[-82.79601,8.77953],[-82.79523,8.77706],[-82.79869,8.77386],[-82.80146,8.77531],[-82.80588,8.76983],[-82.81311,8.77292],[-82.81483,8.76953],[-82.81997,8.77062],[-82.82506,8.76928],[-82.82716,8.7656],[-82.83729,8.76417],[-82.8512,8.77444],[-82.84762,8.78614],[-82.85357,8.78989],[-82.84952,8.79933],[-82.85297,8.80101],[-82.85089,8.80724],[-82.83761,8.81008],[-82.83354,8.80449],[-82.82677,8.813],[-82.81155,8.82206],[-82.80221,8.81412],[-82.80664,8.80983],[-82.80264,8.80795],[-82.78746,8.81326],[-82.78873,8.81553],[-82.78479,8.81602],[-82.77402,8.82955],[-82.75641,8.82755],[-82.75468,8.81552],[-82.7568,8.80489]]]}},{"type":"Feature","properties":{"corregimiento":"Plaza Caisán","distrito":"Renacimiento","provincia":"Chiriquí","bbox":[-82.84268,8.68027,-82.68923,8.81884]},"geometry":{"type":"Polygon","coordinates":[[[-82.70616,8.78866],[-82.70102,8.78633],[-82.69521,8.77644],[-82.69177,8.77594],[-82.69272,8.77225],[-82.68923,8.76657],[-82.69205,8.76303],[-82.70708,8.76062],[-82.71132,8.75688],[-82.72816,8.763],[-82.7419,8.74906],[-82.75924,8.74733],[-82.76305,8.74515],[-82.76626,8.73747],[-82.78113,8.73399],[-82.79136,8.72634],[-82.79172,8.71886],[-82.7952,8.71392],[-82.80511,8.70966],[-82.80775,8.69871],[-82.81091,8.69753],[-82.81133,8.69303],[-82.81751,8.69091],[-82.82241,8.68027],[-82.83598,8.70601],[-82.83236,8.71835],[-82.83819,8.72912],[-82.83519,8.73301],[-82.84168,8.73996],[-82.83838,8.7427],[-82.84268,8.7453],[-82.8394,8.74894],[-82.84095,8.75245],[-82.83672,8.75239],[-82.83086,8.76538],[-82.81997,8.77062],[-82.81483,8.76953],[-82.81311,8.77292],[-82.80577,8.76987],[-82.80146,8.77531],[-82.79869,8.77386],[-82.79523,8.77706],[-82.79601,8.77953],[-82.79121,8.7798],[-82.78837,8.78631],[-82.76854,8.78678],[-82.76091,8.79318],[-82.75653,8.79202],[-82.75431,8.79763],[-82.74794,8.79983],[-82.75073,8.80169],[-82.74507,8.80164],[-82.74123,8.8083],[-82.7317,8.81298],[-82.73231,8.81566],[-82.72719,8.81884],[-82.71429,8.81176],[-82.71403,8.80858],[-82.71034,8.80855],[-82.70616,8.78866]]]}},{"type":"Feature","properties":{"corregimiento":"Santa Clara","distrito":"Renacimiento","provincia":"Chiriquí","bbox":[-82.84987,8.80164,-82.7011,8.91514]},"geometry":{"type":"Polygon","coordinates":[[[-82.7011,8.91389],[-82.70624,8.89102],[-82.71118,8.88145],[-82.71579,8.87468],[-82.72411,8.87064],[-82.7224,8.86245],[-82.72531,8.85034],[-82.73088,8.83988],[-82.7372,8.83657],[-82.73587,8.82361],[-82.74065,8.81955],[-82.74121,8.8055],[-82.74507,8.80164],[-82.75662,8.80436],[-82.75468,8.81569],[-82.75641,8.82755],[-82.77209,8.83014],[-82.792,8.81034],[-82.8066,8.80814],[-82.80221,8.81412],[-82.81122,8.8221],[-82.82677,8.813],[-82.83354,8.80449],[-82.83761,8.81008],[-82.84732,8.80897],[-82.84987,8.81662],[-82.8432,8.81875],[-82.84409,8.82125],[-82.8408,8.82261],[-82.84029,8.82765],[-82.84512,8.82695],[-82.84444,8.83134],[-82.834,8.83936],[-82.82994,8.83908],[-82.82282,8.84867],[-82.80548,8.85095],[-82.8044,8.85419],[-82.80057,8.85214],[-82.791,8.86133],[-82.77957,8.86101],[-82.7753,8.86947],[-82.75306,8.87397],[-82.75,8.87938],[-82.73693,8.88195],[-82.72764,8.88777],[-82.72478,8.89295],[-82.71722,8.89404],[-82.71546,8.89911],[-82.71031,8.90074],[-82.70627,8.90785],[-82.70809,8.91514],[-82.7011,8.91389]]]}}]}