{"type":"FeatureCollection","features":[{"type":"Feature","properties":{"corregimiento":"Las Lajas","distrito":"San Félix","provincia":"Chiriquí","bbox":[-81.91491,8.1612,-81.82456,8.27751]},"geometry":{"type":"Polygon","coordinates":[[[-81.86244,8.27362],[-81.86643,8.26836],[-81.86267,8.25742],[-81.85632,8.25198],[-81.85736,8.24738],[-81.84667,8.24777],[-81.84306,8.24117],[-81.84771,8.23026],[-81.83722,8.22254],[-81.83766,8.21738],[-81.83229,8.21404],[-81.83164,8.20081],[-81.82797,8.20436],[-81.82456,8.20234],[-81.82464,8.19],[-81.82861,8.19347],[-81.83169,8.18745],[-81.82737,8.18664],[-81.82999,8.18481],[-81.83408,8.18868],[-81.83797,8.18807],[-81.83577,8.18314],[-81.84087,8.18118],[-81.84043,8.17353],[-81.83671,8.16756],[-81.8391,8.1612],[-81.84044,8.16647],[-81.84666,8.16188],[-81.85072,8.16251],[-81.91491,8.18623],[-81.91114,8.18819],[-81.90376,8.1841],[-81.89849,8.18508],[-81.90228,8.18714],[-81.9016,8.19155],[-81.8987,8.19268],[-81.89918,8.20356],[-81.89239,8.22125],[-81.88831,8.22425],[-81.88939,8.22748],[-81.8797,8.23783],[-81.8728,8.26071],[-81.87175,8.27751],[-81.86244,8.27362]]]}},{"type":"Feature","properties":{"corregimiento":"Juay o Las Mareas","distrito":"San Félix","provincia":"Chiriquí","bbox":[-81.99615,8.26133,-81.92385,8.33316]},"geometry":{"type":"Polygon","coordinates":[[[-81.94745,8.32797],[-81.93389,8.32133],[-81.93795,8.32228],[-81.94,8.31638],[-81.93378,8.31709],[-81.93351,8.32751],[-81.93182,8.32081],[-81.93516,8.309],[-81.94035,8.30469],[-81.94008,8.2899],[-81.94374,8.28698],[-81.94072,8.2873],[-81.9334,8.2955],[-81.92385,8.29287],[-81.92745,8.28446],[-81.92999,8.28786],[-81.93235,8.28467],[-81.93306,8.28791],[-81.93224,8.28245],[-81.93937,8.27712],[-81.9367,8.27293],[-81.93902,8.26794],[-81.95002,8.2622],[-81.95282,8.26707],[-81.9516,8.26357],[-81.9537,8.26133],[-81.9543,8.26493],[-81.96025,8.26559],[-81.96336,8.27024],[-81.96535,8.2668],[-81.97122,8.273],[-81.97442,8.27032],[-81.97818,8.27708],[-81.98036,8.27454],[-81.98583,8.27605],[-81.98367,8.2789],[-81.98594,8.28128],[-81.98501,8.28625],[-81.98145,8.28587],[-81.99166,8.29726],[-81.98518,8.30148],[-81.98548,8.30791],[-81.99172,8.30046],[-81.99317,8.30592],[-81.99615,8.30393],[-81.99347,8.31033],[-81.99528,8.31302],[-81.99018,8.31333],[-81.9911,8.31668],[-81.98621,8.31778],[-81.98645,8.31355],[-81.98174,8.31359],[-81.97709,8.32613],[-81.9738,8.32018],[-81.95936,8.32292],[-81.96103,8.3181],[-81.9574,8.31768],[-81.95537,8.32499],[-81.94598,8.33316],[-81.94745,8.32797]]]}},{"type":"Feature","properties":{"corregimiento":"Lajas Adentro","distrito":"San Félix","provincia":"Chiriquí","bbox":[-81.96318,8.1841,-81.87175,8.27985]},"geometry":{"type":"Polygon","coordinates":[[[-81.87175,8.27751],[-81.8728,8.26071],[-81.8797,8.23783],[-81.88939,8.22748],[-81.88831,8.22425],[-81.89239,8.22125],[-81.89918,8.20356],[-81.8987,8.19268],[-81.9016,8.19155],[-81.90228,8.18714],[-81.89855,8.185],[-81.90376,8.1841],[-81.91438,8.18996],[-81.92345,8.18659],[-81.96239,8.19175],[-81.96106,8.20068],[-81.96318,8.20165],[-81.94863,8.19559],[-81.93687,8.19382],[-81.93293,8.19615],[-81.9224,8.19344],[-81.92155,8.19825],[-81.91424,8.20279],[-81.90884,8.21058],[-81.90543,8.2195],[-81.89547,8.2244],[-81.8966,8.23326],[-81.88932,8.24299],[-81.89117,8.24492],[-81.88709,8.24571],[-81.88684,8.26015],[-81.88418,8.26206],[-81.88878,8.27734],[-81.88519,8.27985],[-81.87175,8.27751]]]}},{"type":"Feature","properties":{"corregimiento":"San Félix","distrito":"San Félix","provincia":"Chiriquí","bbox":[-81.94374,8.27372,-81.82889,8.35089]},"geometry":{"type":"Polygon","coordinates":[[[-81.83338,8.3481],[-81.83589,8.34118],[-81.82889,8.34061],[-81.82951,8.33669],[-81.83268,8.33673],[-81.84028,8.31756],[-81.84966,8.31551],[-81.85673,8.29074],[-81.8563,8.28173],[-81.86219,8.27372],[-81.86811,8.27706],[-81.88292,8.2784],[-81.89291,8.28579],[-81.91751,8.28667],[-81.92554,8.29401],[-81.93139,8.29551],[-81.94092,8.28715],[-81.94374,8.28698],[-81.94008,8.2899],[-81.94035,8.30469],[-81.93342,8.3127],[-81.93355,8.32989],[-81.92276,8.32676],[-81.92079,8.3361],[-81.91307,8.33507],[-81.90621,8.33946],[-81.89794,8.3338],[-81.89693,8.32931],[-81.90116,8.32566],[-81.88796,8.32216],[-81.8903,8.32709],[-81.88529,8.32665],[-81.8846,8.33099],[-81.88771,8.33413],[-81.8814,8.33767],[-81.87615,8.33999],[-81.87477,8.3371],[-81.87061,8.33981],[-81.87042,8.33582],[-81.86769,8.33539],[-81.85722,8.34203],[-81.83656,8.34185],[-81.8395,8.34956],[-81.83654,8.35089],[-81.83338,8.3481]]]}},{"type":"Feature","properties":{"corregimiento":"Santa Cruz","distrito":"San Félix","provincia":"Chiriquí","bbox":[-81.96517,8.19344,-81.88418,8.29287]},"geometry":{"type":"Polygon","coordinates":[[[-81.88519,8.27985],[-81.88883,8.27719],[-81.88418,8.26214],[-81.88684,8.26015],[-81.88705,8.24584],[-81.89117,8.24492],[-81.88932,8.24299],[-81.8966,8.23326],[-81.89607,8.22297],[-81.90038,8.22333],[-81.90543,8.2195],[-81.90884,8.21058],[-81.91424,8.20279],[-81.92155,8.19825],[-81.9224,8.19344],[-81.93293,8.19615],[-81.93687,8.19382],[-81.94863,8.19559],[-81.96517,8.20257],[-81.96053,8.21545],[-81.94103,8.23818],[-81.94784,8.24757],[-81.9499,8.26315],[-81.93873,8.26829],[-81.93671,8.27313],[-81.93937,8.27712],[-81.93224,8.28245],[-81.93306,8.28791],[-81.93235,8.28467],[-81.92999,8.28786],[-81.92745,8.28446],[-81.92385,8.29287],[-81.91751,8.28667],[-81.89291,8.28579],[-81.88519,8.27985]]]}}]}