{"type":"FeatureCollection","features":[{"type":"Feature","properties":{"corregimiento":"San Juan","distrito":"San Lorenzo","provincia":"Chiriquí","bbox":[-82.06168,8.20121,-81.94121,8.35656]},"geometry":{"type":"Polygon","coordinates":[[[-82.00719,8.34046],[-82.00448,8.33063],[-82.00023,8.33386],[-81.99816,8.33167],[-81.9919,8.33279],[-81.98433,8.32358],[-81.98519,8.31902],[-81.99072,8.32289],[-81.99344,8.32025],[-81.99883,8.32258],[-81.99861,8.31666],[-81.99346,8.31053],[-81.9961,8.30524],[-81.99581,8.30316],[-81.99317,8.30592],[-81.99112,8.30036],[-81.98548,8.30791],[-81.98518,8.30148],[-81.99166,8.29726],[-81.98145,8.28587],[-81.98501,8.28625],[-81.98594,8.28128],[-81.98367,8.2789],[-81.98583,8.27605],[-81.98036,8.27454],[-81.97818,8.27708],[-81.97442,8.27032],[-81.97122,8.273],[-81.96535,8.2668],[-81.96336,8.27024],[-81.96025,8.26559],[-81.9543,8.26493],[-81.95374,8.26134],[-81.95159,8.26365],[-81.95335,8.26657],[-81.95083,8.26692],[-81.94784,8.24757],[-81.94121,8.23909],[-81.96074,8.21514],[-81.96517,8.20257],[-81.96772,8.20374],[-81.9686,8.20121],[-81.99683,8.2043],[-82.0046,8.21328],[-82.01747,8.21698],[-82.02034,8.22043],[-82.01962,8.22707],[-82.02761,8.22899],[-82.02215,8.23358],[-82.02415,8.24198],[-82.02746,8.24413],[-82.02259,8.25155],[-82.02679,8.25348],[-82.02574,8.2589],[-82.03102,8.25996],[-82.03089,8.26545],[-82.03542,8.26257],[-82.03897,8.26774],[-82.04867,8.26817],[-82.05318,8.26334],[-82.05647,8.2646],[-82.05036,8.27783],[-82.05262,8.28738],[-82.05693,8.28953],[-82.05688,8.29545],[-82.06053,8.29736],[-82.06168,8.30241],[-82.05442,8.31009],[-82.05468,8.31653],[-82.05167,8.31936],[-82.05026,8.31651],[-82.04761,8.32051],[-82.04351,8.31911],[-82.03951,8.32744],[-82.02878,8.33352],[-82.03054,8.34963],[-82.02455,8.35656],[-82.0179,8.34549],[-82.01423,8.34605],[-82.01555,8.34282],[-82.00719,8.34046]]]}},{"type":"Feature","properties":{"corregimiento":"San Lorenzo","distrito":"San Lorenzo","provincia":"Chiriquí","bbox":[-82.13553,8.20981,-82.00596,8.39193]},"geometry":{"type":"Polygon","coordinates":[[[-82.03384,8.38404],[-82.01071,8.3915],[-82.02551,8.3725],[-82.02919,8.3731],[-82.03195,8.3699],[-82.02773,8.36635],[-82.02006,8.36578],[-82.02784,8.35904],[-82.02455,8.35656],[-82.03053,8.34967],[-82.02876,8.33356],[-82.03951,8.32744],[-82.04351,8.31911],[-82.04768,8.32049],[-82.05038,8.31649],[-82.05219,8.31916],[-82.05587,8.31308],[-82.05442,8.31009],[-82.06146,8.30352],[-82.05036,8.27783],[-82.0565,8.26472],[-82.05318,8.26334],[-82.04867,8.26817],[-82.03897,8.26774],[-82.03542,8.26257],[-82.03089,8.26545],[-82.03102,8.25996],[-82.02574,8.2589],[-82.02679,8.25348],[-82.02259,8.25155],[-82.02746,8.24413],[-82.02415,8.24198],[-82.02215,8.23358],[-82.02755,8.22881],[-82.02031,8.2277],[-82.01906,8.21837],[-82.00596,8.21266],[-82.01334,8.20981],[-82.05294,8.2196],[-82.06514,8.21594],[-82.08281,8.21684],[-82.10262,8.22293],[-82.11814,8.2241],[-82.12028,8.23162],[-82.11237,8.24083],[-82.11671,8.24572],[-82.11334,8.25358],[-82.11665,8.25417],[-82.11505,8.25788],[-82.11976,8.25901],[-82.11764,8.26036],[-82.11884,8.2639],[-82.11526,8.26337],[-82.10871,8.26986],[-82.11009,8.27415],[-82.10703,8.27526],[-82.10634,8.27943],[-82.11266,8.28896],[-82.11972,8.29052],[-82.12775,8.30279],[-82.13501,8.30453],[-82.13553,8.32036],[-82.12408,8.32564],[-82.12217,8.33567],[-82.11732,8.32853],[-82.11,8.33068],[-82.106,8.32841],[-82.10534,8.32495],[-82.10859,8.32157],[-82.10233,8.3127],[-82.10056,8.32302],[-82.09151,8.32878],[-82.08215,8.33055],[-82.07787,8.34397],[-82.06997,8.35007],[-82.07356,8.35214],[-82.06824,8.36131],[-82.06095,8.36118],[-82.05676,8.37205],[-82.05175,8.3715],[-82.05735,8.37706],[-82.0481,8.38007],[-82.041,8.38776],[-82.04066,8.39193],[-82.03384,8.38404]]]}},{"type":"Feature","properties":{"corregimiento":"Horconcitos (Cabecera)","distrito":"San Lorenzo","provincia":"Chiriquí","bbox":[-82.22294,8.22855,-82.10638,8.34494]},"geometry":{"type":"Polygon","coordinates":[[[-82.14441,8.34494],[-82.13722,8.34105],[-82.12703,8.34282],[-82.12217,8.33567],[-82.12408,8.32564],[-82.13553,8.32036],[-82.13621,8.30734],[-82.1348,8.30435],[-82.12759,8.30263],[-82.11825,8.28932],[-82.11263,8.28894],[-82.10638,8.27965],[-82.10703,8.27526],[-82.11009,8.27415],[-82.10871,8.26986],[-82.11526,8.26337],[-82.11884,8.2639],[-82.11764,8.26036],[-82.11976,8.25901],[-82.11505,8.25788],[-82.11665,8.25417],[-82.11334,8.25358],[-82.11678,8.246],[-82.11237,8.24054],[-82.12073,8.22855],[-82.12744,8.23592],[-82.13844,8.23998],[-82.13834,8.25053],[-82.14255,8.25664],[-82.13945,8.26333],[-82.14249,8.27206],[-82.15099,8.27419],[-82.1571,8.2674],[-82.17363,8.27965],[-82.16784,8.29532],[-82.20043,8.30018],[-82.20354,8.29524],[-82.20734,8.29448],[-82.20566,8.28849],[-82.20853,8.28238],[-82.20483,8.27432],[-82.20975,8.26623],[-82.21892,8.27218],[-82.22294,8.28221],[-82.22294,8.28723],[-82.218,8.28952],[-82.21457,8.29897],[-82.21939,8.3051],[-82.2164,8.30935],[-82.21796,8.3183],[-82.21215,8.3137],[-82.20822,8.31524],[-82.20567,8.3243],[-82.21527,8.33306],[-82.20977,8.34336],[-82.18371,8.34055],[-82.17103,8.33626],[-82.15053,8.33819],[-82.14441,8.34494]]]}},{"type":"Feature","properties":{"corregimiento":"Boca Chica","distrito":"San Lorenzo","provincia":"Chiriquí","bbox":[-82.32181,8.16431,-82.11346,8.30024]},"geometry":{"type":"MultiPolygon","coordinates":[[[[-82.20033,8.30024],[-82.16784,8.29532],[-82.1737,8.27977],[-82.16263,8.26972],[-82.15703,8.26741],[-82.15081,8.27424],[-82.14249,8.27206],[-82.13945,8.26333],[-82.14255,8.25664],[-82.13834,8.25053],[-82.13844,8.23998],[-82.12616,8.23492],[-82.11814,8.2241],[-82.11782,8.21908],[-82.11346,8.21723],[-82.117,8.21122],[-82.12149,8.21258],[-82.12544,8.21016],[-82.12478,8.20747],[-82.12788,8.20946],[-82.13981,8.20252],[-82.14186,8.1897],[-82.14005,8.18829],[-82.14334,8.18213],[-82.13949,8.18012],[-82.14368,8.17114],[-82.14023,8.16803],[-82.14193,8.16505],[-82.15338,8.16858],[-82.15593,8.16431],[-82.16302,8.16645],[-82.16085,8.16678],[-82.16296,8.17226],[-82.15533,8.17182],[-82.15348,8.17757],[-82.15023,8.17785],[-82.1514,8.18202],[-82.14928,8.17932],[-82.14491,8.18396],[-82.14937,8.19712],[-82.15279,8.19351],[-82.15682,8.19394],[-82.15607,8.19164],[-82.16468,8.19203],[-82.15963,8.19638],[-82.15613,8.20544],[-82.15023,8.20434],[-82.14711,8.20799],[-82.14687,8.21145],[-82.15327,8.21363],[-82.15375,8.2177],[-82.15687,8.21605],[-82.16003,8.22064],[-82.16834,8.21887],[-82.16911,8.21445],[-82.1653,8.20893],[-82.17068,8.20779],[-82.1662,8.20383],[-82.1676,8.20031],[-82.17836,8.20746],[-82.19654,8.20146],[-82.1989,8.20434],[-82.19631,8.20728],[-82.19981,8.21059],[-82.19585,8.21372],[-82.20049,8.21959],[-82.20504,8.21711],[-82.21147,8.2182],[-82.21107,8.21619],[-82.22358,8.21885],[-82.22265,8.23058],[-82.21533,8.24103],[-82.21819,8.24831],[-82.20506,8.27297],[-82.20853,8.28238],[-82.20566,8.28849],[-82.20729,8.29463],[-82.20354,8.29524],[-82.20033,8.30024]]],[[[-82.28443,8.23426],[-82.28565,8.23103],[-82.28248,8.22944],[-82.27976,8.23367],[-82.27462,8.23029],[-82.27249,8.2327],[-82.25462,8.22721],[-82.24685,8.22175],[-82.2462,8.22423],[-82.2384,8.22174],[-82.23259,8.21622],[-82.22994,8.21813],[-82.21917,8.2166],[-82.20591,8.21151],[-82.21439,8.21045],[-82.22306,8.20306],[-82.22612,8.20628],[-82.22489,8.2113],[-82.22812,8.21328],[-82.23567,8.20749],[-82.2396,8.21071],[-82.24343,8.20954],[-82.24191,8.21199],[-82.24572,8.21327],[-82.24598,8.21],[-82.24858,8.21227],[-82.25324,8.20891],[-82.251,8.20601],[-82.25306,8.20404],[-82.25406,8.20583],[-82.25372,8.20558],[-82.25135,8.20625],[-82.25688,8.20572],[-82.25661,8.20459],[-82.25876,8.20688],[-82.26222,8.20033],[-82.26561,8.19998],[-82.26489,8.18915],[-82.25454,8.18407],[-82.24925,8.18477],[-82.24658,8.17671],[-82.2514,8.17738],[-82.25057,8.17324],[-82.25586,8.1743],[-82.25924,8.17676],[-82.25959,8.18243],[-82.26429,8.18505],[-82.26727,8.18262],[-82.26659,8.18603],[-82.27274,8.19248],[-82.29129,8.19902],[-82.30367,8.20832],[-82.32181,8.21504],[-82.31465,8.22673],[-82.29803,8.22055],[-82.28959,8.22765],[-82.29388,8.22804],[-82.29329,8.23198],[-82.28443,8.23426]]]]}},{"type":"Feature","properties":{"corregimiento":"Boca del Monte","distrito":"San Lorenzo","provincia":"Chiriquí","bbox":[-82.22453,8.31269,-82.02015,8.4852]},"geometry":{"type":"Polygon","coordinates":[[[-82.07714,8.4852],[-82.07258,8.48029],[-82.06546,8.47985],[-82.06381,8.47718],[-82.06757,8.47636],[-82.07004,8.4686],[-82.06528,8.46656],[-82.06728,8.46105],[-82.06273,8.45528],[-82.05827,8.45578],[-82.05659,8.44151],[-82.04884,8.43478],[-82.05418,8.42902],[-82.05335,8.42506],[-82.04826,8.42217],[-82.04326,8.42446],[-82.04644,8.40963],[-82.04239,8.41498],[-82.03206,8.4198],[-82.02814,8.42687],[-82.02015,8.4212],[-82.02358,8.41898],[-82.0211,8.41551],[-82.02654,8.41106],[-82.0219,8.40621],[-82.02604,8.40582],[-82.02669,8.40118],[-82.03399,8.39713],[-82.03815,8.39778],[-82.03593,8.3913],[-82.04086,8.39183],[-82.041,8.38776],[-82.0481,8.38007],[-82.05735,8.37706],[-82.05169,8.37161],[-82.05676,8.37205],[-82.06095,8.36118],[-82.06867,8.36077],[-82.07356,8.35214],[-82.06997,8.35007],[-82.07787,8.34397],[-82.08225,8.33043],[-82.09151,8.32878],[-82.10056,8.32302],[-82.10234,8.31269],[-82.10859,8.32157],[-82.10534,8.32495],[-82.106,8.32841],[-82.11,8.33068],[-82.11732,8.32853],[-82.12703,8.34282],[-82.13722,8.34105],[-82.14463,8.34493],[-82.15053,8.33819],[-82.17141,8.33626],[-82.18371,8.34055],[-82.21718,8.34509],[-82.21852,8.34893],[-82.22268,8.34845],[-82.22453,8.35355],[-82.21735,8.36592],[-82.21938,8.37274],[-82.20929,8.37794],[-82.2117,8.3799],[-82.20874,8.3867],[-82.21394,8.38956],[-82.21395,8.40056],[-82.22038,8.40478],[-82.2229,8.41018],[-82.22131,8.41929],[-82.20904,8.42282],[-82.20468,8.42819],[-82.2111,8.46105],[-82.20481,8.46657],[-82.19824,8.46186],[-82.19372,8.47024],[-82.18176,8.47785],[-82.17793,8.47502],[-82.16934,8.47735],[-82.16621,8.46896],[-82.1721,8.47144],[-82.1785,8.46981],[-82.17612,8.46511],[-82.18326,8.4568],[-82.18042,8.45595],[-82.18005,8.4505],[-82.17549,8.45256],[-82.16368,8.4446],[-82.1635,8.44902],[-82.15824,8.44887],[-82.15385,8.45374],[-82.1447,8.45085],[-82.14039,8.45445],[-82.13493,8.45096],[-82.13363,8.45555],[-82.12567,8.45298],[-82.11871,8.45809],[-82.11663,8.45287],[-82.11101,8.45423],[-82.10982,8.4587],[-82.1007,8.45749],[-82.09559,8.46948],[-82.09184,8.46029],[-82.08787,8.46914],[-82.08478,8.46753],[-82.08317,8.46291],[-82.08633,8.45579],[-82.08447,8.45463],[-82.0772,8.4602],[-82.07569,8.46602],[-82.07919,8.46409],[-82.08677,8.46943],[-82.08311,8.46982],[-82.08686,8.47329],[-82.09143,8.47284],[-82.08194,8.47785],[-82.07714,8.4852]]]}}]}