{"type":"FeatureCollection","features":[{"type":"Feature","properties":{"corregimiento":"Tolé (Cabecera)","distrito":"Tolé","provincia":"Chiriquí","bbox":[-81.76426,8.16341,-81.65617,8.27716]},"geometry":{"type":"Polygon","coordinates":[[[-81.72502,8.27647],[-81.72384,8.26293],[-81.70958,8.26482],[-81.70546,8.27222],[-81.68917,8.26864],[-81.68536,8.2704],[-81.67894,8.26561],[-81.66902,8.27087],[-81.65617,8.24481],[-81.66094,8.24316],[-81.65923,8.23965],[-81.66601,8.23221],[-81.66769,8.2233],[-81.67371,8.22239],[-81.67098,8.21614],[-81.67584,8.20577],[-81.66797,8.20439],[-81.66842,8.20017],[-81.66519,8.19738],[-81.67373,8.19617],[-81.67448,8.18934],[-81.6956,8.18052],[-81.7066,8.18729],[-81.71077,8.17791],[-81.70673,8.17245],[-81.71492,8.17306],[-81.72299,8.16689],[-81.72773,8.16844],[-81.73215,8.16341],[-81.73779,8.16435],[-81.74705,8.17163],[-81.7506,8.19023],[-81.75469,8.19048],[-81.75917,8.20038],[-81.76426,8.20242],[-81.76044,8.21039],[-81.76088,8.21614],[-81.75731,8.21998],[-81.75313,8.21952],[-81.75139,8.21522],[-81.74745,8.21902],[-81.74797,8.21665],[-81.7412,8.21755],[-81.73651,8.20774],[-81.72795,8.21811],[-81.71657,8.22232],[-81.71736,8.2249],[-81.71298,8.22861],[-81.71557,8.23338],[-81.7145,8.24062],[-81.71945,8.24059],[-81.72079,8.24648],[-81.7279,8.25113],[-81.72963,8.25433],[-81.72725,8.25826],[-81.73173,8.26082],[-81.73204,8.26807],[-81.73722,8.27224],[-81.73415,8.27716],[-81.72502,8.27647]]]}},{"type":"Feature","properties":{"corregimiento":"Bella Vista","distrito":"Tolé","provincia":"Chiriquí","bbox":[-81.64769,8.15378,-81.57196,8.22986]},"geometry":{"type":"Polygon","coordinates":[[[-81.61421,8.22986],[-81.59888,8.22319],[-81.59202,8.21001],[-81.58648,8.21284],[-81.58408,8.20565],[-81.5739,8.2025],[-81.57766,8.19746],[-81.57196,8.19345],[-81.57447,8.18666],[-81.57229,8.18135],[-81.58198,8.18309],[-81.59046,8.16863],[-81.60443,8.16599],[-81.59755,8.15647],[-81.61318,8.15378],[-81.61834,8.1602],[-81.61561,8.17004],[-81.62122,8.17055],[-81.62396,8.17551],[-81.63192,8.17874],[-81.63911,8.17378],[-81.64769,8.18407],[-81.63386,8.20585],[-81.62803,8.20772],[-81.63505,8.22178],[-81.61806,8.22598],[-81.61421,8.22986]]]}},{"type":"Feature","properties":{"corregimiento":"Cerro Viejo","distrito":"Tolé","provincia":"Chiriquí","bbox":[-81.62464,8.18697,-81.52974,8.31278]},"geometry":{"type":"Polygon","coordinates":[[[-81.53145,8.25277],[-81.534,8.24989],[-81.52974,8.24838],[-81.53767,8.23967],[-81.54101,8.2304],[-81.54664,8.23247],[-81.55061,8.22413],[-81.5554,8.2254],[-81.55849,8.22223],[-81.55877,8.21714],[-81.55515,8.21388],[-81.56042,8.21195],[-81.55852,8.20651],[-81.56134,8.20288],[-81.55541,8.20038],[-81.55607,8.19305],[-81.57444,8.18697],[-81.57196,8.19345],[-81.57766,8.19746],[-81.57398,8.20261],[-81.58408,8.20565],[-81.58648,8.21284],[-81.59202,8.21001],[-81.59888,8.22319],[-81.60647,8.22727],[-81.60632,8.23538],[-81.60246,8.23858],[-81.60736,8.24217],[-81.60537,8.24686],[-81.60074,8.2532],[-81.59581,8.25012],[-81.59101,8.25779],[-81.59712,8.25874],[-81.59873,8.25325],[-81.60686,8.26001],[-81.60441,8.26567],[-81.59527,8.26539],[-81.59763,8.27368],[-81.59254,8.27846],[-81.59289,8.28158],[-81.6032,8.28092],[-81.6031,8.27446],[-81.59923,8.27448],[-81.60439,8.2681],[-81.60987,8.26739],[-81.60923,8.26426],[-81.62282,8.26677],[-81.62464,8.27009],[-81.62327,8.27439],[-81.61861,8.27455],[-81.61262,8.28336],[-81.5999,8.28382],[-81.59501,8.29075],[-81.59838,8.29239],[-81.59763,8.29533],[-81.60113,8.29524],[-81.60065,8.29765],[-81.59258,8.29545],[-81.59059,8.30006],[-81.58752,8.3008],[-81.58727,8.29686],[-81.57725,8.30262],[-81.5754,8.2938],[-81.58027,8.29469],[-81.58014,8.29105],[-81.58604,8.2948],[-81.58828,8.29045],[-81.58643,8.28529],[-81.58254,8.2782],[-81.56834,8.27902],[-81.57067,8.28435],[-81.57635,8.28484],[-81.57114,8.29858],[-81.57364,8.30307],[-81.56566,8.31148],[-81.55873,8.31278],[-81.54785,8.30751],[-81.55068,8.30293],[-81.5441,8.29494],[-81.55407,8.28578],[-81.56074,8.28928],[-81.55598,8.28115],[-81.56267,8.27474],[-81.56202,8.26578],[-81.55659,8.26445],[-81.55705,8.26817],[-81.55335,8.2688],[-81.55109,8.25921],[-81.54593,8.2608],[-81.55263,8.27049],[-81.54569,8.27586],[-81.54439,8.27418],[-81.54819,8.2704],[-81.53993,8.26636],[-81.54522,8.26486],[-81.54152,8.26297],[-81.54496,8.25817],[-81.54073,8.25968],[-81.54037,8.26306],[-81.53451,8.26403],[-81.53241,8.26292],[-81.53871,8.25597],[-81.53487,8.25641],[-81.53145,8.25277]],[[-81.56424,8.24043],[-81.56939,8.24913],[-81.57552,8.24374],[-81.58255,8.24429],[-81.58285,8.2411],[-81.58907,8.24092],[-81.59277,8.24414],[-81.60087,8.2407],[-81.59831,8.22701],[-81.59171,8.22907],[-81.59594,8.23582],[-81.59099,8.23595],[-81.58531,8.23025],[-81.58317,8.23784],[-81.57514,8.23581],[-81.57705,8.2312],[-81.58065,8.2299],[-81.58116,8.23207],[-81.58948,8.22714],[-81.58227,8.22524],[-81.582,8.22117],[-81.56348,8.22443],[-81.57303,8.23127],[-81.56543,8.23108],[-81.56633,8.23461],[-81.57549,8.24004],[-81.5717,8.24337],[-81.56424,8.24043]]]}},{"type":"Feature","properties":{"corregimiento":"Lajas de Tolé","distrito":"Tolé","provincia":"Chiriquí","bbox":[-81.73727,8.12134,-81.61316,8.19766]},"geometry":{"type":"Polygon","coordinates":[[[-81.66511,8.19766],[-81.65562,8.18969],[-81.65991,8.18531],[-81.65957,8.1792],[-81.64769,8.18407],[-81.63911,8.17378],[-81.63192,8.17874],[-81.62396,8.17551],[-81.62122,8.17055],[-81.61557,8.17001],[-81.61834,8.1602],[-81.61316,8.15393],[-81.61783,8.14367],[-81.61651,8.13715],[-81.62422,8.13156],[-81.66004,8.12616],[-81.66914,8.12134],[-81.67417,8.1306],[-81.67393,8.14151],[-81.68819,8.12221],[-81.70119,8.13254],[-81.70742,8.13116],[-81.71223,8.12618],[-81.73134,8.14917],[-81.73727,8.1642],[-81.73199,8.16344],[-81.72744,8.16855],[-81.72299,8.16689],[-81.71466,8.17314],[-81.70673,8.17245],[-81.71077,8.17791],[-81.7066,8.18729],[-81.6956,8.18052],[-81.67448,8.18934],[-81.67373,8.19617],[-81.66511,8.19766]]]}},{"type":"Feature","properties":{"corregimiento":"Quebrada de Piedra","distrito":"Tolé","provincia":"Chiriquí","bbox":[-81.75369,8.00094,-81.61888,8.15126]},"geometry":{"type":"MultiPolygon","coordinates":[[[[-81.67417,8.1306],[-81.66914,8.12134],[-81.66004,8.12616],[-81.62422,8.13156],[-81.62466,8.12831],[-81.62087,8.12598],[-81.62413,8.11358],[-81.61888,8.10684],[-81.62314,8.09969],[-81.63211,8.09732],[-81.63078,8.09362],[-81.63653,8.07807],[-81.63326,8.07771],[-81.63195,8.07411],[-81.63556,8.06168],[-81.63882,8.05797],[-81.64835,8.059],[-81.64749,8.05196],[-81.63351,8.03869],[-81.64592,8.03189],[-81.6401,8.02524],[-81.6478,8.01877],[-81.65639,8.00094],[-81.66233,8.01111],[-81.67664,8.0168],[-81.68055,8.02341],[-81.69006,8.02671],[-81.70264,8.03697],[-81.70282,8.02682],[-81.71802,8.0314],[-81.7189,8.03828],[-81.70952,8.04757],[-81.71126,8.05361],[-81.72137,8.06529],[-81.73473,8.06942],[-81.74081,8.07639],[-81.73837,8.08052],[-81.7262,8.07357],[-81.7213,8.07443],[-81.72186,8.071],[-81.72134,8.07063],[-81.71366,8.0709],[-81.70137,8.08316],[-81.69557,8.07872],[-81.6903,8.08208],[-81.69409,8.08778],[-81.6912,8.08788],[-81.6928,8.09087],[-81.69783,8.09033],[-81.7011,8.09542],[-81.69801,8.10182],[-81.70307,8.10202],[-81.70204,8.10703],[-81.71193,8.12764],[-81.70119,8.13254],[-81.68819,8.12221],[-81.67393,8.14151],[-81.67417,8.1306]]],[[[-81.73876,8.15126],[-81.73132,8.13937],[-81.71938,8.12917],[-81.71365,8.11394],[-81.71145,8.10341],[-81.71823,8.0923],[-81.72238,8.10834],[-81.73083,8.12123],[-81.75369,8.13212],[-81.75254,8.14012],[-81.74192,8.14601],[-81.73876,8.15126]]]]}},{"type":"Feature","properties":{"corregimiento":"Veladero","distrito":"Tolé","provincia":"Chiriquí","bbox":[-81.67587,8.1792,-81.60248,8.29493]},"geometry":{"type":"Polygon","coordinates":[[[-81.63007,8.28491],[-81.62948,8.27482],[-81.62241,8.26811],[-81.62375,8.26091],[-81.61913,8.25769],[-81.6142,8.26411],[-81.61067,8.26299],[-81.61264,8.25303],[-81.61942,8.2537],[-81.61953,8.24938],[-81.61372,8.24787],[-81.611,8.24281],[-81.60911,8.25221],[-81.60972,8.24232],[-81.60248,8.23843],[-81.60629,8.23547],[-81.60533,8.23],[-81.60619,8.22821],[-81.61421,8.22986],[-81.61806,8.22598],[-81.63505,8.22178],[-81.62803,8.20772],[-81.63386,8.20585],[-81.64769,8.18407],[-81.65957,8.1792],[-81.65994,8.18522],[-81.65568,8.18985],[-81.66827,8.19995],[-81.66797,8.20439],[-81.67587,8.20593],[-81.67098,8.21614],[-81.67368,8.22246],[-81.66769,8.2233],[-81.66601,8.23221],[-81.65923,8.23965],[-81.66094,8.24316],[-81.65617,8.24481],[-81.66989,8.2712],[-81.65588,8.27165],[-81.65519,8.28042],[-81.64654,8.28472],[-81.64257,8.29493],[-81.63365,8.28904],[-81.6289,8.29163],[-81.62686,8.28817],[-81.63007,8.28491]]]}},{"type":"Feature","properties":{"corregimiento":"El Cristo","distrito":"Tolé","provincia":"Chiriquí","bbox":[-81.62952,8.26989,-81.57206,8.37028]},"geometry":{"type":"Polygon","coordinates":[[[-81.58243,8.36075],[-81.58462,8.35666],[-81.5821,8.35161],[-81.57897,8.35253],[-81.5757,8.3492],[-81.57781,8.33981],[-81.57206,8.33791],[-81.58554,8.3255],[-81.57977,8.32091],[-81.57597,8.30535],[-81.58331,8.30306],[-81.58566,8.29948],[-81.59093,8.31066],[-81.59626,8.31007],[-81.60112,8.31478],[-81.61096,8.31568],[-81.60355,8.30264],[-81.59881,8.30203],[-81.60247,8.2982],[-81.60172,8.29072],[-81.59985,8.29304],[-81.59505,8.29053],[-81.60014,8.28366],[-81.605,8.2854],[-81.61328,8.28297],[-81.61861,8.27455],[-81.62327,8.27439],[-81.62464,8.26989],[-81.62952,8.27551],[-81.62246,8.28418],[-81.62141,8.29254],[-81.62775,8.2964],[-81.62838,8.30227],[-81.62691,8.30471],[-81.62387,8.30334],[-81.61691,8.31973],[-81.621,8.32242],[-81.61706,8.32672],[-81.61688,8.34433],[-81.60613,8.34646],[-81.60021,8.35442],[-81.60256,8.35981],[-81.59998,8.36642],[-81.59085,8.37028],[-81.59011,8.36504],[-81.58721,8.36663],[-81.58692,8.36201],[-81.58243,8.36075]]]}},{"type":"Feature","properties":{"corregimiento":"Justo Fidel Palacios","distrito":"Tolé","provincia":"Chiriquí","bbox":[-81.57142,8.28828,-81.51151,8.35755]},"geometry":{"type":"Polygon","coordinates":[[[-81.53182,8.35446],[-81.52384,8.34586],[-81.51801,8.34389],[-81.51785,8.33763],[-81.51475,8.34129],[-81.51151,8.33479],[-81.5159,8.32265],[-81.51606,8.31771],[-81.51162,8.31164],[-81.51169,8.30484],[-81.51475,8.30259],[-81.51241,8.29296],[-81.51455,8.28847],[-81.52005,8.28828],[-81.52908,8.29709],[-81.53796,8.29924],[-81.53518,8.30771],[-81.53799,8.30336],[-81.54432,8.3051],[-81.54268,8.31238],[-81.53559,8.31647],[-81.55046,8.32731],[-81.55448,8.33783],[-81.55103,8.34469],[-81.55634,8.34321],[-81.5568,8.33111],[-81.5601,8.32623],[-81.5638,8.32509],[-81.57142,8.33224],[-81.56805,8.34266],[-81.57019,8.34686],[-81.56445,8.34976],[-81.56418,8.35299],[-81.55713,8.35636],[-81.55587,8.34757],[-81.54123,8.35324],[-81.53936,8.35755],[-81.53182,8.35446]]]}},{"type":"Feature","properties":{"corregimiento":"Potrero de Caña","distrito":"Tolé","provincia":"Chiriquí","bbox":[-81.72729,8.26326,-81.66375,8.31758]},"geometry":{"type":"Polygon","coordinates":[[[-81.69395,8.31748],[-81.69631,8.3028],[-81.70625,8.3006],[-81.7036,8.29712],[-81.7102,8.29392],[-81.70695,8.28266],[-81.71186,8.28038],[-81.71182,8.27752],[-81.70827,8.27295],[-81.7029,8.27317],[-81.70438,8.2788],[-81.70207,8.28422],[-81.70582,8.287],[-81.703,8.28959],[-81.70285,8.29885],[-81.69352,8.29823],[-81.689,8.30346],[-81.68613,8.29727],[-81.68938,8.29169],[-81.69483,8.29139],[-81.69852,8.29671],[-81.70173,8.29563],[-81.6985,8.29381],[-81.69614,8.28524],[-81.6941,8.28359],[-81.6935,8.289],[-81.68927,8.29027],[-81.68709,8.2858],[-81.68362,8.29229],[-81.67562,8.29463],[-81.67544,8.28628],[-81.67079,8.29166],[-81.66375,8.29007],[-81.66756,8.28068],[-81.66438,8.27127],[-81.66989,8.2712],[-81.67894,8.26561],[-81.68536,8.2704],[-81.68917,8.26864],[-81.70546,8.27222],[-81.70958,8.26482],[-81.72002,8.26326],[-81.71767,8.26967],[-81.71909,8.27826],[-81.72729,8.28313],[-81.72686,8.28821],[-81.72073,8.29082],[-81.72518,8.2981],[-81.7124,8.29877],[-81.71165,8.30224],[-81.70625,8.30349],[-81.70276,8.31758],[-81.69395,8.31748]]]}}]}