{"type":"FeatureCollection","features":[{"type":"Feature","properties":{"corregimiento":"Volcán (Cabecera)","distrito":"Tierras Altas","provincia":"Chiriquí","bbox":[-82.70616,8.64462,-82.60325,8.80606]},"geometry":{"type":"Polygon","coordinates":[[[-82.60325,8.80606],[-82.61066,8.79784],[-82.60845,8.79065],[-82.61287,8.77473],[-82.62013,8.77055],[-82.62112,8.75915],[-82.6281,8.76295],[-82.63776,8.74637],[-82.63316,8.73893],[-82.63131,8.72627],[-82.63766,8.72159],[-82.63741,8.71119],[-82.6446,8.70235],[-82.65115,8.67915],[-82.64568,8.66132],[-82.65714,8.67284],[-82.67386,8.67072],[-82.67477,8.65951],[-82.67871,8.6581],[-82.68064,8.65001],[-82.68782,8.64745],[-82.68845,8.64462],[-82.69178,8.64561],[-82.68926,8.64682],[-82.68672,8.66746],[-82.6933,8.67057],[-82.69839,8.67919],[-82.69981,8.68461],[-82.69658,8.68939],[-82.69789,8.69513],[-82.70361,8.69966],[-82.70354,8.70858],[-82.68443,8.74584],[-82.68969,8.77011],[-82.69272,8.77225],[-82.69175,8.77591],[-82.69521,8.77644],[-82.70102,8.78633],[-82.70616,8.78866],[-82.70041,8.79127],[-82.68859,8.79066],[-82.68378,8.79481],[-82.66682,8.78159],[-82.65234,8.77988],[-82.64952,8.77613],[-82.64536,8.78005],[-82.64028,8.77607],[-82.62547,8.79842],[-82.60325,8.80606]]]}},{"type":"Feature","properties":{"corregimiento":"Cerro Punta","distrito":"Tierras Altas","provincia":"Chiriquí","bbox":[-82.64169,8.82048,-82.54298,8.91736]},"geometry":{"type":"Polygon","coordinates":[[[-82.62577,8.91049],[-82.61591,8.9057],[-82.60016,8.9082],[-82.59316,8.91315],[-82.58597,8.90881],[-82.5661,8.90786],[-82.54301,8.88663],[-82.54298,8.82113],[-82.55311,8.82048],[-82.56964,8.82514],[-82.57803,8.83009],[-82.59176,8.85125],[-82.60617,8.84529],[-82.61549,8.85631],[-82.61527,8.86212],[-82.64169,8.86953],[-82.64144,8.87295],[-82.63813,8.87408],[-82.63569,8.89116],[-82.64059,8.89909],[-82.6366,8.90599],[-82.63019,8.91011],[-82.62826,8.91736],[-82.62412,8.9158],[-82.62577,8.91049]]]}},{"type":"Feature","properties":{"corregimiento":"Cuesta de Piedra","distrito":"Tierras Altas","provincia":"Chiriquí","bbox":[-82.65115,8.66154,-82.60311,8.76173]},"geometry":{"type":"Polygon","coordinates":[[[-82.62705,8.76173],[-82.61967,8.75843],[-82.62303,8.73399],[-82.62055,8.71915],[-82.61077,8.6891],[-82.60586,8.68442],[-82.60737,8.67941],[-82.60311,8.66846],[-82.60528,8.66553],[-82.62397,8.66667],[-82.62414,8.66478],[-82.62429,8.66833],[-82.64561,8.66154],[-82.65115,8.67915],[-82.6446,8.70235],[-82.63741,8.71119],[-82.63766,8.72159],[-82.63131,8.72627],[-82.63316,8.73893],[-82.63776,8.74637],[-82.62705,8.76173]]]}},{"type":"Feature","properties":{"corregimiento":"Nueva California","distrito":"Tierras Altas","provincia":"Chiriquí","bbox":[-82.74145,8.77607,-82.62514,8.91363]},"geometry":{"type":"Polygon","coordinates":[[[-82.69979,8.91363],[-82.69469,8.90515],[-82.69398,8.89775],[-82.67218,8.90361],[-82.67032,8.90655],[-82.6615,8.9054],[-82.65602,8.90859],[-82.64536,8.90415],[-82.63574,8.89139],[-82.63813,8.87408],[-82.64153,8.87274],[-82.64246,8.8662],[-82.639,8.85778],[-82.64198,8.85022],[-82.62649,8.82877],[-82.62639,8.82103],[-82.63141,8.81568],[-82.62849,8.8146],[-82.62908,8.80967],[-82.63367,8.80136],[-82.62514,8.7992],[-82.64028,8.77607],[-82.64536,8.78005],[-82.64952,8.77613],[-82.65234,8.77988],[-82.66682,8.78159],[-82.68378,8.79481],[-82.68859,8.79066],[-82.70041,8.79127],[-82.70616,8.78866],[-82.71034,8.80855],[-82.71403,8.80858],[-82.71412,8.81163],[-82.72635,8.81866],[-82.74145,8.80855],[-82.74067,8.8195],[-82.73546,8.82626],[-82.7372,8.83657],[-82.73088,8.83988],[-82.72531,8.85034],[-82.7224,8.86245],[-82.72411,8.87064],[-82.71579,8.87468],[-82.71118,8.88145],[-82.70143,8.90742],[-82.70253,8.9113],[-82.69979,8.91363]]]}},{"type":"Feature","properties":{"corregimiento":"Paso Ancho","distrito":"Tierras Altas","provincia":"Chiriquí","bbox":[-82.64246,8.78764,-82.54297,8.86953]},"geometry":{"type":"Polygon","coordinates":[[[-82.64169,8.86953],[-82.61527,8.86212],[-82.61549,8.85631],[-82.60617,8.84529],[-82.59176,8.85125],[-82.57803,8.83009],[-82.56964,8.82514],[-82.55311,8.82048],[-82.54298,8.82113],[-82.54297,8.80931],[-82.58319,8.78764],[-82.58359,8.80445],[-82.58887,8.81005],[-82.62101,8.79897],[-82.63331,8.80042],[-82.62908,8.80967],[-82.62849,8.8146],[-82.63141,8.81568],[-82.62639,8.82103],[-82.62649,8.82873],[-82.6419,8.84986],[-82.639,8.85785],[-82.64246,8.8662],[-82.64169,8.86953]]]}}]}