{"type":"FeatureCollection","features":[{"type":"Feature","properties":{"corregimiento":"La Palma (Cabecera)","distrito":"Chepigana","provincia":"Darién","bbox":[-78.30932,7.99399,-78.05631,8.56264]},"geometry":{"type":"MultiPolygon","coordinates":[[[[-78.14968,8.4183],[-78.13588,8.4049],[-78.1371,8.39692],[-78.13385,8.3824],[-78.12384,8.36388],[-78.13249,8.35934],[-78.13337,8.34933],[-78.12742,8.34147],[-78.11762,8.34128],[-78.11877,8.33475],[-78.13025,8.33034],[-78.1342,8.32197],[-78.09058,8.28229],[-78.10788,8.24354],[-78.09925,8.2231],[-78.09873,8.21158],[-78.09026,8.1976],[-78.07173,8.18644],[-78.07085,8.17664],[-78.06747,8.17168],[-78.06783,8.15039],[-78.05857,8.14606],[-78.06207,8.13429],[-78.0598,8.12946],[-78.0639,8.1247],[-78.0628,8.11343],[-78.06915,8.10626],[-78.0677,8.09396],[-78.06253,8.08898],[-78.06652,8.08387],[-78.06302,8.07136],[-78.06362,8.06117],[-78.06834,8.05477],[-78.06471,8.05085],[-78.06505,8.04385],[-78.06006,8.04009],[-78.06,8.02824],[-78.05631,8.01668],[-78.05789,8.00855],[-78.06543,8.00585],[-78.06634,7.99937],[-78.07605,7.99399],[-78.07976,8.00081],[-78.09141,8.00338],[-78.09375,8.01032],[-78.10119,8.00906],[-78.11361,8.00009],[-78.11401,8.00989],[-78.11045,8.0145],[-78.11279,8.01594],[-78.11948,8.04644],[-78.11733,8.056],[-78.12286,8.06098],[-78.12915,8.09373],[-78.13449,8.09707],[-78.13624,8.10308],[-78.14062,8.10412],[-78.14389,8.11175],[-78.14901,8.11239],[-78.14972,8.11845],[-78.15444,8.11991],[-78.15318,8.12672],[-78.15867,8.13093],[-78.16016,8.13623],[-78.16355,8.1362],[-78.18218,8.15036],[-78.17677,8.15652],[-78.17275,8.15658],[-78.17291,8.16296],[-78.16328,8.16652],[-78.16085,8.18008],[-78.16265,8.19623],[-78.16976,8.18981],[-78.17411,8.19628],[-78.18365,8.19764],[-78.18854,8.20413],[-78.19387,8.20286],[-78.20032,8.20666],[-78.20286,8.21408],[-78.19574,8.2237],[-78.20668,8.24881],[-78.2068,8.26203],[-78.21036,8.26085],[-78.21632,8.26481],[-78.2134,8.26008],[-78.22363,8.23858],[-78.22153,8.22971],[-78.23931,8.21858],[-78.24079,8.20928],[-78.26169,8.20742],[-78.26641,8.20417],[-78.27697,8.20837],[-78.27759,8.21615],[-78.28911,8.22058],[-78.29148,8.22912],[-78.29508,8.22873],[-78.29481,8.23531],[-78.30411,8.24253],[-78.30755,8.24883],[-78.30599,8.2533],[-78.30932,8.25427],[-78.30668,8.25837],[-78.30083,8.25394],[-78.29532,8.25836],[-78.29493,8.25494],[-78.28895,8.25484],[-78.28916,8.25119],[-78.28404,8.2484],[-78.27187,8.25934],[-78.26641,8.2685],[-78.26685,8.27528],[-78.27904,8.2836],[-78.27877,8.28622],[-78.26594,8.28434],[-78.26059,8.2957],[-78.25615,8.29697],[-78.2521,8.29448],[-78.24154,8.27547],[-78.23183,8.27008],[-78.22658,8.27463],[-78.22212,8.26844],[-78.21895,8.27406],[-78.20759,8.27925],[-78.19906,8.27543],[-78.20258,8.28006],[-78.20084,8.2869],[-78.19233,8.29894],[-78.1834,8.30377],[-78.18592,8.31488],[-78.19265,8.31887],[-78.18204,8.32179],[-78.19159,8.33465],[-78.18755,8.33987],[-78.18133,8.33985],[-78.18081,8.33751],[-78.17862,8.34404],[-78.18124,8.35231],[-78.17571,8.35269],[-78.17396,8.36293],[-78.15871,8.38143],[-78.16311,8.39736],[-78.16041,8.41388],[-78.15556,8.41828],[-78.14968,8.4183]]],[[[-78.15272,8.56264],[-78.13951,8.54764],[-78.13956,8.54087],[-78.13488,8.53634],[-78.13608,8.52717],[-78.12807,8.52248],[-78.13533,8.51586],[-78.13471,8.51004],[-78.13344,8.51579],[-78.12734,8.51862],[-78.1287,8.51202],[-78.1265,8.51851],[-78.12696,8.51256],[-78.12471,8.51833],[-78.11815,8.51819],[-78.12168,8.5157],[-78.12306,8.51289],[-78.12375,8.50978],[-78.11761,8.51746],[-78.11903,8.51277],[-78.11705,8.51132],[-78.11625,8.51685],[-78.10674,8.51243],[-78.11165,8.50384],[-78.11928,8.50289],[-78.11383,8.50246],[-78.11562,8.50051],[-78.12215,8.4995],[-78.13133,8.50572],[-78.1307,8.50341],[-78.13356,8.50393],[-78.12297,8.49904],[-78.11651,8.49963],[-78.12173,8.49299],[-78.12113,8.47721],[-78.11324,8.45775],[-78.10256,8.4481],[-78.09751,8.42125],[-78.1005,8.41106],[-78.10638,8.41214],[-78.11803,8.43004],[-78.12193,8.43121],[-78.12918,8.44789],[-78.14167,8.46482],[-78.15812,8.47052],[-78.15968,8.47382],[-78.15541,8.47589],[-78.16022,8.47412],[-78.16047,8.478],[-78.16103,8.47861],[-78.16742,8.46408],[-78.17225,8.45909],[-78.17853,8.45891],[-78.18483,8.45004],[-78.18904,8.44844],[-78.19003,8.44394],[-78.19408,8.4431],[-78.18835,8.43732],[-78.18571,8.42629],[-78.1886,8.41893],[-78.18794,8.4107],[-78.20461,8.40297],[-78.21461,8.40503],[-78.21549,8.39719],[-78.21819,8.39335],[-78.22102,8.39563],[-78.22585,8.38571],[-78.23498,8.38848],[-78.23874,8.38508],[-78.24808,8.38339],[-78.25195,8.39282],[-78.2549,8.39362],[-78.25942,8.38993],[-78.26229,8.39834],[-78.26085,8.40153],[-78.26694,8.40853],[-78.25088,8.42231],[-78.25296,8.43706],[-78.23534,8.42948],[-78.2244,8.4334],[-78.22245,8.43743],[-78.21839,8.42648],[-78.2187,8.4386],[-78.21598,8.43552],[-78.21558,8.4222],[-78.21527,8.42436],[-78.21365,8.42228],[-78.21383,8.43142],[-78.21026,8.43055],[-78.21225,8.43697],[-78.20795,8.4338],[-78.20903,8.43851],[-78.21295,8.44026],[-78.2119,8.44283],[-78.21554,8.44187],[-78.21164,8.44302],[-78.21016,8.4521],[-78.20752,8.45163],[-78.22468,8.46642],[-78.21622,8.49059],[-78.2149,8.51201],[-78.21675,8.51888],[-78.21782,8.51399],[-78.22151,8.52121],[-78.21977,8.52914],[-78.21563,8.53084],[-78.20671,8.52741],[-78.20412,8.52182],[-78.19762,8.52419],[-78.19199,8.5213],[-78.18348,8.52284],[-78.17568,8.52831],[-78.17341,8.53469],[-78.16391,8.54421],[-78.15614,8.53988],[-78.15272,8.56264]]],[[[-78.16129,8.44512],[-78.15829,8.44403],[-78.1583,8.43653],[-78.15205,8.43217],[-78.15074,8.42629],[-78.15068,8.42091],[-78.15824,8.42108],[-78.15945,8.41821],[-78.16595,8.4236],[-78.1642,8.42742],[-78.16688,8.44077],[-78.16129,8.44512]]]]}},{"type":"Feature","properties":{"corregimiento":"Chepigana","distrito":"Chepigana","provincia":"Darién","bbox":[-78.06915,7.98309,-77.95423,8.30947]},"geometry":{"type":"Polygon","coordinates":[[[-78.05407,8.30947],[-78.03862,8.28078],[-78.04024,8.26367],[-78.04208,8.26371],[-78.02779,8.23765],[-78.01426,8.22716],[-77.99934,8.224],[-77.99436,8.22537],[-77.95423,7.99879],[-78.03901,7.98309],[-78.037,7.98781],[-78.04274,7.99448],[-78.0524,7.99654],[-78.05216,8.0063],[-78.05749,8.01051],[-78.05629,8.0177],[-78.05998,8.02814],[-78.06006,8.04009],[-78.06505,8.04385],[-78.06471,8.05085],[-78.06834,8.05477],[-78.06362,8.06117],[-78.06302,8.07136],[-78.06652,8.08387],[-78.06253,8.08898],[-78.0677,8.09396],[-78.06915,8.10626],[-78.0628,8.11343],[-78.0639,8.1247],[-78.0598,8.12946],[-78.06207,8.13429],[-78.05856,8.14602],[-78.06787,8.15055],[-78.06261,8.16346],[-78.06516,8.18197],[-78.05805,8.18371],[-78.04999,8.19131],[-78.04746,8.20104],[-78.0502,8.20692],[-78.04766,8.2111],[-78.04916,8.22255],[-78.05524,8.23329],[-78.06365,8.23792],[-78.06181,8.25459],[-78.06799,8.26092],[-78.06593,8.26808],[-78.05106,8.27782],[-78.06079,8.29206],[-78.0615,8.29964],[-78.05453,8.3002],[-78.05407,8.30947]]]}},{"type":"Feature","properties":{"corregimiento":"Setegantí","distrito":"Chepigana","provincia":"Darién","bbox":[-78.1342,8.15708,-78.04747,8.36388]},"geometry":{"type":"Polygon","coordinates":[[[-78.11522,8.35663],[-78.11041,8.35716],[-78.09501,8.34454],[-78.10006,8.34142],[-78.09778,8.33972],[-78.07932,8.3405],[-78.05407,8.30947],[-78.05453,8.3002],[-78.06156,8.29932],[-78.06079,8.29206],[-78.05107,8.27777],[-78.06593,8.26808],[-78.06799,8.26085],[-78.06181,8.25459],[-78.06365,8.23792],[-78.05524,8.23329],[-78.04916,8.22255],[-78.04766,8.2111],[-78.0502,8.20692],[-78.04747,8.20098],[-78.05222,8.18893],[-78.05813,8.18367],[-78.06495,8.18272],[-78.06258,8.16385],[-78.06598,8.15708],[-78.07169,8.18637],[-78.09127,8.19874],[-78.09873,8.21158],[-78.09925,8.2231],[-78.10771,8.24184],[-78.09058,8.28229],[-78.1342,8.32197],[-78.13025,8.33034],[-78.11877,8.33475],[-78.11762,8.34112],[-78.12907,8.34277],[-78.13372,8.35035],[-78.13287,8.35871],[-78.12384,8.36388],[-78.11522,8.35663]]]}},{"type":"Feature","properties":{"corregimiento":"Garachiné","distrito":"Chepigana","provincia":"Darién","bbox":[-78.43837,7.94922,-78.23851,8.10811]},"geometry":{"type":"Polygon","coordinates":[[[-78.40772,8.10811],[-78.41264,8.09088],[-78.40923,8.09075],[-78.40677,8.08599],[-78.40619,8.07812],[-78.40988,8.07554],[-78.41481,8.07659],[-78.41061,8.06878],[-78.40593,8.06981],[-78.40135,8.06637],[-78.39561,8.06921],[-78.39246,8.06596],[-78.37846,8.06534],[-78.37238,8.07155],[-78.36769,8.07163],[-78.35923,8.06826],[-78.35713,8.06455],[-78.34255,8.06023],[-78.32426,8.06616],[-78.31127,8.07516],[-78.30707,8.07366],[-78.29951,8.08229],[-78.28738,8.08487],[-78.28367,8.08258],[-78.28188,8.07444],[-78.27762,8.0724],[-78.27502,8.07413],[-78.27491,8.08133],[-78.27078,8.08314],[-78.27035,8.06947],[-78.26448,8.06537],[-78.26552,8.08108],[-78.26139,8.08272],[-78.2548,8.07444],[-78.25278,8.07756],[-78.25403,8.08573],[-78.25172,8.08723],[-78.24545,8.08015],[-78.24688,8.07488],[-78.23955,8.06887],[-78.24513,8.06176],[-78.24503,8.05421],[-78.24188,8.05114],[-78.24463,8.04954],[-78.24637,8.0328],[-78.23851,8.0084],[-78.24848,8.00889],[-78.25324,7.99708],[-78.31392,7.97926],[-78.32631,7.96731],[-78.3329,7.96567],[-78.33574,7.95104],[-78.34482,7.94922],[-78.35979,7.96086],[-78.36277,7.97647],[-78.36985,7.97951],[-78.3758,7.99167],[-78.38855,7.99118],[-78.3944,7.99481],[-78.40548,7.99102],[-78.41695,7.99869],[-78.41778,8.00596],[-78.41256,8.01473],[-78.41932,8.01619],[-78.42287,8.03059],[-78.43235,8.04027],[-78.42963,8.04893],[-78.4363,8.047],[-78.43837,8.05427],[-78.43584,8.06751],[-78.42369,8.08023],[-78.42107,8.0989],[-78.41219,8.10196],[-78.40772,8.10811]]]}},{"type":"Feature","properties":{"corregimiento":"Jaqué","distrito":"Chepigana","provincia":"Darién","bbox":[-78.18235,7.21858,-77.79109,7.69271]},"geometry":{"type":"Polygon","coordinates":[[[-78.15444,7.69271],[-78.12922,7.68721],[-78.119,7.69003],[-78.11448,7.68705],[-78.09664,7.68724],[-78.08661,7.67818],[-78.07109,7.67405],[-78.07043,7.66765],[-78.07432,7.66278],[-78.07309,7.65865],[-78.07593,7.65326],[-78.07268,7.6521],[-78.07021,7.64587],[-78.07203,7.64432],[-78.06887,7.64186],[-78.07195,7.6391],[-78.07212,7.62748],[-78.06808,7.62092],[-78.07109,7.61839],[-78.06352,7.61158],[-78.06731,7.60883],[-78.06036,7.60155],[-78.06638,7.59688],[-78.06467,7.59146],[-78.0637,7.59427],[-78.05407,7.59755],[-78.0501,7.60364],[-78.03893,7.60479],[-78.03178,7.61043],[-78.02417,7.60862],[-78.01559,7.59692],[-77.94476,7.62915],[-77.93551,7.63066],[-77.93073,7.62609],[-77.92719,7.62969],[-77.92408,7.61799],[-77.93038,7.60712],[-77.92492,7.60016],[-77.92042,7.57795],[-77.91698,7.57253],[-77.91049,7.57026],[-77.91259,7.56654],[-77.91007,7.5618],[-77.91561,7.55346],[-77.90883,7.53287],[-77.88806,7.53619],[-77.87702,7.53309],[-77.86567,7.53547],[-77.85248,7.54355],[-77.84549,7.54222],[-77.84254,7.53146],[-77.84338,7.51728],[-77.83526,7.51256],[-77.83504,7.50818],[-77.82756,7.50097],[-77.825,7.49305],[-77.81976,7.48959],[-77.81674,7.47804],[-77.81971,7.4698],[-77.81732,7.45717],[-77.8066,7.4535],[-77.79892,7.47025],[-77.79433,7.47222],[-77.79109,7.46999],[-77.88312,7.21858],[-77.88636,7.2211],[-77.88627,7.22584],[-77.8938,7.22276],[-77.89259,7.22842],[-77.89769,7.2314],[-77.89802,7.2381],[-77.89978,7.23631],[-77.90623,7.24069],[-77.90924,7.23674],[-77.91094,7.24333],[-77.91604,7.24065],[-77.9192,7.24291],[-77.91823,7.24634],[-77.92505,7.24718],[-77.92646,7.25431],[-77.93766,7.25754],[-77.93917,7.26438],[-77.94262,7.26273],[-77.94952,7.26705],[-77.95102,7.27737],[-77.95547,7.27669],[-77.95688,7.28091],[-77.96532,7.28066],[-77.96429,7.28377],[-77.97454,7.28777],[-77.97398,7.29182],[-77.98045,7.29369],[-77.98383,7.29885],[-77.9868,7.29808],[-77.99067,7.30478],[-77.99598,7.30838],[-77.99874,7.30602],[-77.99629,7.3151],[-77.99953,7.31747],[-77.99947,7.32186],[-78.0043,7.32668],[-78.00765,7.32644],[-78.011,7.3319],[-78.01566,7.33143],[-78.01986,7.33461],[-78.02084,7.33901],[-78.02362,7.33932],[-78.02385,7.35186],[-78.02865,7.35159],[-78.02626,7.36308],[-78.02894,7.36619],[-78.02627,7.37094],[-78.02869,7.37196],[-78.02552,7.37331],[-78.02592,7.37964],[-78.02128,7.38074],[-78.02328,7.38413],[-78.01988,7.3854],[-78.02642,7.38778],[-78.02631,7.39188],[-78.0304,7.39359],[-78.03257,7.39087],[-78.03488,7.39339],[-78.03885,7.39217],[-78.03928,7.38972],[-78.03585,7.38836],[-78.03781,7.38703],[-78.04135,7.39025],[-78.04425,7.38915],[-78.04636,7.39704],[-78.04435,7.39775],[-78.04724,7.4018],[-78.04001,7.40916],[-78.04232,7.41499],[-78.04656,7.41522],[-78.04314,7.42347],[-78.04536,7.42677],[-78.05155,7.42929],[-78.05881,7.42738],[-78.06237,7.42533],[-78.06044,7.42185],[-78.06377,7.41643],[-78.06845,7.41448],[-78.07297,7.41661],[-78.0739,7.42521],[-78.08174,7.43857],[-78.08589,7.43838],[-78.08613,7.44249],[-78.08959,7.44264],[-78.09111,7.44702],[-78.09779,7.44398],[-78.1001,7.44933],[-78.10582,7.4477],[-78.11383,7.45923],[-78.12361,7.46288],[-78.12495,7.47473],[-78.13112,7.47645],[-78.13317,7.48089],[-78.13307,7.48617],[-78.12779,7.48663],[-78.13361,7.49614],[-78.13147,7.49792],[-78.16771,7.51756],[-78.17178,7.51639],[-78.17836,7.52066],[-78.18235,7.51773],[-78.18018,7.52134],[-78.18178,7.52709],[-78.17196,7.5398],[-78.17041,7.55158],[-78.16599,7.55739],[-78.16772,7.56546],[-78.16514,7.57108],[-78.16756,7.57789],[-78.16298,7.58202],[-78.16113,7.58817],[-78.16309,7.59243],[-78.15937,7.59346],[-78.15751,7.60329],[-78.16058,7.61044],[-78.15885,7.61674],[-78.16285,7.62396],[-78.15896,7.63116],[-78.16616,7.64328],[-78.16934,7.66231],[-78.17367,7.67132],[-78.17001,7.67526],[-78.17214,7.67779],[-78.15677,7.67813],[-78.15272,7.68254],[-78.15444,7.69271]]]}},{"type":"Feature","properties":{"corregimiento":"Puerto Piña","distrito":"Chepigana","provincia":"Darién","bbox":[-78.44934,7.51771,-78.15751,8.1081]},"geometry":{"type":"Polygon","coordinates":[[[-78.42281,8.10472],[-78.40775,8.1081],[-78.40851,8.10639],[-78.41219,8.10196],[-78.42107,8.0989],[-78.42369,8.08023],[-78.43584,8.06751],[-78.43837,8.05427],[-78.4363,8.047],[-78.42963,8.04893],[-78.43235,8.04027],[-78.42287,8.03059],[-78.41932,8.01619],[-78.41256,8.01473],[-78.41778,8.00596],[-78.41687,7.99852],[-78.40548,7.99102],[-78.3944,7.99481],[-78.38855,7.99118],[-78.3758,7.99167],[-78.36985,7.97951],[-78.36277,7.97647],[-78.36004,7.96136],[-78.3534,7.95324],[-78.35085,7.9403],[-78.33335,7.93785],[-78.3203,7.94148],[-78.31502,7.9326],[-78.31475,7.92577],[-78.31927,7.91826],[-78.32472,7.91624],[-78.32407,7.89609],[-78.31588,7.88457],[-78.30835,7.85583],[-78.2933,7.85971],[-78.28514,7.82524],[-78.27073,7.81173],[-78.27085,7.80168],[-78.26195,7.77885],[-78.25829,7.77799],[-78.25777,7.76831],[-78.25222,7.75693],[-78.24324,7.74349],[-78.23768,7.74],[-78.23614,7.73357],[-78.22003,7.72354],[-78.22129,7.71445],[-78.21306,7.69975],[-78.18145,7.69078],[-78.17004,7.67569],[-78.17368,7.67058],[-78.16936,7.66238],[-78.16616,7.64328],[-78.15896,7.63116],[-78.16285,7.62396],[-78.15885,7.61674],[-78.16058,7.61044],[-78.15751,7.60329],[-78.15937,7.59346],[-78.16309,7.59243],[-78.16113,7.58817],[-78.16298,7.58202],[-78.16756,7.57789],[-78.16514,7.57108],[-78.16772,7.56546],[-78.16599,7.55739],[-78.17041,7.55158],[-78.17196,7.5398],[-78.18178,7.52709],[-78.18018,7.5212],[-78.18238,7.51771],[-78.18127,7.52293],[-78.18499,7.5271],[-78.18111,7.53572],[-78.18599,7.53625],[-78.18504,7.53855],[-78.18741,7.53908],[-78.18137,7.54283],[-78.17644,7.53988],[-78.17588,7.55485],[-78.17263,7.55865],[-78.17984,7.56484],[-78.17342,7.56984],[-78.17414,7.57242],[-78.17119,7.57179],[-78.17156,7.57729],[-78.18066,7.58364],[-78.18753,7.58453],[-78.19354,7.58256],[-78.19263,7.57686],[-78.19642,7.58352],[-78.19796,7.5818],[-78.19828,7.58444],[-78.202,7.58453],[-78.19968,7.5757],[-78.20079,7.562],[-78.20305,7.55701],[-78.20623,7.55631],[-78.20402,7.56422],[-78.20889,7.56921],[-78.20764,7.57355],[-78.21069,7.57476],[-78.21068,7.57907],[-78.20409,7.58467],[-78.20705,7.59114],[-78.19839,7.59135],[-78.19505,7.59536],[-78.1999,7.60413],[-78.19869,7.61043],[-78.20423,7.6131],[-78.20522,7.61952],[-78.21107,7.61865],[-78.21449,7.62485],[-78.22238,7.62701],[-78.22097,7.62888],[-78.22674,7.63425],[-78.22798,7.63997],[-78.23917,7.64326],[-78.24124,7.64832],[-78.23714,7.65625],[-78.24648,7.66611],[-78.25281,7.66333],[-78.25154,7.66981],[-78.26208,7.67483],[-78.26454,7.66937],[-78.26553,7.67097],[-78.27143,7.66518],[-78.27186,7.67447],[-78.27579,7.67755],[-78.27056,7.68209],[-78.27409,7.68848],[-78.28049,7.68839],[-78.28236,7.69134],[-78.29256,7.68824],[-78.295,7.68309],[-78.29775,7.68335],[-78.29578,7.69064],[-78.29035,7.69435],[-78.29664,7.69674],[-78.29765,7.70323],[-78.29135,7.71131],[-78.28174,7.71556],[-78.27876,7.72433],[-78.28119,7.72786],[-78.2808,7.74097],[-78.28746,7.74875],[-78.28605,7.75308],[-78.28961,7.75623],[-78.29042,7.76516],[-78.30505,7.78613],[-78.30656,7.79428],[-78.31498,7.80524],[-78.31431,7.80789],[-78.33041,7.8265],[-78.32952,7.82973],[-78.33611,7.8399],[-78.33597,7.84437],[-78.34029,7.84876],[-78.33837,7.85447],[-78.34092,7.85708],[-78.3405,7.86278],[-78.34472,7.86646],[-78.34466,7.87513],[-78.34995,7.87465],[-78.3635,7.89148],[-78.36742,7.89073],[-78.37973,7.89855],[-78.38318,7.90546],[-78.38939,7.90516],[-78.39317,7.90774],[-78.39182,7.91105],[-78.39504,7.91556],[-78.40072,7.91683],[-78.39837,7.9221],[-78.41133,7.9523],[-78.41072,7.96231],[-78.41676,7.96593],[-78.41999,7.97287],[-78.41822,7.97581],[-78.42316,7.97926],[-78.4212,7.98589],[-78.42359,7.98858],[-78.42447,8.00589],[-78.42012,8.00743],[-78.42167,8.01098],[-78.41971,8.0124],[-78.42408,8.01322],[-78.4238,8.01699],[-78.43079,8.02558],[-78.43304,8.02188],[-78.43374,8.03394],[-78.43589,8.03136],[-78.43953,8.0384],[-78.44258,8.03637],[-78.44329,8.0448],[-78.44721,8.04453],[-78.44505,8.0555],[-78.44892,8.05683],[-78.44934,8.06116],[-78.44764,8.06219],[-78.44719,8.05862],[-78.44541,8.0618],[-78.44633,8.07121],[-78.44058,8.08618],[-78.43756,8.08545],[-78.42281,8.10472]]]}},{"type":"Feature","properties":{"corregimiento":"Sambú","distrito":"Chepigana","provincia":"Darién","bbox":[-78.26317,7.97629,-78.1959,8.07262]},"geometry":{"type":"Polygon","coordinates":[[[-78.22183,8.07262],[-78.21901,8.06345],[-78.22745,8.06232],[-78.22403,8.05897],[-78.22647,8.05625],[-78.22274,8.04931],[-78.22184,8.0541],[-78.21748,8.0569],[-78.22028,8.04909],[-78.20999,8.04817],[-78.21271,8.04503],[-78.21195,8.04023],[-78.20313,8.04364],[-78.20508,8.04103],[-78.20364,8.03194],[-78.2067,8.03093],[-78.20764,8.02594],[-78.20438,8.02285],[-78.20711,8.02086],[-78.20008,8.00834],[-78.19635,8.00786],[-78.20123,7.99961],[-78.1959,7.98582],[-78.20243,7.97629],[-78.26317,7.99416],[-78.25324,7.99708],[-78.24845,8.00891],[-78.23826,8.00896],[-78.24546,8.02521],[-78.24502,8.04745],[-78.24188,8.05118],[-78.24503,8.05421],[-78.24505,8.06194],[-78.23973,8.06925],[-78.22706,8.06934],[-78.22183,8.07262]]]}},{"type":"Feature","properties":{"corregimiento":"Taimatí","distrito":"Chepigana","provincia":"Darién","bbox":[-78.29705,7.99969,-78.11045,8.26481]},"geometry":{"type":"Polygon","coordinates":[[[-78.21632,8.26481],[-78.20669,8.26185],[-78.2066,8.24856],[-78.19616,8.22653],[-78.19591,8.22303],[-78.20287,8.21401],[-78.20032,8.20666],[-78.19387,8.20286],[-78.18854,8.20413],[-78.18365,8.19764],[-78.17411,8.19628],[-78.16976,8.18981],[-78.16265,8.19623],[-78.16085,8.18008],[-78.16328,8.16652],[-78.17291,8.16296],[-78.17275,8.15658],[-78.17677,8.15652],[-78.18218,8.15036],[-78.16355,8.1362],[-78.16016,8.13623],[-78.15867,8.13093],[-78.15318,8.12672],[-78.15444,8.11991],[-78.14972,8.11845],[-78.14901,8.11239],[-78.14389,8.11175],[-78.14062,8.10412],[-78.13624,8.10308],[-78.13449,8.09707],[-78.12915,8.09373],[-78.12286,8.06098],[-78.11734,8.05606],[-78.11948,8.04644],[-78.11279,8.01594],[-78.11045,8.0145],[-78.11398,8.01001],[-78.11407,7.99969],[-78.12887,8.00168],[-78.14077,8.00714],[-78.14471,8.01218],[-78.14441,8.02065],[-78.14801,8.02443],[-78.14435,8.03248],[-78.14532,8.03725],[-78.15233,8.04131],[-78.1541,8.05052],[-78.15228,8.0535],[-78.1617,8.06175],[-78.16568,8.07664],[-78.16044,8.08265],[-78.14301,8.07412],[-78.13625,8.07349],[-78.1328,8.07761],[-78.1374,8.08673],[-78.14867,8.09449],[-78.15303,8.10261],[-78.15261,8.10801],[-78.15848,8.11318],[-78.16403,8.11154],[-78.17189,8.10104],[-78.18425,8.09678],[-78.18811,8.08904],[-78.19514,8.08376],[-78.21305,8.0843],[-78.21884,8.06943],[-78.22183,8.07262],[-78.22706,8.06934],[-78.23962,8.06917],[-78.24688,8.07488],[-78.24545,8.08015],[-78.25209,8.08737],[-78.25468,8.0745],[-78.26139,8.08272],[-78.26561,8.08091],[-78.26311,8.06745],[-78.26482,8.0653],[-78.27035,8.06947],[-78.27122,8.08343],[-78.27499,8.0812],[-78.27725,8.0724],[-78.28218,8.07487],[-78.28507,8.08447],[-78.29705,8.08244],[-78.29632,8.08706],[-78.27224,8.10886],[-78.26405,8.11332],[-78.26144,8.11195],[-78.25636,8.11684],[-78.26114,8.12403],[-78.25291,8.13214],[-78.25086,8.14032],[-78.25316,8.14212],[-78.25002,8.14273],[-78.24814,8.1488],[-78.2454,8.18621],[-78.25578,8.19425],[-78.26112,8.19374],[-78.26322,8.19789],[-78.26801,8.19701],[-78.27371,8.20663],[-78.26641,8.20417],[-78.26169,8.20742],[-78.24079,8.20928],[-78.23931,8.21858],[-78.22162,8.22953],[-78.22363,8.23858],[-78.2134,8.26008],[-78.21632,8.26481]]]}},{"type":"Feature","properties":{"corregimiento":"Tucutí","distrito":"Chepigana","provincia":"Darién","bbox":[-78.05059,7.4532,-77.69382,8.02764]},"geometry":{"type":"Polygon","coordinates":[[[-77.87235,8.02764],[-77.86797,8.02143],[-77.86558,8.02244],[-77.86571,8.01432],[-77.86119,8.01208],[-77.85992,8.00308],[-77.85513,8.00165],[-77.85763,8.00062],[-77.85428,7.99811],[-77.85861,7.99149],[-77.85818,7.98738],[-77.84845,7.98241],[-77.84706,7.97713],[-77.85393,7.973],[-77.85275,7.96707],[-77.85522,7.96627],[-77.85301,7.96291],[-77.85615,7.96094],[-77.85269,7.95758],[-77.85487,7.95435],[-77.851,7.95488],[-77.84769,7.9485],[-77.84231,7.94545],[-77.84569,7.94248],[-77.8405,7.93628],[-77.84118,7.9328],[-77.83391,7.93647],[-77.83545,7.927],[-77.83183,7.92825],[-77.82562,7.92328],[-77.82033,7.92505],[-77.81987,7.91725],[-77.82288,7.91373],[-77.81758,7.90815],[-77.81316,7.90859],[-77.80911,7.90496],[-77.8085,7.9083],[-77.80623,7.9057],[-77.80444,7.90826],[-77.8005,7.90598],[-77.79848,7.91362],[-77.79493,7.91145],[-77.78524,7.91591],[-77.7795,7.91312],[-77.76708,7.91758],[-77.75863,7.91539],[-77.74881,7.90777],[-77.74259,7.91363],[-77.7323,7.91276],[-77.72842,7.91499],[-77.72377,7.92336],[-77.71972,7.92448],[-77.70257,7.94185],[-77.70303,7.92687],[-77.69494,7.91033],[-77.69382,7.90106],[-77.69425,7.88719],[-77.69942,7.88248],[-77.69744,7.87774],[-77.70415,7.86989],[-77.7062,7.8607],[-77.713,7.85406],[-77.7102,7.8403],[-77.72289,7.81556],[-77.72569,7.79804],[-77.72301,7.78957],[-77.73267,7.77488],[-77.73731,7.7721],[-77.73366,7.76033],[-77.74151,7.7403],[-77.74508,7.71705],[-77.72809,7.70621],[-77.7277,7.68685],[-77.7428,7.67896],[-77.74213,7.67038],[-77.74557,7.66408],[-77.74319,7.65827],[-77.74717,7.65033],[-77.74171,7.64093],[-77.74132,7.62958],[-77.74858,7.61491],[-77.74676,7.60556],[-77.73637,7.60188],[-77.73773,7.58685],[-77.7329,7.57039],[-77.72547,7.56421],[-77.71521,7.53769],[-77.70351,7.52024],[-77.70106,7.50676],[-77.71067,7.50017],[-77.73112,7.4744],[-77.73956,7.47133],[-77.74373,7.46541],[-77.75165,7.46767],[-77.75933,7.46078],[-77.76876,7.46211],[-77.7724,7.45896],[-77.78462,7.46291],[-77.79449,7.47221],[-77.80124,7.46722],[-77.80735,7.4532],[-77.81742,7.45735],[-77.81971,7.4698],[-77.81674,7.47804],[-77.81982,7.48976],[-77.825,7.49305],[-77.82756,7.50097],[-77.83504,7.50818],[-77.83526,7.51256],[-77.84342,7.51737],[-77.84254,7.53146],[-77.84544,7.54219],[-77.85248,7.54355],[-77.86567,7.53547],[-77.87702,7.53309],[-77.88806,7.53619],[-77.90888,7.53294],[-77.91561,7.55346],[-77.91007,7.5618],[-77.91259,7.56654],[-77.91049,7.57026],[-77.91698,7.57253],[-77.92042,7.57795],[-77.92492,7.60016],[-77.93038,7.60712],[-77.92409,7.6179],[-77.92703,7.62949],[-77.93073,7.62609],[-77.93613,7.63078],[-77.94677,7.62808],[-77.9477,7.63359],[-77.94586,7.64045],[-77.94844,7.64996],[-77.94511,7.66008],[-77.9485,7.67028],[-77.94415,7.67897],[-77.95049,7.68569],[-77.95054,7.69227],[-77.9454,7.70834],[-77.95288,7.72864],[-77.95694,7.73169],[-77.94452,7.74314],[-77.94474,7.75523],[-77.95183,7.76482],[-77.9563,7.78681],[-77.96079,7.78787],[-77.97563,7.7816],[-77.97729,7.79056],[-77.98221,7.79582],[-77.97815,7.81228],[-77.9827,7.81754],[-77.98195,7.82783],[-77.98361,7.83216],[-77.98995,7.83398],[-77.98946,7.83842],[-77.99448,7.84238],[-77.99156,7.84827],[-77.99641,7.8643],[-77.99522,7.86909],[-78.00547,7.88287],[-78.00794,7.89618],[-78.01214,7.90062],[-78.00488,7.91068],[-78.00372,7.92053],[-78.00721,7.92535],[-78.01795,7.92592],[-78.0221,7.93218],[-78.02415,7.93949],[-78.02035,7.94601],[-78.02582,7.95781],[-78.02562,7.96403],[-78.03714,7.96003],[-78.04856,7.96333],[-78.05059,7.97039],[-78.04404,7.97246],[-78.03901,7.98309],[-77.95423,7.99879],[-77.95231,8.00248],[-77.93869,7.9981],[-77.93547,7.98731],[-77.92785,7.98728],[-77.92362,7.99291],[-77.91923,7.99191],[-77.91318,7.99597],[-77.90938,7.99421],[-77.90135,7.99729],[-77.89927,8.00327],[-77.90191,8.00634],[-77.89767,8.01522],[-77.89297,8.01675],[-77.89043,8.01461],[-77.88727,8.02258],[-77.88302,8.01566],[-77.8779,8.02004],[-77.87911,8.02324],[-77.87459,8.02438],[-77.87966,8.02471],[-77.87957,8.02668],[-77.87235,8.02764]]]}},{"type":"Feature","properties":{"corregimiento":"Camogantí","distrito":"Chepigana","provincia":"Darién","bbox":[-77.99436,7.90496,-77.70257,8.23933]},"geometry":{"type":"Polygon","coordinates":[[[-77.95831,8.23933],[-77.94954,8.23729],[-77.93334,8.2276],[-77.91453,8.22481],[-77.88966,8.21535],[-77.88086,8.20774],[-77.87504,8.19237],[-77.85293,8.18131],[-77.84825,8.14339],[-77.84051,8.13884],[-77.82769,8.14499],[-77.70257,7.94185],[-77.71972,7.92448],[-77.72377,7.92336],[-77.72842,7.91499],[-77.7323,7.91276],[-77.74259,7.91363],[-77.74889,7.90776],[-77.75863,7.91539],[-77.76708,7.91758],[-77.7795,7.91312],[-77.78524,7.91591],[-77.79493,7.91145],[-77.79848,7.91362],[-77.8005,7.90598],[-77.80444,7.90826],[-77.80623,7.9057],[-77.8085,7.9083],[-77.80911,7.90496],[-77.81316,7.90859],[-77.81758,7.90815],[-77.82288,7.91373],[-77.81987,7.91725],[-77.82033,7.92505],[-77.82562,7.92328],[-77.83183,7.92825],[-77.83545,7.927],[-77.83391,7.93647],[-77.84118,7.9328],[-77.8405,7.93628],[-77.84569,7.94248],[-77.84231,7.94545],[-77.84769,7.9485],[-77.851,7.95488],[-77.85487,7.95435],[-77.85269,7.95758],[-77.85615,7.96094],[-77.85301,7.96291],[-77.85522,7.96627],[-77.85275,7.96707],[-77.85393,7.973],[-77.84706,7.97713],[-77.84845,7.98241],[-77.85818,7.98738],[-77.85861,7.99149],[-77.85428,7.99811],[-77.85763,8.00062],[-77.85513,8.00165],[-77.86,8.0032],[-77.86119,8.01208],[-77.86571,8.01432],[-77.86552,8.02231],[-77.86802,8.02146],[-77.8725,8.02901],[-77.87971,8.02651],[-77.87459,8.02438],[-77.87911,8.02324],[-77.8779,8.02004],[-77.88297,8.01569],[-77.88727,8.02258],[-77.89043,8.01461],[-77.89297,8.01675],[-77.89767,8.01522],[-77.90191,8.00634],[-77.89927,8.00327],[-77.90135,7.99729],[-77.90938,7.99421],[-77.91318,7.99597],[-77.91923,7.99191],[-77.92362,7.99291],[-77.92765,7.98735],[-77.93718,7.9885],[-77.93893,7.99825],[-77.95224,8.00248],[-77.95423,7.99879],[-77.99436,8.22537],[-77.97638,8.22336],[-77.95514,8.20324],[-77.94106,8.19553],[-77.9228,8.19701],[-77.91224,8.19401],[-77.91096,8.19641],[-77.92178,8.20111],[-77.94008,8.20354],[-77.95617,8.2131],[-77.97533,8.23496],[-77.95831,8.23933]]]}}]}