{"type":"FeatureCollection","features":[{"type":"Feature","properties":{"corregimiento":"El Real de Santa María (Cabecera)","distrito":"Pinogana","provincia":"Darién","bbox":[-77.82769,7.94185,-77.68337,8.14499]},"geometry":{"type":"MultiPolygon","coordinates":[[[[-77.72154,8.12502],[-77.71429,8.12601],[-77.71311,8.11378],[-77.7104,8.11373],[-77.71344,8.10938],[-77.70994,8.10324],[-77.70013,8.10277],[-77.69174,8.09798],[-77.68337,8.07981],[-77.68466,8.07458],[-77.68944,8.07153],[-77.68661,8.06214],[-77.6878,8.0536],[-77.69905,8.034],[-77.69799,8.02104],[-77.70223,8.01505],[-77.70315,7.99606],[-77.70769,7.98756],[-77.70811,7.97068],[-77.70311,7.9603],[-77.70492,7.95418],[-77.70257,7.94185],[-77.7992,8.09875],[-77.79188,8.09586],[-77.78223,8.10132],[-77.77825,8.10037],[-77.77748,8.09622],[-77.78506,8.08492],[-77.78462,8.08205],[-77.78152,8.08162],[-77.77407,8.09012],[-77.76308,8.0912],[-77.76665,8.10678],[-77.75709,8.11086],[-77.75833,8.12074],[-77.74945,8.12089],[-77.74412,8.12563],[-77.72867,8.11646],[-77.72446,8.12707],[-77.71866,8.13161],[-77.72255,8.12785],[-77.72154,8.12502]]],[[[-77.81612,8.12828],[-77.79464,8.12365],[-77.79351,8.11951],[-77.80412,8.10674],[-77.82769,8.14499],[-77.82402,8.14313],[-77.81612,8.12828]]]]}},{"type":"Feature","properties":{"corregimiento":"Boca de Cupe","distrito":"Pinogana","provincia":"Darién","bbox":[-77.74461,7.50786,-77.47495,8.0801]},"geometry":{"type":"Polygon","coordinates":[[[-77.47495,8.06798],[-77.47659,8.04015],[-77.49113,8.03952],[-77.49897,8.04439],[-77.50325,8.03892],[-77.5164,8.04285],[-77.53541,8.03189],[-77.54299,8.01732],[-77.55447,8.01875],[-77.55785,8.01195],[-77.56483,8.01428],[-77.57735,8.00796],[-77.58111,8.0105],[-77.58201,8.00851],[-77.55228,7.95758],[-77.54452,7.95677],[-77.54386,7.95189],[-77.54027,7.95286],[-77.54074,7.94998],[-77.53398,7.94427],[-77.53426,7.94083],[-77.54448,7.93888],[-77.54202,7.93095],[-77.53463,7.92875],[-77.52978,7.9365],[-77.52111,7.93877],[-77.51987,7.93483],[-77.52592,7.92895],[-77.52551,7.92575],[-77.51764,7.92908],[-77.50431,7.92062],[-77.50636,7.91758],[-77.51888,7.92448],[-77.51589,7.91169],[-77.51996,7.91189],[-77.53158,7.90355],[-77.53032,7.89951],[-77.52374,7.89923],[-77.52162,7.89531],[-77.52294,7.89189],[-77.52901,7.89095],[-77.52593,7.88627],[-77.52552,7.87747],[-77.5212,7.87493],[-77.51077,7.87599],[-77.51186,7.87124],[-77.51931,7.86983],[-77.51933,7.86509],[-77.5147,7.86088],[-77.52271,7.85393],[-77.53352,7.85701],[-77.54501,7.8544],[-77.55578,7.85763],[-77.56277,7.85111],[-77.56623,7.85249],[-77.57263,7.84842],[-77.5797,7.85032],[-77.58482,7.8413],[-77.59471,7.83579],[-77.59823,7.83485],[-77.60026,7.83901],[-77.61391,7.83781],[-77.62215,7.83175],[-77.62015,7.82743],[-77.6247,7.81294],[-77.61925,7.80474],[-77.62123,7.79649],[-77.62555,7.79402],[-77.61938,7.78342],[-77.6186,7.77537],[-77.60759,7.76126],[-77.60722,7.75196],[-77.60278,7.74949],[-77.601,7.72038],[-77.60389,7.71848],[-77.60209,7.71373],[-77.60595,7.70603],[-77.59296,7.69178],[-77.5868,7.67831],[-77.58597,7.67251],[-77.58851,7.66899],[-77.58254,7.65863],[-77.57045,7.6567],[-77.56972,7.65001],[-77.57422,7.63946],[-77.57745,7.63696],[-77.58315,7.63793],[-77.58542,7.63168],[-77.58258,7.62858],[-77.59069,7.61198],[-77.5805,7.6094],[-77.5825,7.60369],[-77.57405,7.58561],[-77.57471,7.57507],[-77.57907,7.57171],[-77.58283,7.56079],[-77.57027,7.55746],[-77.55841,7.56246],[-77.54442,7.55527],[-77.54129,7.5464],[-77.53196,7.54658],[-77.54708,7.53127],[-77.54918,7.52309],[-77.55624,7.51997],[-77.56209,7.51273],[-77.56262,7.50806],[-77.56835,7.50786],[-77.57621,7.51474],[-77.58439,7.51426],[-77.59244,7.52654],[-77.59071,7.53029],[-77.59321,7.53502],[-77.59992,7.53643],[-77.61171,7.54859],[-77.609,7.5611],[-77.62412,7.57861],[-77.6265,7.58943],[-77.63106,7.59493],[-77.6316,7.60569],[-77.63738,7.61203],[-77.6406,7.62985],[-77.64496,7.63478],[-77.64614,7.65165],[-77.65633,7.66114],[-77.67169,7.66804],[-77.67542,7.67753],[-77.68242,7.67427],[-77.68619,7.68601],[-77.69156,7.68477],[-77.69832,7.69274],[-77.72862,7.69607],[-77.72816,7.70631],[-77.74461,7.71563],[-77.74299,7.73458],[-77.73366,7.76033],[-77.73731,7.7721],[-77.73267,7.77488],[-77.72301,7.78957],[-77.72569,7.79804],[-77.72289,7.81556],[-77.7102,7.8403],[-77.713,7.85406],[-77.7062,7.8607],[-77.70415,7.86989],[-77.69742,7.87782],[-77.69935,7.88271],[-77.69423,7.88725],[-77.6949,7.91015],[-77.70303,7.92687],[-77.70257,7.94185],[-77.59286,8.03981],[-77.59676,8.04768],[-77.5882,8.04931],[-77.58102,8.03974],[-77.57767,8.03974],[-77.57721,8.04492],[-77.58286,8.04622],[-77.58164,8.05147],[-77.58728,8.05047],[-77.58507,8.05963],[-77.57731,8.05699],[-77.57402,8.05862],[-77.57517,8.05427],[-77.56704,8.0506],[-77.56409,8.05979],[-77.55901,8.06222],[-77.55672,8.05972],[-77.55815,8.05522],[-77.55332,8.0557],[-77.55484,8.06014],[-77.54987,8.05989],[-77.54742,8.06653],[-77.54976,8.07049],[-77.54183,8.07343],[-77.54109,8.067],[-77.53871,8.06634],[-77.53645,8.06731],[-77.53563,8.07732],[-77.5314,8.07519],[-77.53416,8.07435],[-77.53191,8.07141],[-77.52573,8.07511],[-77.52486,8.0788],[-77.51863,8.0801],[-77.51405,8.07742],[-77.51462,8.07435],[-77.51785,8.07454],[-77.51747,8.06951],[-77.51138,8.06529],[-77.5048,8.06897],[-77.50645,8.0725],[-77.50486,8.07674],[-77.5041,8.07288],[-77.49497,8.07694],[-77.48921,8.06864],[-77.48673,8.07045],[-77.48986,8.07549],[-77.48697,8.0777],[-77.48024,8.06874],[-77.47495,8.06798]]]}},{"type":"Feature","properties":{"corregimiento":"Pinogana","distrito":"Pinogana","provincia":"Darién","bbox":[-77.71344,8.03022,-77.61622,8.13895]},"geometry":{"type":"Polygon","coordinates":[[[-77.62052,8.13488],[-77.62472,8.12354],[-77.61765,8.12628],[-77.61622,8.12089],[-77.62657,8.11846],[-77.63216,8.1129],[-77.62748,8.1128],[-77.6258,8.10523],[-77.61946,8.10654],[-77.61679,8.10283],[-77.62729,8.08885],[-77.62902,8.07414],[-77.63428,8.07137],[-77.64146,8.07242],[-77.64795,8.06858],[-77.65,8.06287],[-77.66899,8.05732],[-77.69858,8.03022],[-77.69898,8.03417],[-77.6878,8.0536],[-77.68661,8.06214],[-77.68948,8.07137],[-77.68466,8.07458],[-77.68339,8.07997],[-77.69174,8.09798],[-77.70013,8.10277],[-77.70994,8.10324],[-77.71344,8.10938],[-77.71177,8.1138],[-77.70536,8.11846],[-77.70267,8.11366],[-77.69887,8.11418],[-77.69796,8.11823],[-77.70271,8.12399],[-77.69526,8.12884],[-77.69083,8.12818],[-77.68684,8.12021],[-77.67153,8.11299],[-77.66464,8.12902],[-77.66226,8.11739],[-77.65653,8.11893],[-77.65007,8.11656],[-77.64966,8.1281],[-77.64591,8.12954],[-77.64623,8.12477],[-77.64164,8.11985],[-77.63507,8.12105],[-77.63523,8.12713],[-77.62747,8.12817],[-77.62641,8.13715],[-77.62353,8.13895],[-77.62052,8.13488]]]}},{"type":"Feature","properties":{"corregimiento":"Yape","distrito":"Pinogana","provincia":"Darién","bbox":[-77.70852,7.94185,-77.16246,8.16624]},"geometry":{"type":"MultiPolygon","coordinates":[[[[-77.24857,8.16584],[-77.24919,8.16187],[-77.25723,8.15791],[-77.25245,8.15498],[-77.25195,8.14996],[-77.2337,8.14269],[-77.22681,8.13633],[-77.22693,8.133],[-77.2318,8.13379],[-77.23482,8.12849],[-77.23214,8.11498],[-77.22715,8.10968],[-77.22527,8.10034],[-77.21788,8.08815],[-77.22022,8.07337],[-77.2243,8.0696],[-77.22716,8.05596],[-77.22998,8.05415],[-77.2276,8.04603],[-77.22951,8.04339],[-77.2261,8.04229],[-77.22432,8.03304],[-77.23299,8.02471],[-77.22825,8.02208],[-77.22121,8.02614],[-77.21508,8.02025],[-77.21694,8.01625],[-77.21323,8.00899],[-77.19939,7.9992],[-77.1911,7.98862],[-77.18686,7.98913],[-77.18252,7.98332],[-77.17107,7.97824],[-77.16246,7.96965],[-77.263,8.01908],[-77.22874,8.03361],[-77.2413,8.03826],[-77.25555,8.03587],[-77.28489,8.04301],[-77.31301,8.02461],[-77.3271,8.0259],[-77.32885,8.02891],[-77.33691,8.02767],[-77.34111,8.02181],[-77.35115,8.02332],[-77.35672,8.01078],[-77.35977,8.01087],[-77.36213,8.0066],[-77.36484,8.00889],[-77.37305,8.00006],[-77.37158,7.99634],[-77.38022,7.99254],[-77.38123,7.98598],[-77.38555,7.98371],[-77.38359,7.98165],[-77.39693,7.97719],[-77.3991,7.98221],[-77.40394,7.9732],[-77.40955,7.97313],[-77.41116,7.98107],[-77.41346,7.97644],[-77.42386,7.97318],[-77.43117,7.97397],[-77.43216,7.97646],[-77.43669,7.97525],[-77.43854,7.98158],[-77.44648,7.97746],[-77.45479,7.97954],[-77.45726,7.97202],[-77.45977,7.98081],[-77.46386,7.9786],[-77.46817,7.98119],[-77.47659,8.04015],[-77.47379,8.06982],[-77.47771,8.072],[-77.47493,8.07817],[-77.47913,8.07974],[-77.47543,8.08569],[-77.47857,8.08816],[-77.48004,8.09741],[-77.47532,8.09816],[-77.47569,8.10389],[-77.47057,8.10543],[-77.47343,8.1084],[-77.43895,8.11111],[-77.42493,8.12133],[-77.41918,8.12316],[-77.40878,8.12097],[-77.29582,8.16624],[-77.24857,8.16584]]],[[[-77.60764,8.10145],[-77.6001,8.09899],[-77.59587,8.09339],[-77.59721,8.08867],[-77.59454,8.08501],[-77.5864,8.08358],[-77.58535,8.07531],[-77.58785,8.07436],[-77.592,8.07822],[-77.59353,8.07538],[-77.58511,8.07094],[-77.58366,8.06667],[-77.57453,8.05976],[-77.57698,8.05698],[-77.58456,8.05985],[-77.58733,8.05572],[-77.58721,8.05033],[-77.58175,8.05157],[-77.58275,8.04596],[-77.57743,8.04514],[-77.57676,8.04097],[-77.58056,8.03936],[-77.58934,8.04973],[-77.59676,8.04768],[-77.59286,8.03981],[-77.70257,7.94185],[-77.70492,7.95418],[-77.70309,7.96021],[-77.70803,7.97024],[-77.70852,7.97958],[-77.70731,7.98918],[-77.70315,7.99606],[-77.70225,8.01497],[-77.69799,8.02104],[-77.69858,8.03022],[-77.66899,8.05732],[-77.65,8.06287],[-77.64795,8.06858],[-77.64146,8.07242],[-77.63428,8.07137],[-77.62945,8.07372],[-77.62508,8.09385],[-77.61986,8.09881],[-77.61884,8.0952],[-77.60764,8.10145]]]]}},{"type":"Feature","properties":{"corregimiento":"Yaviza","distrito":"Pinogana","provincia":"Darién","bbox":[-77.88065,8.08205,-77.62353,8.33692]},"geometry":{"type":"Polygon","coordinates":[[[-77.83428,8.33692],[-77.82867,8.33268],[-77.82123,8.33318],[-77.81045,8.32823],[-77.80207,8.32806],[-77.79686,8.33232],[-77.78814,8.33312],[-77.77655,8.33085],[-77.77327,8.32565],[-77.76176,8.32074],[-77.75589,8.32262],[-77.75629,8.31272],[-77.76523,8.31696],[-77.76858,8.31326],[-77.76791,8.30916],[-77.76303,8.30561],[-77.76215,8.31206],[-77.75488,8.30584],[-77.75723,8.297],[-77.74955,8.29859],[-77.74987,8.28853],[-77.74271,8.28145],[-77.72126,8.28134],[-77.72893,8.26558],[-77.72761,8.25731],[-77.72297,8.26012],[-77.71901,8.25403],[-77.72597,8.25148],[-77.73334,8.25484],[-77.73295,8.24277],[-77.72112,8.24001],[-77.71296,8.24221],[-77.66055,8.21735],[-77.63222,8.1835],[-77.62353,8.13895],[-77.62641,8.13715],[-77.62774,8.12789],[-77.63501,8.12743],[-77.63488,8.12121],[-77.64086,8.11961],[-77.64584,8.12401],[-77.64706,8.12978],[-77.65024,8.12731],[-77.65048,8.11651],[-77.65653,8.11893],[-77.66226,8.11739],[-77.66473,8.12899],[-77.67153,8.11299],[-77.68731,8.12055],[-77.69224,8.12897],[-77.7023,8.12493],[-77.6978,8.11749],[-77.70106,8.11326],[-77.7052,8.11846],[-77.71301,8.11364],[-77.71429,8.12601],[-77.7227,8.12609],[-77.71878,8.13165],[-77.72471,8.12668],[-77.72839,8.1165],[-77.74547,8.12553],[-77.74945,8.12089],[-77.75855,8.12055],[-77.75709,8.11086],[-77.76629,8.10789],[-77.76329,8.09088],[-77.77351,8.09037],[-77.78063,8.08207],[-77.78462,8.08205],[-77.7846,8.08633],[-77.77736,8.09653],[-77.77803,8.10012],[-77.78191,8.10142],[-77.79399,8.09593],[-77.80195,8.10406],[-77.79103,8.11513],[-77.7911,8.12362],[-77.79521,8.12729],[-77.80973,8.12895],[-77.82326,8.15047],[-77.83374,8.15774],[-77.86023,8.2731],[-77.85938,8.27886],[-77.86353,8.28763],[-77.87086,8.29026],[-77.88048,8.32466],[-77.88065,8.33189],[-77.84561,8.33239],[-77.83428,8.33692]]]}},{"type":"Feature","properties":{"corregimiento":"Metetí","distrito":"Pinogana","provincia":"Darién","bbox":[-78.08413,8.32781,-77.70618,8.88312]},"geometry":{"type":"Polygon","coordinates":[[[-78.08389,8.70974],[-78.07636,8.72098],[-78.08345,8.73235],[-78.08413,8.74046],[-78.08034,8.74352],[-78.0698,8.73356],[-78.06726,8.72736],[-78.0559,8.72664],[-78.05234,8.72125],[-78.04315,8.71829],[-78.03913,8.72179],[-78.03313,8.72186],[-78.02844,8.71418],[-78.0201,8.71361],[-78.0149,8.7023],[-78.01042,8.70222],[-78.00872,8.68937],[-78.00221,8.68098],[-77.99106,8.68035],[-77.98835,8.67654],[-77.98151,8.67617],[-77.97847,8.6727],[-77.9749,8.67353],[-77.97417,8.67761],[-77.97423,8.67556],[-77.96994,8.67564],[-77.96798,8.67969],[-77.97234,8.68394],[-77.97063,8.68616],[-77.96745,8.68231],[-77.9656,8.69031],[-77.96641,8.68835],[-77.97634,8.69126],[-77.97193,8.69624],[-77.97114,8.69188],[-77.96819,8.69325],[-77.96804,8.69999],[-77.97147,8.69811],[-77.97032,8.70732],[-77.96496,8.70422],[-77.96211,8.70827],[-77.9667,8.71187],[-77.966,8.71637],[-77.97071,8.71557],[-77.97365,8.71947],[-77.96888,8.72294],[-77.96807,8.73627],[-77.97242,8.73799],[-77.97081,8.73321],[-77.97511,8.72834],[-77.97852,8.73555],[-77.98056,8.7336],[-77.98607,8.74008],[-77.98303,8.74557],[-77.97818,8.74834],[-77.97538,8.74667],[-77.97238,8.75045],[-77.97164,8.74799],[-77.96804,8.74906],[-77.96272,8.75421],[-77.96522,8.75723],[-77.95907,8.7569],[-77.95576,8.75096],[-77.94942,8.75099],[-77.94639,8.75164],[-77.94567,8.7566],[-77.93846,8.75571],[-77.93823,8.76029],[-77.93628,8.75915],[-77.93479,8.76228],[-77.9291,8.75928],[-77.929,8.76173],[-77.92579,8.76138],[-77.92964,8.76399],[-77.91788,8.76974],[-77.91434,8.77899],[-77.91979,8.77931],[-77.92093,8.78466],[-77.91767,8.78924],[-77.91589,8.78532],[-77.91089,8.78798],[-77.91124,8.79192],[-77.91701,8.79432],[-77.90907,8.79876],[-77.90688,8.8051],[-77.90875,8.80877],[-77.89933,8.80877],[-77.8978,8.8132],[-77.88758,8.81122],[-77.88638,8.81462],[-77.88219,8.81432],[-77.88238,8.80797],[-77.87768,8.80909],[-77.87502,8.80451],[-77.86918,8.8041],[-77.86818,8.79945],[-77.86121,8.80039],[-77.85969,8.79116],[-77.85514,8.79056],[-77.85149,8.79442],[-77.84403,8.78235],[-77.84498,8.77672],[-77.83763,8.77919],[-77.83899,8.76973],[-77.82935,8.77763],[-77.82672,8.77686],[-77.82574,8.7697],[-77.82349,8.7775],[-77.81777,8.78021],[-77.8185,8.78865],[-77.81136,8.78895],[-77.80879,8.79391],[-77.80416,8.78882],[-77.79959,8.79262],[-77.80046,8.79821],[-77.79585,8.7952],[-77.79503,8.80179],[-77.79079,8.80119],[-77.79229,8.8059],[-77.78789,8.80706],[-77.78947,8.81177],[-77.7801,8.81738],[-77.7847,8.82447],[-77.78338,8.82802],[-77.78808,8.83098],[-77.78498,8.83382],[-77.78595,8.83853],[-77.77624,8.8375],[-77.76967,8.84568],[-77.76978,8.85396],[-77.76554,8.85539],[-77.77611,8.87482],[-77.77251,8.88312],[-77.76566,8.87646],[-77.75981,8.87608],[-77.75203,8.86663],[-77.74649,8.86502],[-77.7497,8.85153],[-77.74651,8.84232],[-77.73124,8.83412],[-77.7275,8.82939],[-77.71714,8.83148],[-77.71525,8.82676],[-77.70857,8.82384],[-77.7125,8.81732],[-77.70887,8.81015],[-77.71203,8.80516],[-77.70618,8.79688],[-77.70811,8.78071],[-77.72285,8.78099],[-77.72701,8.78705],[-77.73804,8.79224],[-77.74505,8.78719],[-77.7502,8.7891],[-77.76342,8.78366],[-77.76573,8.77916],[-77.77394,8.78279],[-77.7878,8.76952],[-77.7914,8.76988],[-77.7947,8.75886],[-77.80122,8.75052],[-77.81141,8.74924],[-77.81834,8.7442],[-77.81992,8.74547],[-77.82022,8.74288],[-77.8318,8.74428],[-77.8326,8.74649],[-77.8351,8.74188],[-77.84575,8.7401],[-77.85001,8.73524],[-77.84837,8.7287],[-77.85219,8.72387],[-77.85076,8.71987],[-77.85343,8.71076],[-77.86238,8.70717],[-77.86484,8.69617],[-77.8701,8.69695],[-77.8696,8.69336],[-77.87408,8.6905],[-77.87899,8.69201],[-77.88609,8.66258],[-77.89349,8.66196],[-77.89837,8.65757],[-77.89854,8.65328],[-77.90769,8.64834],[-77.91022,8.65076],[-77.91952,8.64855],[-77.92034,8.63936],[-77.92724,8.63203],[-77.92693,8.62279],[-77.92346,8.62021],[-77.92966,8.61467],[-77.92596,8.6145],[-77.92283,8.61017],[-77.92395,8.60537],[-77.92653,8.60564],[-77.92548,8.60226],[-77.92323,8.60281],[-77.92305,8.59991],[-77.91822,8.60095],[-77.91651,8.59806],[-77.91554,8.5867],[-77.92149,8.58699],[-77.92051,8.5835],[-77.91509,8.58195],[-77.91673,8.57812],[-77.91264,8.57716],[-77.91678,8.57148],[-77.90728,8.57023],[-77.90572,8.56325],[-77.90952,8.56286],[-77.90984,8.55993],[-77.9036,8.55494],[-77.89472,8.55865],[-77.89528,8.5641],[-77.89232,8.56377],[-77.89329,8.55683],[-77.89021,8.55426],[-77.89446,8.54268],[-77.89127,8.53818],[-77.88365,8.53787],[-77.88723,8.5308],[-77.8914,8.53187],[-77.8912,8.52823],[-77.89728,8.52938],[-77.896,8.52275],[-77.89037,8.52191],[-77.89047,8.51843],[-77.89921,8.51961],[-77.90167,8.52464],[-77.9043,8.51826],[-77.89645,8.51489],[-77.89812,8.51121],[-77.89306,8.51638],[-77.89014,8.51515],[-77.8915,8.5078],[-77.88534,8.51064],[-77.88291,8.50239],[-77.88808,8.50181],[-77.88885,8.49801],[-77.88285,8.49364],[-77.88163,8.49627],[-77.87811,8.49555],[-77.88071,8.48888],[-77.87071,8.49343],[-77.86686,8.49068],[-77.86772,8.4944],[-77.86416,8.49595],[-77.85919,8.49461],[-77.85714,8.48886],[-77.85909,8.47849],[-77.86537,8.47704],[-77.85314,8.47047],[-77.85791,8.46519],[-77.84986,8.46803],[-77.84304,8.46399],[-77.84034,8.46621],[-77.83718,8.45423],[-77.82862,8.46172],[-77.81516,8.4561],[-77.81503,8.44962],[-77.81798,8.44747],[-77.82382,8.44935],[-77.82512,8.44571],[-77.8173,8.44619],[-77.81236,8.437],[-77.81389,8.42961],[-77.80588,8.42427],[-77.80774,8.41685],[-77.82282,8.41416],[-77.82158,8.40554],[-77.81362,8.4097],[-77.81103,8.40804],[-77.81065,8.40222],[-77.81977,8.39847],[-77.81412,8.39385],[-77.80663,8.39484],[-77.8073,8.4057],[-77.80517,8.4072],[-77.7993,8.38814],[-77.79442,8.39023],[-77.79042,8.38808],[-77.79006,8.38354],[-77.79452,8.38034],[-77.78318,8.36942],[-77.78603,8.36595],[-77.78189,8.36299],[-77.78397,8.36025],[-77.78901,8.36255],[-77.79029,8.35891],[-77.78557,8.35328],[-77.78601,8.3467],[-77.78251,8.35218],[-77.77952,8.3517],[-77.78105,8.34747],[-77.77827,8.34607],[-77.77094,8.34813],[-77.7701,8.34361],[-77.77359,8.33973],[-77.77292,8.32781],[-77.7767,8.33092],[-77.79071,8.33324],[-77.80194,8.32809],[-77.81054,8.32824],[-77.82123,8.33318],[-77.82867,8.33268],[-77.83581,8.33749],[-77.84561,8.33239],[-77.88065,8.33189],[-77.88817,8.35312],[-77.89659,8.35869],[-77.90098,8.35625],[-77.90748,8.35838],[-77.91484,8.36383],[-77.91823,8.38416],[-77.92253,8.38954],[-77.91932,8.39758],[-77.92391,8.40429],[-77.92454,8.41303],[-77.94189,8.43276],[-77.95509,8.43137],[-77.96466,8.43518],[-77.96886,8.43317],[-77.97557,8.43549],[-77.97991,8.44719],[-77.9948,8.44613],[-77.99822,8.45582],[-78.02201,8.47393],[-78.03162,8.47515],[-78.03492,8.47252],[-78.03497,8.46712],[-78.03968,8.47235],[-78.0495,8.46846],[-78.05966,8.47564],[-78.06075,8.49685],[-78.05244,8.50118],[-78.06142,8.51433],[-78.05798,8.52294],[-78.06255,8.53289],[-78.04866,8.5448],[-78.04884,8.54982],[-78.0424,8.56281],[-78.04729,8.56869],[-78.03684,8.58159],[-78.04979,8.59845],[-78.06209,8.60411],[-78.06413,8.60857],[-78.06966,8.60763],[-78.081,8.62051],[-78.07994,8.62638],[-78.07459,8.62899],[-78.05677,8.62697],[-78.05269,8.63958],[-78.04564,8.64338],[-78.04553,8.6529],[-78.05049,8.65734],[-78.05301,8.6721],[-78.06185,8.67718],[-78.06445,8.6865],[-78.06944,8.68818],[-78.06759,8.69589],[-78.078,8.69911],[-78.0765,8.70762],[-78.08389,8.70974]]]}},{"type":"Feature","properties":{"corregimiento":"Comarca Kuna de Wargandí","distrito":"Pinogana","provincia":"Darién","bbox":[-78.16106,8.73086,-77.76539,9.10529]},"geometry":{"type":"Polygon","coordinates":[[[-77.97916,9.05609],[-77.9762,9.04936],[-77.96943,9.05129],[-77.96751,9.04787],[-77.97093,9.044],[-77.96577,9.04135],[-77.95348,9.04175],[-77.94332,9.03486],[-77.94474,9.02542],[-77.94969,9.01899],[-77.94543,9.00818],[-77.93709,9.00954],[-77.92854,9.01608],[-77.91844,9.01546],[-77.91496,9.00947],[-77.92217,9.00174],[-77.91946,8.998],[-77.9111,9.00109],[-77.89885,8.98808],[-77.89733,8.98142],[-77.89349,8.98168],[-77.89045,8.9761],[-77.8655,8.96439],[-77.86125,8.95756],[-77.87211,8.95279],[-77.86612,8.94337],[-77.8607,8.94043],[-77.8607,8.93237],[-77.85673,8.92901],[-77.85595,8.92248],[-77.85103,8.92184],[-77.84007,8.90683],[-77.82391,8.91127],[-77.81272,8.90213],[-77.81277,8.89754],[-77.80057,8.89249],[-77.79796,8.88835],[-77.77983,8.88092],[-77.77251,8.88312],[-77.77607,8.87469],[-77.77047,8.86259],[-77.76539,8.85824],[-77.76572,8.85506],[-77.76983,8.85388],[-77.76969,8.84561],[-77.77615,8.83758],[-77.78595,8.83853],[-77.78498,8.83382],[-77.78808,8.83098],[-77.78338,8.82802],[-77.7847,8.82447],[-77.78009,8.81744],[-77.78952,8.81171],[-77.78789,8.80706],[-77.79229,8.8059],[-77.79079,8.80119],[-77.79503,8.80179],[-77.79585,8.7952],[-77.80046,8.79821],[-77.79959,8.79262],[-77.8044,8.78868],[-77.80879,8.79391],[-77.81136,8.78895],[-77.8185,8.78865],[-77.81777,8.78021],[-77.82349,8.7775],[-77.82574,8.7697],[-77.82672,8.77686],[-77.82935,8.77763],[-77.83899,8.76973],[-77.83763,8.77919],[-77.84498,8.77672],[-77.84403,8.78235],[-77.85149,8.79442],[-77.85514,8.79056],[-77.85969,8.79116],[-77.86121,8.80039],[-77.86818,8.79945],[-77.86918,8.8041],[-77.87502,8.80451],[-77.87768,8.80909],[-77.88238,8.80797],[-77.88219,8.81432],[-77.88638,8.81462],[-77.88758,8.81122],[-77.89859,8.81306],[-77.89926,8.8088],[-77.90875,8.80877],[-77.90688,8.8051],[-77.90907,8.79876],[-77.91701,8.79432],[-77.91124,8.79192],[-77.91089,8.78798],[-77.91589,8.78532],[-77.91767,8.78924],[-77.92093,8.78466],[-77.91979,8.77931],[-77.91434,8.77899],[-77.91788,8.76974],[-77.92964,8.76399],[-77.92579,8.76138],[-77.929,8.76173],[-77.9291,8.75928],[-77.93479,8.76228],[-77.93628,8.75915],[-77.93823,8.76029],[-77.93846,8.75571],[-77.94567,8.7566],[-77.94639,8.75164],[-77.94942,8.75099],[-77.95576,8.75096],[-77.95907,8.7569],[-77.96522,8.75723],[-77.96272,8.75421],[-77.96804,8.74906],[-77.97164,8.74799],[-77.97238,8.75045],[-77.97538,8.74667],[-77.97818,8.74834],[-77.98303,8.74557],[-77.98785,8.73086],[-77.99015,8.73091],[-78.00175,8.73436],[-78.00755,8.73306],[-78.02232,8.74423],[-78.02134,8.75961],[-78.02499,8.76389],[-78.03131,8.76366],[-78.03747,8.7688],[-78.05596,8.7691],[-78.06309,8.77588],[-78.07101,8.77701],[-78.07398,8.79158],[-78.0698,8.79911],[-78.07131,8.80413],[-78.07911,8.80982],[-78.0771,8.8204],[-78.08127,8.83661],[-78.0928,8.84628],[-78.11287,8.84931],[-78.11464,8.85921],[-78.12447,8.85969],[-78.12775,8.86421],[-78.12799,8.88237],[-78.11719,8.89992],[-78.12337,8.90349],[-78.12898,8.9172],[-78.14429,8.92302],[-78.15077,8.92003],[-78.1558,8.92105],[-78.16106,8.92986],[-78.14294,8.95351],[-78.13481,8.95072],[-78.13196,8.94359],[-78.12233,8.94309],[-78.1159,8.95268],[-78.11653,8.9567],[-78.11242,8.95788],[-78.11706,8.9678],[-78.12168,8.96743],[-78.12041,8.97882],[-78.12579,8.98171],[-78.12569,8.98475],[-78.13052,8.98592],[-78.13541,8.99885],[-78.12614,9.01229],[-78.12109,9.01383],[-78.11919,9.02144],[-78.11125,9.02837],[-78.09586,9.03387],[-78.09773,9.04002],[-78.09131,9.04188],[-78.08961,9.0453],[-78.09173,9.05179],[-78.07404,9.05925],[-78.07006,9.07237],[-78.07449,9.07481],[-78.07417,9.08194],[-78.06761,9.09345],[-78.06909,9.09953],[-78.06853,9.10132],[-78.06899,9.10295],[-78.06855,9.10529],[-78.06302,9.10337],[-78.0565,9.09501],[-78.03876,9.09938],[-78.02359,9.0937],[-78.01482,9.08309],[-78.00618,9.08267],[-77.99398,9.07444],[-77.99401,9.06972],[-77.98727,9.06664],[-77.98837,9.06173],[-77.98425,9.05701],[-77.97916,9.05609]]]}},{"type":"Feature","properties":{"corregimiento":"Paya","distrito":"Pinogana","provincia":"Darién","bbox":[-77.62555,7.5456,-77.15885,8.04301]},"geometry":{"type":"Polygon","coordinates":[[[-77.16246,7.96965],[-77.17003,7.96343],[-77.17787,7.96132],[-77.18478,7.94587],[-77.18151,7.93606],[-77.16801,7.93741],[-77.15885,7.93293],[-77.17605,7.91712],[-77.1913,7.92227],[-77.19689,7.91924],[-77.2088,7.92248],[-77.21571,7.91645],[-77.2317,7.92071],[-77.23796,7.92096],[-77.24005,7.91781],[-77.25748,7.91966],[-77.26939,7.91414],[-77.27584,7.90769],[-77.28993,7.90785],[-77.29525,7.91089],[-77.29795,7.90582],[-77.30796,7.90083],[-77.31054,7.89664],[-77.31677,7.89895],[-77.32498,7.89578],[-77.32274,7.88466],[-77.33563,7.87616],[-77.34018,7.86816],[-77.33983,7.85196],[-77.34723,7.84948],[-77.34588,7.84531],[-77.34811,7.84264],[-77.3527,7.84247],[-77.35759,7.83499],[-77.36296,7.8338],[-77.35587,7.82064],[-77.3572,7.81034],[-77.3473,7.80265],[-77.34846,7.79586],[-77.33728,7.7825],[-77.33891,7.77695],[-77.33522,7.77237],[-77.34057,7.77139],[-77.33951,7.76611],[-77.34452,7.76256],[-77.3536,7.76479],[-77.35811,7.76313],[-77.3688,7.7692],[-77.37469,7.76665],[-77.38071,7.75559],[-77.3915,7.7599],[-77.39484,7.74153],[-77.40033,7.73547],[-77.4002,7.72904],[-77.40495,7.72628],[-77.40481,7.72236],[-77.41452,7.72299],[-77.41853,7.71722],[-77.41628,7.70768],[-77.41847,7.69897],[-77.42689,7.69207],[-77.43094,7.69206],[-77.43713,7.6825],[-77.44107,7.65717],[-77.46702,7.65571],[-77.47011,7.6514],[-77.46521,7.63625],[-77.47529,7.61989],[-77.48098,7.61658],[-77.48238,7.60442],[-77.4899,7.59285],[-77.49239,7.58257],[-77.48844,7.57695],[-77.48927,7.56976],[-77.50231,7.56735],[-77.5195,7.57569],[-77.52764,7.56754],[-77.52512,7.55924],[-77.5283,7.55781],[-77.5321,7.54698],[-77.53703,7.5456],[-77.54147,7.54655],[-77.54214,7.55243],[-77.54858,7.55905],[-77.5547,7.56141],[-77.56064,7.56259],[-77.57027,7.55746],[-77.5827,7.56047],[-77.57907,7.57171],[-77.57471,7.57507],[-77.57405,7.58561],[-77.5825,7.60369],[-77.5805,7.6094],[-77.59069,7.61198],[-77.58258,7.62858],[-77.58542,7.63168],[-77.58315,7.63793],[-77.57745,7.63696],[-77.57422,7.63946],[-77.56972,7.65001],[-77.57045,7.6567],[-77.58254,7.65863],[-77.58851,7.66899],[-77.58597,7.67251],[-77.5868,7.67831],[-77.59296,7.69178],[-77.60595,7.70603],[-77.60209,7.71373],[-77.60389,7.71848],[-77.601,7.72038],[-77.60278,7.74949],[-77.60722,7.75196],[-77.60759,7.76126],[-77.6186,7.77537],[-77.61938,7.78342],[-77.62555,7.79402],[-77.62123,7.79649],[-77.61925,7.80474],[-77.6247,7.81294],[-77.62015,7.82743],[-77.62215,7.83175],[-77.61391,7.83781],[-77.60026,7.83901],[-77.59823,7.83485],[-77.59471,7.83579],[-77.58482,7.8413],[-77.5797,7.85032],[-77.57263,7.84842],[-77.56623,7.85249],[-77.56277,7.85111],[-77.55578,7.85763],[-77.54473,7.85438],[-77.53352,7.85701],[-77.52333,7.85395],[-77.51866,7.85581],[-77.51457,7.86122],[-77.51933,7.86509],[-77.51924,7.87007],[-77.51186,7.87124],[-77.51073,7.87584],[-77.5212,7.87493],[-77.52552,7.87747],[-77.52593,7.88627],[-77.52901,7.89095],[-77.52294,7.89189],[-77.52162,7.89531],[-77.52374,7.89923],[-77.53032,7.89951],[-77.53154,7.90382],[-77.51996,7.91189],[-77.51589,7.91169],[-77.51888,7.92448],[-77.50664,7.91766],[-77.50422,7.92019],[-77.51764,7.92908],[-77.52517,7.9255],[-77.52333,7.93249],[-77.51569,7.93509],[-77.50708,7.93236],[-77.46826,7.98142],[-77.46386,7.9786],[-77.45977,7.98081],[-77.45726,7.97202],[-77.45479,7.97954],[-77.44648,7.97746],[-77.43854,7.98158],[-77.43669,7.97525],[-77.43216,7.97646],[-77.43117,7.97397],[-77.42386,7.97318],[-77.41346,7.97644],[-77.41116,7.98107],[-77.40955,7.97313],[-77.40394,7.9732],[-77.3991,7.98221],[-77.39693,7.97719],[-77.38359,7.98165],[-77.38555,7.98371],[-77.38123,7.98598],[-77.38022,7.99254],[-77.37158,7.99634],[-77.37305,8.00006],[-77.36484,8.00889],[-77.36213,8.0066],[-77.35977,8.01087],[-77.35672,8.01078],[-77.35115,8.02332],[-77.34111,8.02181],[-77.33691,8.02767],[-77.32885,8.02891],[-77.3271,8.0259],[-77.31301,8.02461],[-77.28495,8.04301],[-77.25555,8.03587],[-77.2413,8.03826],[-77.22874,8.03361],[-77.263,8.01908],[-77.16246,7.96965]]]}},{"type":"Feature","properties":{"corregimiento":"Púcuro","distrito":"Pinogana","provincia":"Darién","bbox":[-77.58188,7.92875,-77.46826,8.04439]},"geometry":{"type":"Polygon","coordinates":[[[-77.47659,8.04015],[-77.46826,7.98142],[-77.5072,7.93226],[-77.51531,7.93507],[-77.51999,7.93378],[-77.52222,7.93888],[-77.52978,7.9365],[-77.53463,7.92875],[-77.54194,7.93089],[-77.54448,7.93888],[-77.53426,7.94083],[-77.53398,7.94427],[-77.54074,7.94998],[-77.54027,7.95286],[-77.54386,7.95189],[-77.54452,7.95677],[-77.55228,7.95758],[-77.58188,8.00775],[-77.58111,8.0105],[-77.57753,8.00792],[-77.56578,8.01412],[-77.55785,8.01195],[-77.55447,8.01875],[-77.54299,8.01732],[-77.53541,8.03189],[-77.5164,8.04285],[-77.50325,8.03892],[-77.49897,8.04439],[-77.49113,8.03952],[-77.47659,8.04015]]]}}]}