{"type":"FeatureCollection","features":[{"type":"Feature","properties":{"corregimiento":"Río Congo","distrito":"Santa Fe","provincia":"Darién","bbox":[-78.50957,8.33728,-78.25677,8.71737]},"geometry":{"type":"Polygon","coordinates":[[[-78.31496,8.46808],[-78.32388,8.4689],[-78.32599,8.46323],[-78.33372,8.46266],[-78.33581,8.45991],[-78.33351,8.45547],[-78.33398,8.45214],[-78.33767,8.45545],[-78.34966,8.44785],[-78.35049,8.44993],[-78.34883,8.44314],[-78.35533,8.43805],[-78.3568,8.4402],[-78.35771,8.43505],[-78.36754,8.42262],[-78.37519,8.42649],[-78.37835,8.46521],[-78.37644,8.47006],[-78.38051,8.49491],[-78.39099,8.52341],[-78.38969,8.52723],[-78.38149,8.52917],[-78.38826,8.52938],[-78.38585,8.53195],[-78.38861,8.53321],[-78.38771,8.53741],[-78.38082,8.53233],[-78.37926,8.53663],[-78.38316,8.54136],[-78.38071,8.54573],[-78.38521,8.54638],[-78.37994,8.55153],[-78.3854,8.54812],[-78.38615,8.55027],[-78.3868,8.54647],[-78.39046,8.54638],[-78.39008,8.54293],[-78.39861,8.53844],[-78.39628,8.53614],[-78.39841,8.53064],[-78.4012,8.53591],[-78.40043,8.55991],[-78.40615,8.56255],[-78.40789,8.54755],[-78.41607,8.54411],[-78.41743,8.52889],[-78.40497,8.5163],[-78.41013,8.51594],[-78.40162,8.50786],[-78.3917,8.48799],[-78.38842,8.45955],[-78.39092,8.43094],[-78.38598,8.42208],[-78.37599,8.41394],[-78.37733,8.41224],[-78.36915,8.41002],[-78.36714,8.39405],[-78.37843,8.38536],[-78.37999,8.37791],[-78.38406,8.37894],[-78.38336,8.36491],[-78.38664,8.35904],[-78.38761,8.33728],[-78.3959,8.34193],[-78.40032,8.35],[-78.40683,8.35355],[-78.41896,8.34641],[-78.41333,8.35638],[-78.41965,8.3654],[-78.41758,8.37894],[-78.41168,8.38371],[-78.42678,8.41035],[-78.42628,8.41392],[-78.42204,8.41456],[-78.42374,8.42205],[-78.42895,8.42463],[-78.42898,8.4287],[-78.43333,8.43177],[-78.43633,8.44705],[-78.43431,8.45341],[-78.43979,8.46714],[-78.43756,8.47695],[-78.44203,8.48817],[-78.44855,8.49204],[-78.44888,8.49572],[-78.4526,8.49384],[-78.45885,8.50261],[-78.47843,8.54118],[-78.47154,8.54121],[-78.4706,8.54655],[-78.47571,8.54948],[-78.48226,8.567],[-78.47842,8.56747],[-78.47574,8.57452],[-78.4819,8.58214],[-78.47852,8.5886],[-78.48302,8.58879],[-78.48628,8.59371],[-78.4817,8.59592],[-78.48638,8.61765],[-78.46864,8.62368],[-78.46989,8.6333],[-78.47384,8.63825],[-78.47016,8.64626],[-78.47704,8.64884],[-78.47737,8.65499],[-78.48429,8.66251],[-78.48873,8.66014],[-78.495,8.66399],[-78.49462,8.66959],[-78.49106,8.67242],[-78.49183,8.67841],[-78.49595,8.68093],[-78.49679,8.68662],[-78.50425,8.68776],[-78.50869,8.69403],[-78.50311,8.69944],[-78.50957,8.70729],[-78.50567,8.71314],[-78.50204,8.71204],[-78.50223,8.71737],[-78.46114,8.71715],[-78.44642,8.6977],[-78.44865,8.69354],[-78.44298,8.69189],[-78.44441,8.68624],[-78.44154,8.68338],[-78.44169,8.67777],[-78.43806,8.67696],[-78.43589,8.67059],[-78.42736,8.67237],[-78.42183,8.6651],[-78.40895,8.66633],[-78.40527,8.65912],[-78.39017,8.66772],[-78.3872,8.66585],[-78.38229,8.6701],[-78.37989,8.68047],[-78.36328,8.66765],[-78.35753,8.67741],[-78.31271,8.66207],[-78.29092,8.65993],[-78.29418,8.65402],[-78.29033,8.64893],[-78.29904,8.64207],[-78.29477,8.62726],[-78.29853,8.61953],[-78.30676,8.61488],[-78.30864,8.60876],[-78.3042,8.60113],[-78.30713,8.59174],[-78.30403,8.58441],[-78.30957,8.57932],[-78.31426,8.56863],[-78.31706,8.54889],[-78.3145,8.54652],[-78.31092,8.54865],[-78.31065,8.53936],[-78.3034,8.53759],[-78.3016,8.53199],[-78.2961,8.53258],[-78.29263,8.52745],[-78.2899,8.52763],[-78.28875,8.51547],[-78.28472,8.51565],[-78.27095,8.49873],[-78.26381,8.49583],[-78.25677,8.48255],[-78.26972,8.46929],[-78.27532,8.47235],[-78.27919,8.47085],[-78.2797,8.46236],[-78.28506,8.45859],[-78.2832,8.45191],[-78.28549,8.44672],[-78.28769,8.44825],[-78.28646,8.44023],[-78.28895,8.43887],[-78.30417,8.4419],[-78.30955,8.4536],[-78.30789,8.46082],[-78.31266,8.46148],[-78.31618,8.4661],[-78.31496,8.46808]]]}},{"type":"Feature","properties":{"corregimiento":"Agua Fría","distrito":"Santa Fe","provincia":"Darién","bbox":[-78.33903,8.7545,-78.0698,8.99316]},"geometry":{"type":"Polygon","coordinates":[[[-78.07318,8.78774],[-78.07775,8.78975],[-78.07942,8.79785],[-78.08668,8.80231],[-78.0976,8.80054],[-78.10413,8.79168],[-78.11166,8.794],[-78.09852,8.76167],[-78.15075,8.78251],[-78.1557,8.77172],[-78.16735,8.76143],[-78.16846,8.7545],[-78.20007,8.76259],[-78.20245,8.78502],[-78.22095,8.78747],[-78.22761,8.79281],[-78.23216,8.79109],[-78.23418,8.79314],[-78.23153,8.79593],[-78.23401,8.79874],[-78.24056,8.79869],[-78.24113,8.80474],[-78.25153,8.79739],[-78.25133,8.78564],[-78.25575,8.78125],[-78.26287,8.78086],[-78.26421,8.77639],[-78.26147,8.7726],[-78.26099,8.77125],[-78.26131,8.7705],[-78.26621,8.77164],[-78.269,8.76885],[-78.27229,8.77162],[-78.27834,8.76766],[-78.28708,8.77019],[-78.29028,8.77513],[-78.29647,8.77146],[-78.31924,8.7788],[-78.32408,8.78494],[-78.32414,8.79192],[-78.32779,8.79438],[-78.33742,8.79376],[-78.33903,8.80082],[-78.33304,8.80309],[-78.327,8.81107],[-78.33213,8.81916],[-78.32719,8.81981],[-78.32316,8.8414],[-78.31332,8.84676],[-78.31552,8.85287],[-78.30822,8.86032],[-78.30563,8.86877],[-78.29111,8.86017],[-78.28855,8.86553],[-78.27715,8.87141],[-78.26927,8.88162],[-78.26112,8.8853],[-78.25504,8.89235],[-78.24928,8.89114],[-78.24865,8.88566],[-78.24105,8.88715],[-78.23678,8.87628],[-78.22993,8.87538],[-78.22761,8.86748],[-78.22176,8.87627],[-78.21053,8.87352],[-78.20802,8.86981],[-78.19932,8.87151],[-78.19642,8.86726],[-78.17222,8.87299],[-78.17479,8.89811],[-78.18007,8.90446],[-78.17731,8.90802],[-78.17937,8.91741],[-78.1753,8.92558],[-78.17591,8.93724],[-78.17187,8.94221],[-78.16658,8.9417],[-78.16003,8.94885],[-78.13714,8.95715],[-78.13366,8.96115],[-78.12969,8.96754],[-78.12741,8.98134],[-78.13232,8.98165],[-78.13316,8.99316],[-78.13047,8.98586],[-78.12569,8.98475],[-78.12579,8.98171],[-78.12044,8.97888],[-78.1217,8.96748],[-78.11706,8.9678],[-78.11241,8.95792],[-78.11653,8.9567],[-78.1159,8.95268],[-78.12233,8.94309],[-78.13196,8.94359],[-78.13481,8.95072],[-78.14294,8.95351],[-78.15368,8.94155],[-78.16055,8.92791],[-78.15573,8.92102],[-78.15077,8.92003],[-78.14429,8.92302],[-78.1291,8.91728],[-78.12337,8.90349],[-78.11722,8.89997],[-78.12799,8.88237],[-78.12769,8.86405],[-78.12447,8.85969],[-78.11464,8.85921],[-78.11287,8.84931],[-78.10551,8.84675],[-78.09896,8.84873],[-78.08595,8.84244],[-78.08154,8.837],[-78.0771,8.8204],[-78.07911,8.80982],[-78.07131,8.80413],[-78.0698,8.79911],[-78.07394,8.79184],[-78.07318,8.78774]]]}},{"type":"Feature","properties":{"corregimiento":"Cucunatí","distrito":"Santa Fe","provincia":"Darién","bbox":[-78.31706,8.43684,-78.15272,8.66048]},"geometry":{"type":"Polygon","coordinates":[[[-78.25682,8.66048],[-78.24696,8.64323],[-78.23678,8.63983],[-78.24029,8.63648],[-78.23643,8.62657],[-78.23997,8.62436],[-78.23834,8.61973],[-78.24302,8.6094],[-78.24268,8.59875],[-78.19901,8.58964],[-78.17616,8.59943],[-78.17758,8.57565],[-78.17002,8.57254],[-78.1669,8.568],[-78.15814,8.57082],[-78.15272,8.56264],[-78.15614,8.53988],[-78.16391,8.54421],[-78.18071,8.52394],[-78.19199,8.5213],[-78.19762,8.52419],[-78.20415,8.52183],[-78.20451,8.52585],[-78.21601,8.53132],[-78.21462,8.53485],[-78.2211,8.53102],[-78.21858,8.53519],[-78.22327,8.53433],[-78.23053,8.54721],[-78.2297,8.5439],[-78.23412,8.53646],[-78.23299,8.54472],[-78.23716,8.5492],[-78.2349,8.54407],[-78.23898,8.53339],[-78.24428,8.53637],[-78.24136,8.53008],[-78.24385,8.52954],[-78.24093,8.52258],[-78.24299,8.52229],[-78.22201,8.51046],[-78.21897,8.50389],[-78.22219,8.48913],[-78.23285,8.47152],[-78.23044,8.44849],[-78.23271,8.43684],[-78.2426,8.44041],[-78.25,8.45245],[-78.25787,8.45638],[-78.26752,8.45505],[-78.26972,8.46929],[-78.25733,8.48037],[-78.25763,8.48722],[-78.28468,8.51562],[-78.28875,8.51547],[-78.29002,8.52776],[-78.29263,8.52745],[-78.2961,8.53258],[-78.3016,8.53199],[-78.3034,8.53759],[-78.31065,8.53936],[-78.31092,8.54865],[-78.3145,8.54652],[-78.31706,8.54889],[-78.31426,8.56863],[-78.30957,8.57932],[-78.30403,8.58441],[-78.30713,8.59174],[-78.3042,8.60113],[-78.30864,8.60876],[-78.30676,8.61488],[-78.29853,8.61953],[-78.29477,8.62726],[-78.29905,8.64196],[-78.29029,8.64904],[-78.29418,8.65399],[-78.29215,8.65923],[-78.26253,8.65543],[-78.25682,8.66048]]]}},{"type":"Feature","properties":{"corregimiento":"Río Congo Arriba","distrito":"Santa Fe","provincia":"Darién","bbox":[-78.50369,8.65912,-78.28626,8.86117]},"geometry":{"type":"Polygon","coordinates":[[[-78.29092,8.65993],[-78.31271,8.66207],[-78.35753,8.67741],[-78.36328,8.66765],[-78.37989,8.68047],[-78.38229,8.6701],[-78.3872,8.66585],[-78.39017,8.66772],[-78.40527,8.65912],[-78.40895,8.66633],[-78.42183,8.6651],[-78.42736,8.67237],[-78.43589,8.67059],[-78.43806,8.67696],[-78.44169,8.67777],[-78.44154,8.68338],[-78.44441,8.68624],[-78.44298,8.69189],[-78.44865,8.69354],[-78.44642,8.6977],[-78.46114,8.71715],[-78.50223,8.71737],[-78.50369,8.72012],[-78.49816,8.72704],[-78.49989,8.73006],[-78.49724,8.74696],[-78.49028,8.74429],[-78.47999,8.74705],[-78.47157,8.75867],[-78.47326,8.76349],[-78.46749,8.76518],[-78.46861,8.77768],[-78.46388,8.78301],[-78.46654,8.78752],[-78.45944,8.80456],[-78.46466,8.81229],[-78.46424,8.82087],[-78.46859,8.825],[-78.4628,8.83662],[-78.45939,8.83973],[-78.43019,8.83929],[-78.42734,8.84373],[-78.41973,8.84669],[-78.41193,8.86117],[-78.4041,8.85845],[-78.3963,8.84976],[-78.38882,8.85215],[-78.38981,8.84956],[-78.38362,8.84826],[-78.37976,8.85196],[-78.37041,8.85337],[-78.36154,8.84991],[-78.36502,8.84509],[-78.3633,8.83711],[-78.36523,8.82367],[-78.35497,8.81868],[-78.35379,8.81226],[-78.35588,8.81079],[-78.3438,8.80385],[-78.33222,8.80605],[-78.33407,8.80223],[-78.33897,8.80097],[-78.33785,8.79423],[-78.32505,8.79289],[-78.32408,8.78494],[-78.31924,8.7788],[-78.32,8.76418],[-78.30783,8.76338],[-78.30593,8.71331],[-78.30238,8.69722],[-78.28772,8.69184],[-78.29193,8.68481],[-78.28626,8.67421],[-78.28788,8.66318],[-78.29092,8.65993]]]}},{"type":"Feature","properties":{"corregimiento":"Santa Fe (Cabecera)","distrito":"Santa Fe","provincia":"Darién","bbox":[-78.32032,8.54764,-77.9621,8.80473]},"geometry":{"type":"Polygon","coordinates":[[[-78.24137,8.80473],[-78.24034,8.79851],[-78.23401,8.79874],[-78.23153,8.79593],[-78.23418,8.79314],[-78.23216,8.79109],[-78.22761,8.79281],[-78.22095,8.78747],[-78.20347,8.78605],[-78.19962,8.77431],[-78.20007,8.76259],[-78.16846,8.7545],[-78.16735,8.76143],[-78.1557,8.77172],[-78.15075,8.78251],[-78.09852,8.76167],[-78.11166,8.794],[-78.10413,8.79168],[-78.0976,8.80054],[-78.08403,8.80177],[-78.07925,8.79763],[-78.07775,8.78975],[-78.07166,8.78489],[-78.07086,8.77689],[-78.06309,8.77588],[-78.05596,8.7691],[-78.03747,8.7688],[-78.03131,8.76366],[-78.02441,8.76347],[-78.02132,8.75949],[-78.023,8.74509],[-78.00783,8.73319],[-78.00175,8.73436],[-77.98785,8.73086],[-77.98482,8.7395],[-77.98056,8.7336],[-77.97852,8.73555],[-77.97468,8.72827],[-77.97075,8.73341],[-77.97247,8.73792],[-77.96823,8.73649],[-77.96888,8.72294],[-77.97365,8.71947],[-77.97071,8.71557],[-77.966,8.71637],[-77.9667,8.71187],[-77.9621,8.70816],[-77.96496,8.70422],[-77.97032,8.70732],[-77.97147,8.69811],[-77.96804,8.69999],[-77.96819,8.69325],[-77.97114,8.69188],[-77.97193,8.69624],[-77.97638,8.691],[-77.96641,8.68835],[-77.96567,8.69047],[-77.96745,8.68231],[-77.97063,8.68616],[-77.97234,8.68394],[-77.9681,8.678],[-77.97033,8.67548],[-77.9743,8.6756],[-77.97417,8.67761],[-77.9749,8.67353],[-77.97833,8.67268],[-77.98151,8.67617],[-77.98835,8.67654],[-77.99106,8.68035],[-78.00221,8.68098],[-78.00872,8.68937],[-78.01042,8.70222],[-78.0149,8.7023],[-78.0201,8.71361],[-78.02844,8.71418],[-78.03313,8.72186],[-78.03913,8.72179],[-78.04315,8.71829],[-78.05234,8.72125],[-78.0559,8.72664],[-78.06726,8.72736],[-78.07344,8.73805],[-78.08166,8.74313],[-78.08417,8.7403],[-78.08334,8.73192],[-78.10346,8.71704],[-78.10336,8.71034],[-78.12861,8.68682],[-78.14111,8.68398],[-78.1388,8.66047],[-78.1482,8.66277],[-78.14962,8.65854],[-78.15379,8.65681],[-78.15015,8.65529],[-78.16188,8.65215],[-78.16093,8.64882],[-78.15445,8.64916],[-78.16433,8.63795],[-78.15486,8.63463],[-78.15888,8.62266],[-78.14788,8.61828],[-78.15173,8.61372],[-78.14978,8.60744],[-78.15511,8.60847],[-78.15645,8.60465],[-78.15253,8.59952],[-78.15036,8.58542],[-78.14312,8.57411],[-78.14315,8.56638],[-78.13204,8.55636],[-78.13272,8.54838],[-78.13951,8.54764],[-78.158,8.57074],[-78.1669,8.568],[-78.17002,8.57254],[-78.1775,8.57553],[-78.17616,8.59943],[-78.19901,8.58964],[-78.24268,8.59875],[-78.24302,8.6094],[-78.23834,8.61973],[-78.23997,8.62436],[-78.23643,8.62657],[-78.24029,8.63648],[-78.23678,8.63983],[-78.24802,8.64428],[-78.25682,8.66048],[-78.26253,8.65543],[-78.29092,8.65993],[-78.28788,8.66318],[-78.28626,8.67421],[-78.29193,8.68481],[-78.28773,8.69191],[-78.3023,8.69696],[-78.30593,8.71331],[-78.30781,8.7633],[-78.31993,8.76408],[-78.32032,8.77728],[-78.29636,8.77144],[-78.29037,8.77515],[-78.28708,8.77019],[-78.27852,8.76766],[-78.27229,8.77162],[-78.269,8.76885],[-78.26621,8.77164],[-78.26131,8.7705],[-78.26421,8.77639],[-78.26287,8.78086],[-78.2556,8.78134],[-78.25044,8.78803],[-78.25147,8.7975],[-78.24137,8.80473]]]}},{"type":"Feature","properties":{"corregimiento":"Zapallal","distrito":"Santa Fe","provincia":"Darién","bbox":[-78.16419,8.51119,-78.04558,8.73232]},"geometry":{"type":"Polygon","coordinates":[[[-78.08286,8.73232],[-78.07636,8.72098],[-78.08389,8.70974],[-78.07653,8.70768],[-78.07815,8.69928],[-78.06762,8.69592],[-78.0694,8.68811],[-78.06445,8.6865],[-78.06185,8.67718],[-78.05297,8.67203],[-78.05049,8.65734],[-78.04558,8.65321],[-78.0456,8.6435],[-78.05269,8.63958],[-78.05713,8.62669],[-78.0745,8.62901],[-78.08137,8.62341],[-78.06974,8.60769],[-78.06413,8.60857],[-78.06209,8.60411],[-78.04853,8.59678],[-78.07585,8.60592],[-78.07942,8.6033],[-78.07905,8.59679],[-78.0823,8.59069],[-78.07945,8.5874],[-78.07924,8.57723],[-78.08476,8.57421],[-78.08264,8.56768],[-78.08462,8.56187],[-78.08847,8.56094],[-78.09244,8.55372],[-78.0906,8.54009],[-78.08299,8.53809],[-78.09223,8.51119],[-78.09634,8.51346],[-78.09535,8.5165],[-78.09869,8.514],[-78.09726,8.51662],[-78.09348,8.51735],[-78.09654,8.51733],[-78.09841,8.51628],[-78.09739,8.51787],[-78.10053,8.51461],[-78.09978,8.51887],[-78.10945,8.52504],[-78.11095,8.52961],[-78.11998,8.53321],[-78.12372,8.54147],[-78.12373,8.53736],[-78.12594,8.53986],[-78.12469,8.53706],[-78.12672,8.53812],[-78.12855,8.56496],[-78.13066,8.56291],[-78.1383,8.57019],[-78.14266,8.57843],[-78.14087,8.57919],[-78.14045,8.57994],[-78.13998,8.57992],[-78.14082,8.57714],[-78.13985,8.57862],[-78.14006,8.58068],[-78.14305,8.57898],[-78.1414,8.58278],[-78.14391,8.58058],[-78.14533,8.58274],[-78.14212,8.5839],[-78.14772,8.58581],[-78.1506,8.5989],[-78.15589,8.60584],[-78.14877,8.60702],[-78.15012,8.61324],[-78.147,8.61833],[-78.15823,8.62258],[-78.15527,8.63664],[-78.16419,8.63775],[-78.15429,8.64891],[-78.16088,8.64896],[-78.16097,8.65299],[-78.14998,8.65519],[-78.15364,8.65667],[-78.14944,8.65846],[-78.14811,8.6628],[-78.1388,8.66047],[-78.14111,8.68398],[-78.12861,8.68682],[-78.10336,8.71034],[-78.10346,8.71704],[-78.08286,8.73232]]]}},{"type":"Feature","properties":{"corregimiento":"Río Iglesias","distrito":"Santa Fe","provincia":"Darién","bbox":[-78.11552,8.14344,-77.83374,8.60467]},"geometry":{"type":"Polygon","coordinates":[[[-78.04704,8.56922],[-78.04241,8.56266],[-78.04884,8.54982],[-78.04861,8.5449],[-78.06257,8.53279],[-78.05798,8.52294],[-78.06142,8.51433],[-78.05244,8.50118],[-78.06075,8.49685],[-78.06012,8.47645],[-78.0495,8.46846],[-78.03968,8.47235],[-78.03523,8.46714],[-78.03492,8.47252],[-78.03162,8.47515],[-78.02191,8.47389],[-77.99822,8.45582],[-77.99472,8.44608],[-77.98001,8.44726],[-77.9758,8.43568],[-77.9711,8.43344],[-77.96485,8.43522],[-77.95509,8.43137],[-77.94227,8.43302],[-77.92505,8.41398],[-77.92391,8.40429],[-77.91935,8.39784],[-77.92253,8.38954],[-77.91823,8.38416],[-77.91492,8.36397],[-77.90178,8.35637],[-77.89642,8.35862],[-77.88661,8.35122],[-77.87086,8.29026],[-77.86353,8.28763],[-77.85941,8.27895],[-77.86023,8.2731],[-77.83374,8.15774],[-77.83983,8.14421],[-77.84271,8.14344],[-77.8451,8.14833],[-77.83815,8.17402],[-77.8439,8.17725],[-77.84633,8.18649],[-77.85278,8.19405],[-77.86689,8.19771],[-77.88335,8.22245],[-77.89743,8.22979],[-77.92835,8.2386],[-77.94887,8.25021],[-77.99126,8.25646],[-78.00277,8.255],[-78.02579,8.27184],[-78.03076,8.29555],[-78.03068,8.30872],[-78.03573,8.31179],[-78.03985,8.32439],[-78.04485,8.32719],[-78.05245,8.34009],[-78.05742,8.36105],[-78.06961,8.38122],[-78.07209,8.39366],[-78.07849,8.40536],[-78.07705,8.41987],[-78.06658,8.41407],[-78.05761,8.42224],[-78.04349,8.41779],[-78.05709,8.4251],[-78.06804,8.41733],[-78.07027,8.42475],[-78.07747,8.42642],[-78.09419,8.45644],[-78.11078,8.47217],[-78.11552,8.48385],[-78.09952,8.51108],[-78.09263,8.50992],[-78.08299,8.53809],[-78.0906,8.54009],[-78.09244,8.55372],[-78.08847,8.56094],[-78.08462,8.56187],[-78.08264,8.56768],[-78.08476,8.57421],[-78.07924,8.57723],[-78.07945,8.5874],[-78.0823,8.59069],[-78.07793,8.60467],[-78.04853,8.59678],[-78.04156,8.58881],[-78.03687,8.58099],[-78.04704,8.56922]]]}}]}