{"type":"FeatureCollection","features":[{"type":"Feature","properties":{"corregimiento":"Chitré (Cabecera)","distrito":"Chitré","provincia":"Herrera","bbox":[-80.46061,7.93623,-80.41079,7.96995]},"geometry":{"type":"Polygon","coordinates":[[[-80.41079,7.95106],[-80.41771,7.94945],[-80.41855,7.94411],[-80.42304,7.93983],[-80.42491,7.94341],[-80.43403,7.94208],[-80.43584,7.93898],[-80.44281,7.9414],[-80.44372,7.93801],[-80.44885,7.93623],[-80.46061,7.94809],[-80.45929,7.96073],[-80.44821,7.96995],[-80.41765,7.96047],[-80.41079,7.95106]]]}},{"type":"Feature","properties":{"corregimiento":"La Arena","distrito":"Chitré","provincia":"Herrera","bbox":[-80.51188,7.93269,-80.44821,7.99461]},"geometry":{"type":"Polygon","coordinates":[[[-80.44821,7.96995],[-80.45966,7.96001],[-80.45921,7.93333],[-80.46306,7.93331],[-80.46511,7.94327],[-80.47243,7.94829],[-80.47975,7.94723],[-80.4845,7.94057],[-80.4975,7.93269],[-80.50755,7.93337],[-80.51188,7.93633],[-80.5002,7.97745],[-80.50206,7.97931],[-80.494,7.97986],[-80.49478,7.98501],[-80.49018,7.98515],[-80.48909,7.98901],[-80.48573,7.98674],[-80.47946,7.99456],[-80.46835,7.99461],[-80.46828,7.98505],[-80.46478,7.98],[-80.44821,7.96995]]]}},{"type":"Feature","properties":{"corregimiento":"Monagrillo","distrito":"Chitré","provincia":"Herrera","bbox":[-80.49073,7.96995,-80.41791,8.0274]},"geometry":{"type":"Polygon","coordinates":[[[-80.44909,8.0273],[-80.4442,8.02249],[-80.42956,8.02105],[-80.41791,8.01248],[-80.42421,7.99757],[-80.4266,7.97938],[-80.43195,7.97469],[-80.43667,7.97437],[-80.43614,7.97236],[-80.44258,7.97475],[-80.44821,7.96995],[-80.46478,7.98],[-80.46828,7.98505],[-80.46876,7.9949],[-80.47946,7.99456],[-80.48584,7.98669],[-80.49073,7.99144],[-80.48233,7.99936],[-80.48511,7.99915],[-80.48418,8.00132],[-80.47944,8.00122],[-80.48116,8.00384],[-80.47836,8.00659],[-80.47342,8.00612],[-80.4727,8.01102],[-80.46715,8.01207],[-80.46846,8.01418],[-80.46577,8.01638],[-80.46257,8.01412],[-80.46379,8.01782],[-80.4664,8.01752],[-80.46263,8.0201],[-80.46289,8.02396],[-80.45977,8.02268],[-80.46339,8.02582],[-80.45957,8.0274],[-80.45744,8.02337],[-80.46157,8.01845],[-80.45601,8.01666],[-80.44909,8.0273]]]}},{"type":"Feature","properties":{"corregimiento":"Llano Bonito","distrito":"Chitré","provincia":"Herrera","bbox":[-80.43234,7.96783,-80.387,8.01248]},"geometry":{"type":"Polygon","coordinates":[[[-80.387,7.99697],[-80.39053,7.99274],[-80.39552,7.99315],[-80.39412,7.98756],[-80.39835,7.9928],[-80.40176,7.99297],[-80.398,7.98756],[-80.40206,7.98683],[-80.40117,7.98147],[-80.40356,7.97843],[-80.4121,7.97915],[-80.4142,7.97141],[-80.4231,7.97177],[-80.42599,7.96783],[-80.43103,7.96972],[-80.43234,7.97614],[-80.42588,7.98085],[-80.42421,7.99757],[-80.41791,8.01248],[-80.40511,8.00597],[-80.40405,8.00228],[-80.39503,8.00326],[-80.387,7.99697]]]}},{"type":"Feature","properties":{"corregimiento":"San Juan Bautista","distrito":"Chitré","provincia":"Herrera","bbox":[-80.44821,7.95106,-80.38927,7.98172]},"geometry":{"type":"Polygon","coordinates":[[[-80.39914,7.96008],[-80.40491,7.95905],[-80.40317,7.95367],[-80.41079,7.95106],[-80.41765,7.96047],[-80.44821,7.96995],[-80.44258,7.97475],[-80.43818,7.9721],[-80.43195,7.97469],[-80.43103,7.96972],[-80.42599,7.96783],[-80.4231,7.97177],[-80.41398,7.97158],[-80.41187,7.97931],[-80.40356,7.97843],[-80.40118,7.98172],[-80.40104,7.97788],[-80.39918,7.97908],[-80.39572,7.97532],[-80.3941,7.97818],[-80.39181,7.97634],[-80.39419,7.97412],[-80.38927,7.97183],[-80.39421,7.96968],[-80.39914,7.96008]]]}}]}