{"type":"FeatureCollection","features":[{"type":"Feature","properties":{"corregimiento":"Chepo","distrito":"Las Minas","provincia":"Herrera","bbox":[-80.88332,7.57072,-80.76643,7.7431]},"geometry":{"type":"Polygon","coordinates":[[[-80.79789,7.7431],[-80.78963,7.73296],[-80.79526,7.72567],[-80.76643,7.70998],[-80.76783,7.70607],[-80.7739,7.7037],[-80.77679,7.70576],[-80.77921,7.70282],[-80.76973,7.69493],[-80.79585,7.67592],[-80.78636,7.66643],[-80.78616,7.66147],[-80.77219,7.65534],[-80.78046,7.64236],[-80.77996,7.63413],[-80.77575,7.63281],[-80.77872,7.61993],[-80.77295,7.61976],[-80.78003,7.57405],[-80.78718,7.57072],[-80.79326,7.57438],[-80.80067,7.5725],[-80.80788,7.57958],[-80.88332,7.68893],[-80.8773,7.68816],[-80.8735,7.69486],[-80.87629,7.71808],[-80.87074,7.73107],[-80.86792,7.73189],[-80.86168,7.7274],[-80.85464,7.73125],[-80.84145,7.72342],[-80.83336,7.73636],[-80.82153,7.73434],[-80.81551,7.74069],[-80.79789,7.7431]]]}},{"type":"Feature","properties":{"corregimiento":"Las Minas (Cabecera)","distrito":"Las Minas","provincia":"Herrera","bbox":[-80.78581,7.74743,-80.68793,7.83481]},"geometry":{"type":"Polygon","coordinates":[[[-80.69144,7.82279],[-80.69026,7.81873],[-80.69323,7.81278],[-80.68793,7.81107],[-80.68825,7.7984],[-80.69121,7.7925],[-80.69618,7.79137],[-80.69159,7.78842],[-80.69508,7.7587],[-80.71179,7.7686],[-80.72377,7.76266],[-80.73402,7.76586],[-80.73877,7.76069],[-80.74479,7.75928],[-80.74495,7.7527],[-80.74878,7.74911],[-80.75288,7.7507],[-80.75531,7.74763],[-80.75863,7.75159],[-80.76158,7.74743],[-80.78581,7.75453],[-80.76951,7.76186],[-80.76182,7.77368],[-80.7629,7.77594],[-80.75939,7.77635],[-80.75484,7.78211],[-80.75976,7.78915],[-80.75467,7.79239],[-80.75455,7.79743],[-80.77701,7.80877],[-80.78102,7.81567],[-80.77711,7.8213],[-80.76793,7.82476],[-80.76831,7.82812],[-80.76464,7.83071],[-80.7583,7.82536],[-80.74963,7.82471],[-80.74137,7.8061],[-80.7299,7.80923],[-80.72798,7.80589],[-80.72692,7.80586],[-80.72384,7.81813],[-80.71719,7.82175],[-80.71047,7.83481],[-80.69144,7.82279]]]}},{"type":"Feature","properties":{"corregimiento":"Chumical","distrito":"Las Minas","provincia":"Herrera","bbox":[-80.76591,7.80574,-80.71033,7.86673]},"geometry":{"type":"Polygon","coordinates":[[[-80.72078,7.85556],[-80.71151,7.83853],[-80.71306,7.83592],[-80.71033,7.83457],[-80.71072,7.83057],[-80.71719,7.82175],[-80.72384,7.81813],[-80.7273,7.80574],[-80.7299,7.80923],[-80.74137,7.8061],[-80.74963,7.82471],[-80.76133,7.82701],[-80.76591,7.8345],[-80.76015,7.85777],[-80.74343,7.85676],[-80.74102,7.86275],[-80.73133,7.86298],[-80.7276,7.86673],[-80.72359,7.86109],[-80.72539,7.85824],[-80.72078,7.85556]]]}},{"type":"Feature","properties":{"corregimiento":"El Toro","distrito":"Las Minas","provincia":"Herrera","bbox":[-80.96079,7.68811,-80.82328,7.79808]},"geometry":{"type":"Polygon","coordinates":[[[-80.88239,7.79656],[-80.88446,7.79455],[-80.88264,7.79224],[-80.87077,7.79415],[-80.87015,7.79193],[-80.86331,7.79158],[-80.85985,7.78266],[-80.85491,7.77847],[-80.84282,7.74847],[-80.8409,7.75792],[-80.82972,7.76179],[-80.82951,7.75613],[-80.82328,7.74522],[-80.82734,7.73465],[-80.83336,7.73636],[-80.84145,7.72342],[-80.85464,7.73125],[-80.86168,7.7274],[-80.86792,7.73189],[-80.87173,7.73005],[-80.87629,7.71808],[-80.87346,7.69509],[-80.87744,7.68811],[-80.88332,7.68893],[-80.91291,7.73773],[-80.91636,7.73412],[-80.92284,7.73829],[-80.93339,7.73961],[-80.93494,7.74388],[-80.95132,7.75017],[-80.95122,7.75469],[-80.95711,7.75101],[-80.96079,7.75203],[-80.95327,7.76162],[-80.95634,7.76301],[-80.95373,7.76692],[-80.94331,7.77548],[-80.9382,7.77429],[-80.93787,7.7711],[-80.9309,7.77328],[-80.91017,7.79155],[-80.90896,7.79643],[-80.90323,7.79383],[-80.90306,7.7966],[-80.89999,7.79524],[-80.90075,7.79808],[-80.89322,7.79511],[-80.88239,7.79656]]]}},{"type":"Feature","properties":{"corregimiento":"Leones","distrito":"Las Minas","provincia":"Herrera","bbox":[-80.86669,7.73296,-80.75429,7.82486]},"geometry":{"type":"Polygon","coordinates":[[[-80.77922,7.81841],[-80.78102,7.81567],[-80.77701,7.80877],[-80.75429,7.79685],[-80.75467,7.79239],[-80.75976,7.78915],[-80.75484,7.78211],[-80.75939,7.77635],[-80.7629,7.77594],[-80.76182,7.77368],[-80.7686,7.76287],[-80.78574,7.75502],[-80.76282,7.74786],[-80.76344,7.74239],[-80.78521,7.73334],[-80.78963,7.73296],[-80.79789,7.7431],[-80.81551,7.74069],[-80.82113,7.73447],[-80.82734,7.73465],[-80.82328,7.74522],[-80.82951,7.75613],[-80.82937,7.76157],[-80.8409,7.75792],[-80.84282,7.74847],[-80.85491,7.77847],[-80.86669,7.7946],[-80.8549,7.79538],[-80.84941,7.79254],[-80.84511,7.79597],[-80.83766,7.79447],[-80.8293,7.79761],[-80.825,7.80389],[-80.82853,7.8086],[-80.82748,7.81133],[-80.81308,7.82486],[-80.79825,7.81745],[-80.77922,7.81841]]]}},{"type":"Feature","properties":{"corregimiento":"Quebrada del Rosario","distrito":"Las Minas","provincia":"Herrera","bbox":[-80.79081,7.67835,-80.69508,7.76858]},"geometry":{"type":"Polygon","coordinates":[[[-80.69508,7.7587],[-80.71856,7.67835],[-80.72808,7.68795],[-80.73108,7.70482],[-80.74845,7.70892],[-80.75993,7.72242],[-80.79081,7.73098],[-80.78867,7.73396],[-80.78225,7.73376],[-80.7733,7.74004],[-80.76442,7.74153],[-80.76383,7.74759],[-80.75935,7.75154],[-80.75553,7.74762],[-80.75288,7.7507],[-80.74883,7.74907],[-80.74495,7.7527],[-80.74479,7.75928],[-80.73877,7.76069],[-80.73386,7.76592],[-80.72377,7.76266],[-80.71149,7.76858],[-80.69508,7.7587]]]}},{"type":"Feature","properties":{"corregimiento":"Quebrada El Ciprián","distrito":"Las Minas","provincia":"Herrera","bbox":[-80.79585,7.64895,-80.71856,7.73129]},"geometry":{"type":"Polygon","coordinates":[[[-80.71856,7.67835],[-80.72475,7.66068],[-80.7317,7.65916],[-80.73396,7.65494],[-80.74056,7.65397],[-80.74652,7.64895],[-80.75395,7.65507],[-80.77189,7.65262],[-80.77355,7.65765],[-80.78255,7.65875],[-80.79585,7.67592],[-80.76973,7.69493],[-80.77921,7.70282],[-80.77679,7.70576],[-80.7739,7.7037],[-80.76783,7.70607],[-80.76648,7.71033],[-80.77325,7.71188],[-80.77722,7.71775],[-80.79542,7.72707],[-80.78986,7.73129],[-80.77725,7.72878],[-80.75917,7.72197],[-80.74845,7.70892],[-80.73108,7.70482],[-80.72808,7.68795],[-80.71856,7.67835]]]}}]}