{"type":"FeatureCollection","features":[{"type":"Feature","properties":{"corregimiento":"La Pitaloza","distrito":"Los Pozos","provincia":"Herrera","bbox":[-80.78003,7.54016,-80.62955,7.66659]},"geometry":{"type":"Polygon","coordinates":[[[-80.62955,7.66012],[-80.66136,7.60662],[-80.71923,7.54016],[-80.73252,7.54037],[-80.74124,7.54577],[-80.74206,7.5573],[-80.75614,7.57128],[-80.76892,7.56862],[-80.77628,7.5699],[-80.78003,7.57405],[-80.77784,7.58295],[-80.76658,7.584],[-80.76584,7.58803],[-80.76323,7.58602],[-80.75448,7.5924],[-80.75394,7.58975],[-80.75036,7.58975],[-80.74927,7.59351],[-80.74103,7.59776],[-80.74117,7.60417],[-80.7317,7.60427],[-80.72963,7.60097],[-80.72674,7.6028],[-80.72721,7.60855],[-80.72339,7.60477],[-80.72216,7.60736],[-80.71439,7.60722],[-80.71332,7.61839],[-80.71792,7.62098],[-80.7195,7.62634],[-80.71226,7.63277],[-80.70478,7.62863],[-80.69785,7.63476],[-80.69091,7.63527],[-80.68732,7.63182],[-80.6843,7.63853],[-80.67662,7.63953],[-80.67367,7.64412],[-80.67675,7.64521],[-80.67462,7.64578],[-80.67483,7.65204],[-80.67866,7.65402],[-80.67217,7.65962],[-80.67239,7.66647],[-80.66286,7.66644],[-80.65304,7.65872],[-80.64095,7.66659],[-80.62955,7.66012]]]}},{"type":"Feature","properties":{"corregimiento":"Las Llanas","distrito":"Los Pozos","provincia":"Herrera","bbox":[-80.78046,7.58211,-80.67217,7.67718]},"geometry":{"type":"Polygon","coordinates":[[[-80.67239,7.66647],[-80.67217,7.65962],[-80.67866,7.65402],[-80.67483,7.65204],[-80.67462,7.64578],[-80.67675,7.64521],[-80.67367,7.64412],[-80.67662,7.63953],[-80.6843,7.63853],[-80.68732,7.63182],[-80.69091,7.63527],[-80.69785,7.63476],[-80.70478,7.62863],[-80.71208,7.63285],[-80.71934,7.62675],[-80.71792,7.62098],[-80.71332,7.61839],[-80.71439,7.60722],[-80.72216,7.60736],[-80.72339,7.60477],[-80.72721,7.60855],[-80.72674,7.6028],[-80.72963,7.60097],[-80.7317,7.60427],[-80.74108,7.6042],[-80.74103,7.59776],[-80.74927,7.59351],[-80.75036,7.58975],[-80.75394,7.58975],[-80.75448,7.5924],[-80.76323,7.58602],[-80.76584,7.58803],[-80.76658,7.584],[-80.77879,7.58211],[-80.77295,7.61976],[-80.77872,7.61993],[-80.77575,7.63281],[-80.77996,7.63413],[-80.78046,7.64236],[-80.77382,7.65356],[-80.75404,7.65509],[-80.74652,7.64895],[-80.74056,7.65397],[-80.73396,7.65494],[-80.73164,7.65918],[-80.7237,7.66169],[-80.71877,7.65932],[-80.71864,7.66265],[-80.71441,7.66037],[-80.70126,7.66486],[-80.6951,7.67605],[-80.69178,7.67718],[-80.68737,7.67521],[-80.6874,7.6711],[-80.68469,7.67007],[-80.68455,7.67385],[-80.68204,7.6745],[-80.68157,7.67104],[-80.67869,7.6731],[-80.6785,7.67028],[-80.67239,7.66647]]]}},{"type":"Feature","properties":{"corregimiento":"El Calabacito","distrito":"Los Pozos","provincia":"Herrera","bbox":[-80.63435,7.67497,-80.55765,7.74202]},"geometry":{"type":"Polygon","coordinates":[[[-80.55765,7.73293],[-80.56287,7.71077],[-80.56965,7.71029],[-80.57469,7.69028],[-80.57991,7.68523],[-80.58508,7.68764],[-80.59343,7.68574],[-80.59507,7.67497],[-80.60005,7.67497],[-80.60789,7.68347],[-80.61167,7.68364],[-80.61465,7.68974],[-80.61187,7.70416],[-80.62145,7.70833],[-80.62316,7.71836],[-80.62671,7.71545],[-80.62994,7.71866],[-80.62932,7.72282],[-80.63435,7.72669],[-80.63383,7.7312],[-80.62099,7.74202],[-80.6168,7.73763],[-80.60784,7.73474],[-80.59768,7.73558],[-80.58079,7.73048],[-80.55765,7.73293]]]}},{"type":"Feature","properties":{"corregimiento":"La Arena","distrito":"Los Pozos","provincia":"Herrera","bbox":[-80.63886,7.73047,-80.55702,7.78073]},"geometry":{"type":"Polygon","coordinates":[[[-80.56728,7.75797],[-80.56386,7.74405],[-80.55945,7.74171],[-80.56015,7.73581],[-80.55702,7.73502],[-80.56131,7.73147],[-80.56863,7.7331],[-80.58073,7.73047],[-80.59768,7.73558],[-80.60751,7.73465],[-80.6168,7.73763],[-80.62099,7.74202],[-80.62548,7.74052],[-80.63275,7.73149],[-80.63886,7.73392],[-80.63299,7.74962],[-80.62786,7.75456],[-80.62318,7.75123],[-80.61455,7.75228],[-80.60709,7.75977],[-80.58998,7.76435],[-80.58942,7.77184],[-80.58402,7.78073],[-80.58152,7.77368],[-80.5752,7.77308],[-80.57251,7.76878],[-80.57324,7.75965],[-80.56941,7.76402],[-80.56362,7.76126],[-80.56728,7.75797]]]}},{"type":"Feature","properties":{"corregimiento":"Los Pozos (Cabecera)","distrito":"Los Pozos","provincia":"Herrera","bbox":[-80.69618,7.73335,-80.61978,7.83749]},"geometry":{"type":"Polygon","coordinates":[[[-80.65859,7.83736],[-80.65517,7.82046],[-80.64191,7.81883],[-80.64628,7.81652],[-80.62588,7.79911],[-80.62813,7.78354],[-80.62427,7.78313],[-80.61978,7.77479],[-80.62693,7.7723],[-80.6249,7.76849],[-80.62914,7.76511],[-80.62951,7.76011],[-80.62122,7.7572],[-80.62251,7.75141],[-80.62786,7.75456],[-80.63299,7.74962],[-80.63647,7.73697],[-80.64006,7.73335],[-80.64429,7.73664],[-80.64173,7.74069],[-80.64507,7.74506],[-80.6569,7.7499],[-80.6608,7.75458],[-80.67308,7.75143],[-80.67793,7.75434],[-80.67797,7.75822],[-80.68347,7.7573],[-80.68647,7.76112],[-80.69242,7.75705],[-80.69508,7.7587],[-80.69159,7.78842],[-80.69618,7.79137],[-80.69121,7.7925],[-80.68825,7.7984],[-80.68793,7.81107],[-80.69323,7.81278],[-80.69026,7.81873],[-80.69117,7.82458],[-80.67222,7.83423],[-80.66628,7.83318],[-80.66446,7.83749],[-80.65859,7.83736]]]}},{"type":"Feature","properties":{"corregimiento":"El Capurí","distrito":"Los Pozos","provincia":"Herrera","bbox":[-80.67646,7.70083,-80.6213,7.75461]},"geometry":{"type":"Polygon","coordinates":[[[-80.64393,7.73598],[-80.63385,7.73293],[-80.63434,7.72663],[-80.62927,7.72273],[-80.62985,7.71853],[-80.62631,7.71536],[-80.62311,7.71827],[-80.6213,7.71404],[-80.62528,7.70338],[-80.63944,7.70083],[-80.65006,7.70447],[-80.64758,7.71055],[-80.64973,7.71302],[-80.65789,7.71771],[-80.66287,7.72538],[-80.67419,7.73071],[-80.67646,7.74534],[-80.67176,7.75284],[-80.66088,7.75461],[-80.6569,7.7499],[-80.64507,7.74506],[-80.64173,7.74069],[-80.64393,7.73598]]]}},{"type":"Feature","properties":{"corregimiento":"El Cedro","distrito":"Los Pozos","provincia":"Herrera","bbox":[-80.69532,7.65871,-80.60462,7.71055]},"geometry":{"type":"Polygon","coordinates":[[[-80.64758,7.71055],[-80.65006,7.70447],[-80.63944,7.70083],[-80.62513,7.70346],[-80.62257,7.70954],[-80.61248,7.7049],[-80.61464,7.68962],[-80.6114,7.68331],[-80.60462,7.67998],[-80.61354,7.67602],[-80.61931,7.67673],[-80.62316,7.66933],[-80.63057,7.66813],[-80.62955,7.66012],[-80.64095,7.66659],[-80.65288,7.65871],[-80.66286,7.66644],[-80.67591,7.66787],[-80.67869,7.6731],[-80.6817,7.67118],[-80.68172,7.6744],[-80.68448,7.67394],[-80.6849,7.67002],[-80.68788,7.67155],[-80.68765,7.67551],[-80.69532,7.67631],[-80.6947,7.68008],[-80.6866,7.68055],[-80.67625,7.70743],[-80.66084,7.70864],[-80.66059,7.70629],[-80.65489,7.70542],[-80.64758,7.71055]]]}},{"type":"Feature","properties":{"corregimiento":"Los Cerritos","distrito":"Los Pozos","provincia":"Herrera","bbox":[-80.6587,7.75141,-80.58263,7.84354]},"geometry":{"type":"Polygon","coordinates":[[[-80.58263,7.8042],[-80.58917,7.80067],[-80.5872,7.79667],[-80.58928,7.79404],[-80.58473,7.791],[-80.58814,7.78701],[-80.58402,7.78073],[-80.58942,7.77184],[-80.58998,7.76435],[-80.60709,7.75977],[-80.61433,7.75236],[-80.62251,7.75141],[-80.62135,7.75743],[-80.62951,7.76011],[-80.62821,7.76765],[-80.6249,7.76849],[-80.62705,7.77216],[-80.61978,7.7747],[-80.62427,7.78313],[-80.62813,7.78354],[-80.62588,7.79911],[-80.64628,7.81652],[-80.64191,7.81883],[-80.65517,7.82046],[-80.6587,7.83717],[-80.6545,7.83942],[-80.65341,7.84354],[-80.63946,7.82678],[-80.61363,7.81986],[-80.60275,7.81012],[-80.59256,7.80508],[-80.58861,7.80726],[-80.58263,7.8042]]]}},{"type":"Feature","properties":{"corregimiento":"Los Cerros de Paja","distrito":"Los Pozos","provincia":"Herrera","bbox":[-80.72454,7.65932,-80.64758,7.76112]},"geometry":{"type":"Polygon","coordinates":[[[-80.67326,7.75149],[-80.6768,7.73959],[-80.67419,7.73071],[-80.66287,7.72538],[-80.65789,7.71771],[-80.64758,7.71055],[-80.65489,7.70542],[-80.66059,7.70629],[-80.66084,7.70864],[-80.67625,7.70743],[-80.6866,7.68055],[-80.69515,7.67975],[-80.69532,7.67351],[-80.70086,7.66513],[-80.7142,7.6604],[-80.71864,7.66265],[-80.71877,7.65932],[-80.72454,7.66093],[-80.70963,7.70415],[-80.69508,7.7587],[-80.69242,7.75705],[-80.68647,7.76112],[-80.68347,7.7573],[-80.67797,7.75822],[-80.67793,7.75434],[-80.67326,7.75149]]]}}]}