{"type":"FeatureCollection","features":[{"type":"Feature","properties":{"corregimiento":"Cerro Largo","distrito":"Ocú","provincia":"Herrera","bbox":[-80.88301,7.79191,-80.76087,7.87368]},"geometry":{"type":"Polygon","coordinates":[[[-80.82261,7.86269],[-80.81839,7.85023],[-80.79612,7.85722],[-80.77815,7.85351],[-80.76087,7.85542],[-80.76343,7.84895],[-80.76099,7.84873],[-80.76176,7.84556],[-80.76499,7.84389],[-80.76473,7.82968],[-80.77906,7.81797],[-80.78283,7.81987],[-80.79825,7.81745],[-80.81318,7.82483],[-80.82748,7.81133],[-80.82853,7.8086],[-80.825,7.80389],[-80.82776,7.79907],[-80.83754,7.7945],[-80.84511,7.79597],[-80.84947,7.79254],[-80.8549,7.79538],[-80.8652,7.79521],[-80.86988,7.79191],[-80.87077,7.79415],[-80.88301,7.79244],[-80.88239,7.79656],[-80.87442,7.79725],[-80.86846,7.81291],[-80.86189,7.8193],[-80.85103,7.8237],[-80.84798,7.83465],[-80.84454,7.83702],[-80.84855,7.84537],[-80.84419,7.84886],[-80.84057,7.84656],[-80.83849,7.85049],[-80.84289,7.85908],[-80.84035,7.8653],[-80.84363,7.86823],[-80.84296,7.87222],[-80.83148,7.87368],[-80.82261,7.86269]]]}},{"type":"Feature","properties":{"corregimiento":"El Tijera","distrito":"Ocú","provincia":"Herrera","bbox":[-80.96314,7.76596,-80.8838,7.89632]},"geometry":{"type":"Polygon","coordinates":[[[-80.8838,7.87809],[-80.89437,7.84946],[-80.89709,7.8483],[-80.90802,7.81221],[-80.91499,7.8038],[-80.91014,7.79159],[-80.9309,7.77328],[-80.93787,7.7711],[-80.9382,7.77429],[-80.94331,7.77548],[-80.9502,7.76779],[-80.95941,7.76596],[-80.96314,7.77084],[-80.9624,7.77717],[-80.95544,7.78145],[-80.95148,7.78002],[-80.94619,7.78562],[-80.94964,7.78958],[-80.94622,7.79235],[-80.95502,7.80088],[-80.95317,7.8104],[-80.9511,7.81038],[-80.94203,7.82947],[-80.94999,7.83015],[-80.94497,7.85951],[-80.95065,7.87898],[-80.9422,7.88642],[-80.93575,7.88773],[-80.93236,7.8939],[-80.92594,7.89632],[-80.91619,7.89478],[-80.90901,7.88756],[-80.90747,7.88966],[-80.9064,7.88727],[-80.89272,7.88549],[-80.88807,7.87787],[-80.8838,7.87809]]]}},{"type":"Feature","properties":{"corregimiento":"Entradero del Castillo","distrito":"Ocú","provincia":"Herrera","bbox":[-80.91499,7.79297,-80.8099,7.91522]},"geometry":{"type":"Polygon","coordinates":[[[-80.84778,7.9141],[-80.84733,7.90252],[-80.84104,7.89838],[-80.8413,7.89525],[-80.81207,7.89152],[-80.8099,7.88023],[-80.82704,7.87255],[-80.82261,7.86269],[-80.83148,7.87368],[-80.84296,7.87222],[-80.84363,7.86823],[-80.84035,7.8653],[-80.84289,7.85908],[-80.83876,7.84956],[-80.8406,7.84655],[-80.84723,7.84781],[-80.84893,7.84346],[-80.84454,7.83702],[-80.84798,7.83465],[-80.85103,7.8237],[-80.86189,7.8193],[-80.86847,7.8129],[-80.87445,7.79721],[-80.89322,7.79511],[-80.90075,7.79808],[-80.90011,7.79511],[-80.90306,7.7966],[-80.90335,7.79383],[-80.90862,7.79655],[-80.90978,7.79297],[-80.91499,7.8038],[-80.90802,7.81221],[-80.89709,7.8483],[-80.89437,7.84946],[-80.8889,7.86525],[-80.88488,7.86587],[-80.88151,7.86049],[-80.87707,7.86068],[-80.8756,7.85373],[-80.85871,7.85912],[-80.85899,7.86438],[-80.85298,7.86971],[-80.85561,7.87892],[-80.86097,7.88046],[-80.85278,7.88468],[-80.85727,7.8999],[-80.85302,7.90834],[-80.85426,7.91072],[-80.85066,7.91522],[-80.84778,7.9141]]]}},{"type":"Feature","properties":{"corregimiento":"Ocú (Cabecera)","distrito":"Ocú","provincia":"Herrera","bbox":[-80.8478,7.89157,-80.70376,8.02218]},"geometry":{"type":"Polygon","coordinates":[[[-80.7207,8.01295],[-80.73176,7.99141],[-80.73724,7.98934],[-80.73609,7.98623],[-80.74012,7.98423],[-80.73754,7.97986],[-80.74165,7.97299],[-80.73818,7.97058],[-80.74129,7.96713],[-80.73805,7.96245],[-80.73833,7.95041],[-80.72219,7.94687],[-80.71775,7.94016],[-80.71316,7.94014],[-80.71158,7.9357],[-80.7074,7.93405],[-80.70376,7.93499],[-80.70452,7.93288],[-80.71064,7.92713],[-80.71352,7.93075],[-80.721,7.93241],[-80.72029,7.92137],[-80.72382,7.9192],[-80.73064,7.9215],[-80.73079,7.91838],[-80.73758,7.91741],[-80.73553,7.91473],[-80.73854,7.9115],[-80.73933,7.90563],[-80.73673,7.90336],[-80.73889,7.90116],[-80.74421,7.90317],[-80.74944,7.91767],[-80.75549,7.92085],[-80.76929,7.91601],[-80.77617,7.91925],[-80.77958,7.91608],[-80.78704,7.91599],[-80.78816,7.91179],[-80.79176,7.91282],[-80.79719,7.90673],[-80.79475,7.90625],[-80.80055,7.90214],[-80.79995,7.89851],[-80.81105,7.89157],[-80.8413,7.89525],[-80.84104,7.89838],[-80.84733,7.90252],[-80.8478,7.91405],[-80.84307,7.91828],[-80.84267,7.92506],[-80.83036,7.92937],[-80.8276,7.93475],[-80.82064,7.93596],[-80.82041,7.94125],[-80.81468,7.94196],[-80.81537,7.94769],[-80.82182,7.95367],[-80.81386,7.95903],[-80.83119,7.97567],[-80.8288,7.98392],[-80.83405,7.99908],[-80.84458,8.01209],[-80.84588,8.02218],[-80.8343,8.02147],[-80.82736,8.00685],[-80.82161,8.00193],[-80.82736,7.9917],[-80.8119,7.98839],[-80.80858,7.99846],[-80.81051,8.00125],[-80.80453,8.01077],[-80.79997,8.01316],[-80.79098,7.99844],[-80.78818,8.00273],[-80.7808,8.0049],[-80.77289,7.99938],[-80.75756,8.00818],[-80.7207,8.01295]]]}},{"type":"Feature","properties":{"corregimiento":"Los Llanos","distrito":"Ocú","provincia":"Herrera","bbox":[-80.96257,7.85373,-80.81373,8.0048]},"geometry":{"type":"Polygon","coordinates":[[[-80.83992,8.0048],[-80.83405,7.99908],[-80.8288,7.98392],[-80.83119,7.97567],[-80.81459,7.96087],[-80.81386,7.95903],[-80.82182,7.95367],[-80.81373,7.9437],[-80.82041,7.94125],[-80.82064,7.93596],[-80.8276,7.93475],[-80.83036,7.92937],[-80.84267,7.92506],[-80.84307,7.91828],[-80.85426,7.91072],[-80.85741,7.89707],[-80.85275,7.88481],[-80.86097,7.88046],[-80.85561,7.87892],[-80.85289,7.87],[-80.85899,7.86438],[-80.85859,7.85921],[-80.8756,7.85373],[-80.87707,7.86068],[-80.88143,7.86044],[-80.88184,7.86426],[-80.88327,7.86256],[-80.88784,7.86594],[-80.8838,7.87809],[-80.88807,7.87787],[-80.89272,7.88549],[-80.9064,7.88727],[-80.90747,7.88966],[-80.90901,7.88756],[-80.91578,7.89467],[-80.9261,7.8963],[-80.93537,7.89176],[-80.93896,7.88561],[-80.94204,7.88648],[-80.94353,7.89859],[-80.93722,7.90703],[-80.96257,7.91406],[-80.95129,7.91691],[-80.94555,7.91389],[-80.94093,7.9173],[-80.93164,7.91845],[-80.93109,7.92273],[-80.92555,7.92719],[-80.91777,7.92025],[-80.91389,7.92325],[-80.89607,7.92425],[-80.89649,7.93646],[-80.89291,7.93939],[-80.89431,7.94411],[-80.88254,7.95729],[-80.88146,7.96269],[-80.86518,7.96872],[-80.86333,7.9846],[-80.85778,7.98353],[-80.85351,8.00104],[-80.83992,8.0048]]]}},{"type":"Feature","properties":{"corregimiento":"Llano Grande","distrito":"Ocú","provincia":"Herrera","bbox":[-80.74165,7.93286,-80.6503,8.04789]},"geometry":{"type":"Polygon","coordinates":[[[-80.69507,8.0398],[-80.67667,8.02184],[-80.67946,8.01112],[-80.67515,8.00521],[-80.67767,7.99905],[-80.67488,7.99567],[-80.676,7.99196],[-80.67081,7.99082],[-80.66954,7.98684],[-80.65971,7.97915],[-80.6503,7.94741],[-80.65956,7.94629],[-80.66352,7.94198],[-80.66911,7.94453],[-80.67217,7.93286],[-80.69163,7.94338],[-80.70155,7.93515],[-80.71149,7.93564],[-80.71303,7.94004],[-80.71775,7.94016],[-80.72219,7.94687],[-80.73833,7.95041],[-80.73805,7.96245],[-80.74126,7.9668],[-80.73816,7.97008],[-80.74165,7.97299],[-80.7376,7.97951],[-80.74033,7.9826],[-80.73609,7.98623],[-80.73732,7.98924],[-80.73176,7.99141],[-80.71886,8.01589],[-80.71454,8.01653],[-80.71266,8.02263],[-80.70861,8.02334],[-80.70369,8.03063],[-80.70604,8.03364],[-80.70253,8.0397],[-80.71079,8.04632],[-80.70694,8.04789],[-80.70268,8.04574],[-80.70154,8.04147],[-80.69507,8.0398]]]}},{"type":"Feature","properties":{"corregimiento":"Peña Chatas","distrito":"Ocú","provincia":"Herrera","bbox":[-80.86957,7.98856,-80.70253,8.07202]},"geometry":{"type":"Polygon","coordinates":[[[-80.81872,8.07161],[-80.81245,8.06569],[-80.80513,8.06511],[-80.80103,8.05765],[-80.7947,8.05403],[-80.78596,8.05555],[-80.76113,8.04412],[-80.75718,8.0481],[-80.74986,8.04895],[-80.74535,8.04451],[-80.7382,8.04499],[-80.73645,8.04119],[-80.72026,8.05306],[-80.71353,8.05485],[-80.70735,8.05135],[-80.71088,8.04553],[-80.70253,8.0397],[-80.70604,8.03364],[-80.70369,8.03063],[-80.71962,8.01319],[-80.75756,8.00818],[-80.77289,7.99938],[-80.78038,8.00495],[-80.78818,8.00273],[-80.79098,7.99844],[-80.79997,8.01316],[-80.80453,8.01077],[-80.81051,8.00125],[-80.80858,7.99846],[-80.81164,7.98856],[-80.82736,7.9917],[-80.82095,8.00036],[-80.82736,8.00685],[-80.83402,8.02117],[-80.84833,8.02129],[-80.85464,8.02951],[-80.86313,8.02997],[-80.86061,8.03744],[-80.86574,8.04228],[-80.86348,8.04405],[-80.86957,8.05319],[-80.86231,8.05941],[-80.86276,8.06302],[-80.85414,8.06123],[-80.84911,8.06604],[-80.84585,8.06425],[-80.83853,8.07202],[-80.83318,8.06693],[-80.82789,8.07087],[-80.82573,8.06877],[-80.81872,8.07161]]]}},{"type":"Feature","properties":{"corregimiento":"Menchaca","distrito":"Ocú","provincia":"Herrera","bbox":[-80.82704,7.85023,-80.70819,7.93241]},"geometry":{"type":"Polygon","coordinates":[[[-80.70882,7.93111],[-80.70819,7.9239],[-80.71435,7.91945],[-80.71449,7.91192],[-80.71681,7.91153],[-80.71561,7.90325],[-80.71857,7.89544],[-80.71659,7.892],[-80.72329,7.87863],[-80.72757,7.87806],[-80.72997,7.8727],[-80.72736,7.86748],[-80.73027,7.86336],[-80.74102,7.86275],[-80.74343,7.85676],[-80.75703,7.85832],[-80.76533,7.8535],[-80.7694,7.85588],[-80.77815,7.85351],[-80.79612,7.85722],[-80.81839,7.85023],[-80.82704,7.87255],[-80.8099,7.88023],[-80.81239,7.89122],[-80.79973,7.89874],[-80.80055,7.90214],[-80.79482,7.90613],[-80.79729,7.90649],[-80.79207,7.91263],[-80.7883,7.91169],[-80.78704,7.91599],[-80.77958,7.91608],[-80.7764,7.91924],[-80.76929,7.91601],[-80.75512,7.92081],[-80.74944,7.91767],[-80.74421,7.90317],[-80.73889,7.90116],[-80.73673,7.90336],[-80.73933,7.90563],[-80.73854,7.9115],[-80.73553,7.91473],[-80.73774,7.91725],[-80.73079,7.91838],[-80.73064,7.9215],[-80.72382,7.9192],[-80.72029,7.92137],[-80.721,7.93241],[-80.71352,7.93075],[-80.71064,7.92713],[-80.70882,7.93111]]]}}]}