{"type":"FeatureCollection","features":[{"type":"Feature","properties":{"corregimiento":"Parita (Cabecera)","distrito":"Parita","provincia":"Herrera","bbox":[-80.57607,7.95474,-80.44909,8.09271]},"geometry":{"type":"Polygon","coordinates":[[[-80.48449,8.09122],[-80.47899,8.08211],[-80.46991,8.07548],[-80.46566,8.05285],[-80.45011,8.03252],[-80.44909,8.0273],[-80.45318,8.01966],[-80.45601,8.01666],[-80.46139,8.01816],[-80.4574,8.02354],[-80.46066,8.02757],[-80.46382,8.02514],[-80.46052,8.02489],[-80.45993,8.02233],[-80.46289,8.02396],[-80.46263,8.0201],[-80.46639,8.01771],[-80.46192,8.01607],[-80.46257,8.01412],[-80.46577,8.01638],[-80.46846,8.01418],[-80.46715,8.01207],[-80.4727,8.01102],[-80.47342,8.00612],[-80.47576,8.00787],[-80.48112,8.00395],[-80.47944,8.00122],[-80.48422,8.00128],[-80.48511,7.99915],[-80.48233,7.99936],[-80.49071,7.99165],[-80.48871,7.98701],[-80.49484,7.98492],[-80.49381,7.98004],[-80.50206,7.97931],[-80.5002,7.97745],[-80.50625,7.95474],[-80.55437,7.96183],[-80.57567,7.97898],[-80.55823,7.978],[-80.55402,7.9851],[-80.55775,7.98569],[-80.55895,7.98911],[-80.55526,8.00465],[-80.55691,8.01032],[-80.57467,8.0208],[-80.57607,8.0257],[-80.55546,8.02664],[-80.54952,8.03662],[-80.54339,8.03563],[-80.53617,8.03886],[-80.53045,8.0482],[-80.52892,8.05712],[-80.52358,8.05486],[-80.51698,8.05757],[-80.51695,8.06445],[-80.51291,8.06575],[-80.51529,8.06921],[-80.50379,8.08037],[-80.50489,8.08909],[-80.50349,8.08656],[-80.49568,8.09271],[-80.48449,8.09122]]]}},{"type":"Feature","properties":{"corregimiento":"Cabuya","distrito":"Parita","provincia":"Herrera","bbox":[-80.69259,7.97281,-80.59565,8.07688]},"geometry":{"type":"Polygon","coordinates":[[[-80.61529,8.04505],[-80.60688,8.01415],[-80.5993,8.009],[-80.59565,8.00263],[-80.6021,8.00778],[-80.62178,8.00669],[-80.62492,8.00316],[-80.63109,8.00311],[-80.63604,7.99142],[-80.64875,7.98667],[-80.65013,7.97281],[-80.65681,7.97349],[-80.67081,7.99082],[-80.67592,7.99176],[-80.67488,7.99567],[-80.67767,7.99905],[-80.67515,8.00521],[-80.67946,8.01112],[-80.67667,8.02184],[-80.68677,8.02924],[-80.69259,8.04739],[-80.68794,8.04675],[-80.67733,8.05533],[-80.66839,8.07236],[-80.66269,8.07156],[-80.65668,8.07683],[-80.64807,8.07688],[-80.63725,8.07239],[-80.64073,8.06035],[-80.63984,8.05586],[-80.63489,8.05214],[-80.63497,8.04083],[-80.6313,8.03767],[-80.61529,8.04505]]]}},{"type":"Feature","properties":{"corregimiento":"Los Castillos","distrito":"Parita","provincia":"Herrera","bbox":[-80.65013,7.95971,-80.58264,8.00778]},"geometry":{"type":"Polygon","coordinates":[[[-80.6021,8.00778],[-80.59401,8.00072],[-80.59657,7.99819],[-80.59674,7.98983],[-80.58272,7.98137],[-80.58264,7.97759],[-80.59331,7.97193],[-80.59297,7.96753],[-80.59715,7.96695],[-80.60296,7.95971],[-80.60684,7.95995],[-80.6098,7.96806],[-80.62104,7.97501],[-80.63683,7.96172],[-80.63908,7.98167],[-80.64381,7.98039],[-80.65013,7.97281],[-80.64875,7.98667],[-80.63604,7.99142],[-80.63109,8.00311],[-80.62492,8.00316],[-80.62178,8.00669],[-80.6021,8.00778]]]}},{"type":"Feature","properties":{"corregimiento":"Llano de La Cruz","distrito":"Parita","provincia":"Herrera","bbox":[-80.65681,7.94741,-80.59965,7.98167]},"geometry":{"type":"Polygon","coordinates":[[[-80.60276,7.95984],[-80.59965,7.95597],[-80.6063,7.95197],[-80.61369,7.95502],[-80.61449,7.95811],[-80.62163,7.9549],[-80.62742,7.95711],[-80.63054,7.95303],[-80.63625,7.95328],[-80.63983,7.94967],[-80.64826,7.95085],[-80.6503,7.94741],[-80.65681,7.97349],[-80.65013,7.97281],[-80.64381,7.98039],[-80.63908,7.98167],[-80.63683,7.96172],[-80.62104,7.97501],[-80.6098,7.96806],[-80.60684,7.95995],[-80.60276,7.95984]]]}},{"type":"Feature","properties":{"corregimiento":"París","distrito":"Parita","provincia":"Herrera","bbox":[-80.62115,8.02443,-80.49516,8.12433]},"geometry":{"type":"Polygon","coordinates":[[[-80.49516,8.09277],[-80.50083,8.08751],[-80.50498,8.08899],[-80.50379,8.08037],[-80.51529,8.06921],[-80.51291,8.06575],[-80.51695,8.06445],[-80.51698,8.05757],[-80.52358,8.05486],[-80.52892,8.05712],[-80.53045,8.0482],[-80.53596,8.03901],[-80.54339,8.03563],[-80.54952,8.03662],[-80.55542,8.02665],[-80.57009,8.02443],[-80.57592,8.02556],[-80.58871,8.03675],[-80.61149,8.05023],[-80.60123,8.04834],[-80.59819,8.05091],[-80.5957,8.05837],[-80.598,8.06562],[-80.59189,8.0738],[-80.61737,8.0835],[-80.62115,8.09012],[-80.62019,8.09374],[-80.61648,8.09481],[-80.6112,8.09168],[-80.60752,8.09516],[-80.6047,8.09137],[-80.59125,8.09278],[-80.58623,8.08977],[-80.57956,8.0954],[-80.56763,8.09186],[-80.56726,8.09462],[-80.5556,8.09982],[-80.5577,8.10303],[-80.5527,8.10787],[-80.5514,8.11755],[-80.5395,8.114],[-80.53825,8.12433],[-80.53158,8.1208],[-80.5338,8.11575],[-80.52701,8.11714],[-80.5252,8.12367],[-80.5231,8.11912],[-80.5257,8.11078],[-80.51737,8.11017],[-80.51901,8.10444],[-80.51584,8.10029],[-80.50985,8.10226],[-80.51067,8.11003],[-80.50585,8.11177],[-80.50566,8.10586],[-80.49788,8.10299],[-80.49885,8.0965],[-80.49516,8.09277]]]}},{"type":"Feature","properties":{"corregimiento":"Portobelillo","distrito":"Parita","provincia":"Herrera","bbox":[-80.61529,7.978,-80.55402,8.05023]},"geometry":{"type":"Polygon","coordinates":[[[-80.57607,8.0257],[-80.57467,8.0208],[-80.558,8.01158],[-80.55522,8.00631],[-80.55895,7.98911],[-80.55775,7.98569],[-80.55402,7.9851],[-80.55823,7.978],[-80.57269,7.98015],[-80.57762,7.97817],[-80.59668,7.98973],[-80.59657,7.99819],[-80.59404,8.00088],[-80.5993,8.009],[-80.60688,8.01415],[-80.61529,8.04505],[-80.61149,8.05023],[-80.58871,8.03675],[-80.57607,8.0257]]]}},{"type":"Feature","properties":{"corregimiento":"Potuga","distrito":"Parita","provincia":"Herrera","bbox":[-80.72,8.02924,-80.59177,8.09683]},"geometry":{"type":"Polygon","coordinates":[[[-80.62019,8.09374],[-80.62094,8.0888],[-80.61754,8.08361],[-80.59177,8.07224],[-80.598,8.06562],[-80.5957,8.05837],[-80.59828,8.05081],[-80.60123,8.04834],[-80.61149,8.05023],[-80.61529,8.04505],[-80.6313,8.03767],[-80.63514,8.04105],[-80.63495,8.0523],[-80.63984,8.05586],[-80.64072,8.06025],[-80.63725,8.07239],[-80.64778,8.07683],[-80.65668,8.07683],[-80.66269,8.07156],[-80.66839,8.07236],[-80.67733,8.05533],[-80.68794,8.04675],[-80.69259,8.04739],[-80.68677,8.02924],[-80.69507,8.0398],[-80.69849,8.03922],[-80.70268,8.04574],[-80.70959,8.04721],[-80.70736,8.05141],[-80.71234,8.05307],[-80.71369,8.05698],[-80.70983,8.05847],[-80.72,8.06547],[-80.71625,8.07608],[-80.71252,8.07466],[-80.70882,8.08411],[-80.70296,8.08708],[-80.70196,8.08525],[-80.70029,8.08935],[-80.6856,8.08667],[-80.67878,8.0957],[-80.67335,8.09348],[-80.66406,8.09683],[-80.65238,8.09129],[-80.63836,8.09472],[-80.63646,8.09152],[-80.62663,8.09106],[-80.62633,8.08905],[-80.62019,8.09374]]]}}]}