{"type":"FeatureCollection","features":[{"type":"Feature","properties":{"corregimiento":"Las Cabras","distrito":"Pesé","provincia":"Herrera","bbox":[-80.61075,7.83747,-80.52109,7.92534]},"geometry":{"type":"Polygon","coordinates":[[[-80.52286,7.91135],[-80.52501,7.90462],[-80.52109,7.90203],[-80.5218,7.89539],[-80.52739,7.89916],[-80.52904,7.89756],[-80.53204,7.88922],[-80.53204,7.87618],[-80.53723,7.87037],[-80.53572,7.86424],[-80.54047,7.85863],[-80.54097,7.85066],[-80.54918,7.84882],[-80.55148,7.85317],[-80.55642,7.85427],[-80.55757,7.84635],[-80.56895,7.84453],[-80.56982,7.8414],[-80.56699,7.83929],[-80.56983,7.83747],[-80.58072,7.84224],[-80.60075,7.84477],[-80.59986,7.85343],[-80.6023,7.85637],[-80.5991,7.8614],[-80.61075,7.87647],[-80.60625,7.88207],[-80.58964,7.89024],[-80.59143,7.89522],[-80.59511,7.89482],[-80.59548,7.89768],[-80.60333,7.90055],[-80.60462,7.90355],[-80.60123,7.90843],[-80.58371,7.91287],[-80.58138,7.91867],[-80.58292,7.92534],[-80.57654,7.91678],[-80.571,7.91457],[-80.5431,7.92431],[-80.54371,7.9096],[-80.53831,7.9066],[-80.5274,7.91234],[-80.52286,7.91135]]]}},{"type":"Feature","properties":{"corregimiento":"El Barrero","distrito":"Pesé","provincia":"Herrera","bbox":[-80.60688,7.90465,-80.49994,7.96071]},"geometry":{"type":"Polygon","coordinates":[[[-80.50625,7.95474],[-80.51188,7.93633],[-80.50755,7.93337],[-80.50152,7.93402],[-80.49994,7.93345],[-80.50449,7.92861],[-80.50315,7.92362],[-80.50811,7.92343],[-80.51346,7.91667],[-80.52286,7.91135],[-80.52749,7.91231],[-80.53518,7.90647],[-80.54295,7.90815],[-80.5431,7.92431],[-80.57418,7.91514],[-80.58155,7.92582],[-80.58371,7.91287],[-80.59853,7.90957],[-80.60522,7.90465],[-80.60688,7.9164],[-80.56653,7.94415],[-80.5582,7.94014],[-80.55861,7.94724],[-80.55051,7.95125],[-80.54721,7.96071],[-80.50625,7.95474]]]}},{"type":"Feature","properties":{"corregimiento":"Sabana Grande","distrito":"Pesé","provincia":"Herrera","bbox":[-80.71542,7.82279,-80.58964,7.90961]},"geometry":{"type":"Polygon","coordinates":[[[-80.62979,7.89329],[-80.62193,7.90708],[-80.6185,7.90648],[-80.6086,7.89915],[-80.59567,7.89781],[-80.58964,7.89024],[-80.60625,7.88207],[-80.61075,7.87647],[-80.62502,7.87114],[-80.62277,7.85856],[-80.62554,7.85149],[-80.63916,7.85202],[-80.64707,7.84459],[-80.65365,7.84378],[-80.65463,7.8393],[-80.66264,7.83596],[-80.66446,7.83749],[-80.66848,7.83239],[-80.67222,7.83423],[-80.67566,7.83052],[-80.69051,7.82555],[-80.69144,7.82279],[-80.71303,7.83579],[-80.71145,7.83834],[-80.71542,7.84408],[-80.71011,7.84228],[-80.70183,7.8609],[-80.70649,7.86939],[-80.69764,7.86654],[-80.69373,7.87331],[-80.68622,7.87171],[-80.67094,7.87617],[-80.65996,7.88734],[-80.66002,7.89232],[-80.66396,7.89672],[-80.66209,7.90168],[-80.64848,7.90961],[-80.64248,7.90345],[-80.63442,7.90073],[-80.62979,7.89329]]]}},{"type":"Feature","properties":{"corregimiento":"Rincón Hondo","distrito":"Pesé","provincia":"Herrera","bbox":[-80.6538,7.8042,-80.57871,7.87647]},"geometry":{"type":"Polygon","coordinates":[[[-80.57871,7.84103],[-80.58429,7.83711],[-80.58767,7.82816],[-80.5909,7.8292],[-80.5912,7.82532],[-80.59561,7.82416],[-80.59086,7.81957],[-80.59112,7.81489],[-80.58075,7.81861],[-80.58538,7.81123],[-80.57991,7.80866],[-80.58263,7.8042],[-80.58861,7.80726],[-80.59256,7.80508],[-80.60275,7.81012],[-80.61363,7.81986],[-80.63946,7.82678],[-80.6538,7.84356],[-80.64707,7.84459],[-80.63916,7.85202],[-80.62554,7.85149],[-80.62277,7.85856],[-80.62502,7.87114],[-80.61075,7.87647],[-80.5991,7.8614],[-80.6023,7.85637],[-80.59986,7.85343],[-80.60075,7.84477],[-80.57871,7.84103]]]}},{"type":"Feature","properties":{"corregimiento":"Pesé (Cabecera)","distrito":"Pesé","provincia":"Herrera","bbox":[-80.62467,7.89766,-80.60018,7.93551]},"geometry":{"type":"Polygon","coordinates":[[[-80.60475,7.92818],[-80.60583,7.90596],[-80.60018,7.89766],[-80.60879,7.89923],[-80.61872,7.90655],[-80.62193,7.90708],[-80.62467,7.90261],[-80.62328,7.92237],[-80.61154,7.92976],[-80.60872,7.93551],[-80.60475,7.92818]]]}},{"type":"Feature","properties":{"corregimiento":"El Pájaro","distrito":"Pesé","provincia":"Herrera","bbox":[-80.60872,7.9164,-80.5469,7.98071]},"geometry":{"type":"Polygon","coordinates":[[[-80.57567,7.97898],[-80.55437,7.96183],[-80.5469,7.9605],[-80.55045,7.95134],[-80.55855,7.94733],[-80.5582,7.94014],[-80.56653,7.94415],[-80.60688,7.9164],[-80.60475,7.92818],[-80.60872,7.93551],[-80.60339,7.94432],[-80.6059,7.9478],[-80.60481,7.95203],[-80.59965,7.95597],[-80.6027,7.96004],[-80.59715,7.96695],[-80.59297,7.96753],[-80.59331,7.97193],[-80.58323,7.97652],[-80.58232,7.98071],[-80.57567,7.97898]]]}},{"type":"Feature","properties":{"corregimiento":"El Pedregoso","distrito":"Pesé","provincia":"Herrera","bbox":[-80.67819,7.89333,-80.60262,7.9581]},"geometry":{"type":"Polygon","coordinates":[[[-80.60262,7.95531],[-80.60591,7.94792],[-80.60339,7.94432],[-80.60941,7.93193],[-80.62328,7.92237],[-80.622,7.91642],[-80.62828,7.89333],[-80.64724,7.90973],[-80.66209,7.90168],[-80.65773,7.91496],[-80.66608,7.91985],[-80.67795,7.91761],[-80.67819,7.92633],[-80.67135,7.93401],[-80.66903,7.94458],[-80.66341,7.942],[-80.65956,7.94629],[-80.65231,7.9459],[-80.64826,7.95085],[-80.63983,7.94967],[-80.63625,7.95328],[-80.63054,7.95303],[-80.62749,7.9571],[-80.62163,7.9549],[-80.61444,7.9581],[-80.60892,7.95162],[-80.60262,7.95531]]]}},{"type":"Feature","properties":{"corregimiento":"El Ciruelo","distrito":"Pesé","provincia":"Herrera","bbox":[-80.72997,7.84228,-80.65773,7.94332]},"geometry":{"type":"Polygon","coordinates":[[[-80.67262,7.9329],[-80.67819,7.92633],[-80.67788,7.9175],[-80.66608,7.91985],[-80.65773,7.91496],[-80.66397,7.89699],[-80.66002,7.89232],[-80.66008,7.88704],[-80.67605,7.87316],[-80.6936,7.87336],[-80.69771,7.86653],[-80.70649,7.86939],[-80.70183,7.8609],[-80.71011,7.84228],[-80.71281,7.84259],[-80.72164,7.85338],[-80.72092,7.85575],[-80.72539,7.85824],[-80.72359,7.86109],[-80.72997,7.8727],[-80.72751,7.87813],[-80.7232,7.87875],[-80.71659,7.892],[-80.71857,7.89554],[-80.71435,7.91945],[-80.70819,7.9239],[-80.70882,7.93111],[-80.69493,7.93895],[-80.69213,7.94332],[-80.68701,7.94273],[-80.67262,7.9329]]]}}]}