{"type":"FeatureCollection","features":[{"type":"Feature","properties":{"corregimiento":"Santa María (Cabecera)","distrito":"Santa María","provincia":"Herrera","bbox":[-80.69649,8.08652,-80.62019,8.13659]},"geometry":{"type":"Polygon","coordinates":[[[-80.62019,8.09374],[-80.62633,8.08905],[-80.62663,8.09106],[-80.63646,8.09152],[-80.63836,8.09472],[-80.65238,8.09129],[-80.66406,8.09683],[-80.67335,8.09348],[-80.67872,8.09571],[-80.68664,8.08652],[-80.69649,8.09723],[-80.69437,8.10081],[-80.69116,8.10022],[-80.67951,8.13228],[-80.66551,8.12926],[-80.66467,8.12318],[-80.65014,8.13137],[-80.6433,8.1291],[-80.63309,8.13659],[-80.63501,8.13071],[-80.6463,8.12521],[-80.64769,8.11928],[-80.64539,8.11177],[-80.63206,8.10852],[-80.6202,8.09853],[-80.62019,8.09374]]]}},{"type":"Feature","properties":{"corregimiento":"Chupampa","distrito":"Santa María","provincia":"Herrera","bbox":[-80.82047,8.05382,-80.74229,8.11004]},"geometry":{"type":"Polygon","coordinates":[[[-80.74692,8.08275],[-80.75532,8.08311],[-80.76602,8.09362],[-80.76379,8.08681],[-80.76933,8.07887],[-80.77117,8.06624],[-80.77384,8.0615],[-80.77948,8.06853],[-80.78132,8.05942],[-80.77822,8.05831],[-80.78254,8.05382],[-80.7947,8.05403],[-80.80103,8.05765],[-80.80513,8.06511],[-80.81245,8.06569],[-80.82026,8.07326],[-80.81805,8.07523],[-80.82047,8.07599],[-80.82015,8.07833],[-80.8181,8.07636],[-80.81015,8.08344],[-80.8013,8.08481],[-80.7961,8.08977],[-80.79321,8.087],[-80.78241,8.08869],[-80.7849,8.09223],[-80.78038,8.09888],[-80.781,8.10404],[-80.77828,8.1018],[-80.76747,8.10484],[-80.76682,8.10195],[-80.75961,8.11004],[-80.74229,8.10936],[-80.74753,8.09619],[-80.74692,8.08275]]]}},{"type":"Feature","properties":{"corregimiento":"El Rincón","distrito":"Santa María","provincia":"Herrera","bbox":[-80.64749,8.08977,-80.5556,8.14538]},"geometry":{"type":"Polygon","coordinates":[[[-80.55671,8.1058],[-80.5556,8.09982],[-80.56726,8.09462],[-80.56771,8.09183],[-80.57956,8.0954],[-80.58608,8.08977],[-80.59125,8.09278],[-80.6047,8.09137],[-80.60738,8.09517],[-80.6112,8.09168],[-80.61648,8.09481],[-80.61967,8.0927],[-80.6202,8.09853],[-80.63206,8.10852],[-80.64539,8.11177],[-80.64749,8.12307],[-80.63501,8.13071],[-80.63309,8.13659],[-80.62962,8.13826],[-80.61416,8.14114],[-80.59804,8.13994],[-80.58948,8.14538],[-80.58656,8.14346],[-80.58727,8.13998],[-80.59777,8.13796],[-80.59861,8.13448],[-80.58443,8.13],[-80.57761,8.13848],[-80.57302,8.13248],[-80.56655,8.13295],[-80.56717,8.12973],[-80.5568,8.1214],[-80.5614,8.10977],[-80.55671,8.1058]]]}},{"type":"Feature","properties":{"corregimiento":"El Limón","distrito":"Santa María","provincia":"Herrera","bbox":[-80.78132,8.04119,-80.70983,8.09362]},"geometry":{"type":"Polygon","coordinates":[[[-80.75532,8.08311],[-80.73805,8.08179],[-80.73033,8.07253],[-80.71864,8.06706],[-80.71991,8.06531],[-80.70983,8.05847],[-80.71345,8.05819],[-80.71241,8.05425],[-80.72026,8.05306],[-80.73645,8.04119],[-80.7382,8.04499],[-80.74535,8.04451],[-80.74986,8.04895],[-80.75718,8.0481],[-80.76113,8.04412],[-80.78095,8.05288],[-80.77822,8.05831],[-80.78132,8.05942],[-80.77948,8.06853],[-80.77384,8.0615],[-80.77111,8.06638],[-80.76933,8.07887],[-80.76379,8.08681],[-80.76602,8.09362],[-80.75532,8.08311]]]}},{"type":"Feature","properties":{"corregimiento":"Los Canelos","distrito":"Santa María","provincia":"Herrera","bbox":[-80.76583,8.06706,-80.67122,8.14641]},"geometry":{"type":"Polygon","coordinates":[[[-80.6923,8.1372],[-80.67622,8.13855],[-80.67122,8.13387],[-80.67953,8.13373],[-80.69109,8.10035],[-80.69626,8.09823],[-80.68735,8.08662],[-80.6911,8.0893],[-80.70029,8.08935],[-80.70196,8.08525],[-80.70296,8.08708],[-80.70882,8.08411],[-80.71252,8.07466],[-80.71625,8.07608],[-80.71864,8.06706],[-80.73033,8.07253],[-80.73805,8.08179],[-80.74692,8.08275],[-80.74753,8.09619],[-80.74229,8.10936],[-80.76384,8.1105],[-80.76213,8.11269],[-80.76544,8.11695],[-80.76196,8.11725],[-80.76583,8.12136],[-80.76505,8.1269],[-80.75197,8.13431],[-80.75514,8.14055],[-80.75164,8.14275],[-80.75011,8.14063],[-80.74547,8.14259],[-80.7438,8.14011],[-80.74156,8.14138],[-80.74291,8.14425],[-80.73427,8.14245],[-80.73246,8.14399],[-80.73466,8.14412],[-80.73491,8.1456],[-80.73251,8.14641],[-80.73049,8.1381],[-80.72262,8.14068],[-80.707,8.13123],[-80.7051,8.13437],[-80.70381,8.13072],[-80.69992,8.13521],[-80.6951,8.13577],[-80.69409,8.1334],[-80.69094,8.13481],[-80.6923,8.1372]]]}}]}