{"type":"FeatureCollection","features":[{"type":"Feature","properties":{"corregimiento":"El Espinal","distrito":"Guararé","provincia":"Los Santos","bbox":[-80.35401,7.79604,-80.28463,7.90445]},"geometry":{"type":"Polygon","coordinates":[[[-80.32255,7.90445],[-80.29974,7.88436],[-80.28463,7.86217],[-80.28959,7.85926],[-80.28652,7.85776],[-80.28804,7.85533],[-80.29151,7.8556],[-80.2898,7.85441],[-80.29488,7.84752],[-80.29406,7.84311],[-80.2993,7.84211],[-80.29943,7.82989],[-80.33948,7.81464],[-80.342,7.81062],[-80.3374,7.79604],[-80.34177,7.79802],[-80.34437,7.7961],[-80.35401,7.82215],[-80.3449,7.83759],[-80.33016,7.84117],[-80.32517,7.85249],[-80.3299,7.86747],[-80.32584,7.8747],[-80.32568,7.88343],[-80.31975,7.88842],[-80.32293,7.89468],[-80.32045,7.90104],[-80.32255,7.90445]]]}},{"type":"Feature","properties":{"corregimiento":"Guararé (Cabecera)","distrito":"Guararé","provincia":"Los Santos","bbox":[-80.30206,7.79013,-80.25646,7.84917]},"geometry":{"type":"Polygon","coordinates":[[[-80.25893,7.82167],[-80.25646,7.81114],[-80.26319,7.80382],[-80.26386,7.7946],[-80.29047,7.79013],[-80.28399,7.80402],[-80.30016,7.81718],[-80.29953,7.8263],[-80.30206,7.82774],[-80.29935,7.83005],[-80.2993,7.84211],[-80.29415,7.84299],[-80.29295,7.84917],[-80.28521,7.84159],[-80.28609,7.83808],[-80.27973,7.83334],[-80.27877,7.82391],[-80.26722,7.82625],[-80.25893,7.82167]]]}},{"type":"Feature","properties":{"corregimiento":"La Enea","distrito":"Guararé","provincia":"Los Santos","bbox":[-80.29295,7.82167,-80.24372,7.86486]},"geometry":{"type":"Polygon","coordinates":[[[-80.24372,7.83457],[-80.25893,7.82167],[-80.26722,7.82625],[-80.27877,7.82391],[-80.27973,7.83334],[-80.28609,7.83808],[-80.28521,7.84159],[-80.29295,7.84917],[-80.29101,7.85634],[-80.2865,7.85726],[-80.28992,7.85844],[-80.28469,7.86201],[-80.28655,7.86486],[-80.27975,7.86457],[-80.26373,7.84846],[-80.24372,7.83457]]]}},{"type":"Feature","properties":{"corregimiento":"La Pasera","distrito":"Guararé","provincia":"Los Santos","bbox":[-80.34176,7.78594,-80.28406,7.82989]},"geometry":{"type":"Polygon","coordinates":[[[-80.28406,7.80441],[-80.29247,7.7861],[-80.30367,7.78594],[-80.31284,7.79195],[-80.31685,7.79013],[-80.3196,7.80478],[-80.3217,7.80207],[-80.32767,7.80264],[-80.33161,7.79558],[-80.33587,7.79531],[-80.33927,7.79809],[-80.34176,7.81277],[-80.29943,7.82989],[-80.30206,7.82774],[-80.29953,7.8263],[-80.29998,7.81683],[-80.28406,7.80441]]]}},{"type":"Feature","properties":{"corregimiento":"Perales","distrito":"Guararé","provincia":"Los Santos","bbox":[-80.36636,7.75106,-80.30891,7.80416]},"geometry":{"type":"Polygon","coordinates":[[[-80.30891,7.78831],[-80.316,7.78127],[-80.31272,7.77679],[-80.32068,7.77119],[-80.32376,7.77186],[-80.31978,7.76928],[-80.32032,7.76615],[-80.33333,7.75853],[-80.33466,7.75106],[-80.34336,7.75153],[-80.35656,7.75821],[-80.35715,7.76126],[-80.36454,7.75433],[-80.36294,7.76255],[-80.36636,7.76692],[-80.34161,7.78501],[-80.33694,7.79577],[-80.33161,7.79558],[-80.32767,7.80264],[-80.31853,7.80416],[-80.32008,7.79762],[-80.31717,7.79042],[-80.31284,7.79195],[-80.30891,7.78831]]]}},{"type":"Feature","properties":{"corregimiento":"El Macano","distrito":"Guararé","provincia":"Los Santos","bbox":[-80.43434,7.64719,-80.38374,7.71784]},"geometry":{"type":"Polygon","coordinates":[[[-80.3924,7.71492],[-80.38374,7.69559],[-80.39174,7.68673],[-80.39148,7.66429],[-80.39824,7.65607],[-80.41485,7.64789],[-80.43141,7.64719],[-80.43434,7.65995],[-80.42877,7.66618],[-80.42757,7.67638],[-80.42189,7.68369],[-80.42602,7.69293],[-80.42636,7.70782],[-80.41907,7.71116],[-80.41506,7.71784],[-80.40396,7.71346],[-80.3924,7.71492]]]}},{"type":"Feature","properties":{"corregimiento":"Las Trancas","distrito":"Guararé","provincia":"Los Santos","bbox":[-80.42592,7.69967,-80.34303,7.76126]},"geometry":{"type":"Polygon","coordinates":[[[-80.34303,7.75146],[-80.34854,7.75],[-80.34866,7.74439],[-80.35749,7.73962],[-80.35871,7.73413],[-80.36484,7.72944],[-80.36339,7.7218],[-80.3689,7.72161],[-80.37015,7.71337],[-80.37636,7.71289],[-80.3799,7.70175],[-80.38386,7.69967],[-80.3924,7.71492],[-80.40396,7.71346],[-80.42052,7.7196],[-80.41823,7.7225],[-80.42137,7.72613],[-80.41957,7.73234],[-80.42592,7.73959],[-80.42342,7.74406],[-80.41054,7.74529],[-80.40739,7.74876],[-80.40281,7.74327],[-80.38427,7.74728],[-80.37772,7.76104],[-80.36454,7.75433],[-80.35715,7.76126],[-80.35656,7.75821],[-80.34303,7.75146]]]}},{"type":"Feature","properties":{"corregimiento":"Guararé Arriba","distrito":"Guararé","provincia":"Los Santos","bbox":[-80.3697,7.7708,-80.3374,7.82215]},"geometry":{"type":"Polygon","coordinates":[[[-80.3374,7.79604],[-80.33764,7.78994],[-80.34161,7.78501],[-80.35,7.78087],[-80.35052,7.77962],[-80.36014,7.7708],[-80.35521,7.79557],[-80.36163,7.79766],[-80.3697,7.80811],[-80.36472,7.81903],[-80.35401,7.82215],[-80.34706,7.80791],[-80.34789,7.80073],[-80.34537,7.79653],[-80.3374,7.79604]]]}},{"type":"Feature","properties":{"corregimiento":"Llano Abajo","distrito":"Guararé","provincia":"Los Santos","bbox":[-80.43853,7.72668,-80.39309,7.80217]},"geometry":{"type":"Polygon","coordinates":[[[-80.39751,7.80217],[-80.40058,7.77682],[-80.40549,7.76247],[-80.39309,7.75949],[-80.39871,7.74532],[-80.40281,7.74327],[-80.40739,7.74876],[-80.41054,7.74529],[-80.42342,7.74406],[-80.42592,7.73959],[-80.41941,7.72984],[-80.42327,7.72668],[-80.43019,7.7394],[-80.4283,7.74154],[-80.43254,7.74416],[-80.43687,7.74298],[-80.43853,7.75021],[-80.43527,7.75462],[-80.43734,7.75867],[-80.43199,7.7624],[-80.43524,7.76781],[-80.4311,7.77001],[-80.42734,7.77945],[-80.42914,7.78759],[-80.42581,7.78973],[-80.41881,7.78759],[-80.41701,7.79747],[-80.41454,7.79674],[-80.41137,7.80216],[-80.40858,7.79977],[-80.39751,7.80217]]]}},{"type":"Feature","properties":{"corregimiento":"El Hato","distrito":"Guararé","provincia":"Los Santos","bbox":[-80.40549,7.74532,-80.35521,7.80474]},"geometry":{"type":"Polygon","coordinates":[[[-80.38307,7.80415],[-80.37318,7.79849],[-80.37261,7.80195],[-80.36928,7.79996],[-80.368,7.80322],[-80.36351,7.80263],[-80.36163,7.79766],[-80.35521,7.79557],[-80.3577,7.77657],[-80.3592,7.7717],[-80.36659,7.76641],[-80.36294,7.76255],[-80.36454,7.75433],[-80.37772,7.76104],[-80.38427,7.74728],[-80.39871,7.74532],[-80.39309,7.75949],[-80.40549,7.7626],[-80.40058,7.77682],[-80.39922,7.80027],[-80.39276,7.80474],[-80.3918,7.80251],[-80.38307,7.80415]]]}}]}