{"type":"FeatureCollection","features":[{"type":"Feature","properties":{"corregimiento":"Las Tablas (Cabecera)","distrito":"Las Tablas","provincia":"Los Santos","bbox":[-80.30775,7.75009,-80.25366,7.7939]},"geometry":{"type":"Polygon","coordinates":[[[-80.26976,7.77751],[-80.26499,7.77035],[-80.25366,7.76785],[-80.26253,7.76144],[-80.2602,7.75374],[-80.26391,7.75009],[-80.26647,7.75291],[-80.27003,7.75061],[-80.27555,7.75903],[-80.27533,7.75627],[-80.27905,7.75709],[-80.27757,7.76263],[-80.28725,7.77751],[-80.29705,7.77853],[-80.30025,7.78251],[-80.30462,7.78162],[-80.30775,7.78774],[-80.29276,7.78604],[-80.29047,7.79013],[-80.26676,7.7939],[-80.27287,7.78493],[-80.27013,7.78358],[-80.26976,7.77751]]]}},{"type":"Feature","properties":{"corregimiento":"El Manantial","distrito":"Las Tablas","provincia":"Los Santos","bbox":[-80.26976,7.76388,-80.19259,7.82299]},"geometry":{"type":"Polygon","coordinates":[[[-80.19259,7.78012],[-80.19691,7.77816],[-80.19659,7.77476],[-80.20117,7.776],[-80.19913,7.76836],[-80.20618,7.76963],[-80.21319,7.76388],[-80.2461,7.77059],[-80.25469,7.77542],[-80.26521,7.77068],[-80.26976,7.77751],[-80.23099,7.79805],[-80.23528,7.80729],[-80.2348,7.81321],[-80.23133,7.8192],[-80.22365,7.82299],[-80.1979,7.79688],[-80.19798,7.79041],[-80.19259,7.78012]]]}},{"type":"Feature","properties":{"corregimiento":"Las Palmitas","distrito":"Las Tablas","provincia":"Los Santos","bbox":[-80.32384,7.75037,-80.27995,7.78774]},"geometry":{"type":"Polygon","coordinates":[[[-80.30775,7.78774],[-80.30462,7.78162],[-80.30025,7.78251],[-80.29705,7.77853],[-80.28735,7.77759],[-80.27995,7.76827],[-80.28196,7.76234],[-80.28658,7.76354],[-80.29844,7.75148],[-80.30142,7.75417],[-80.31266,7.75037],[-80.31379,7.76011],[-80.32351,7.76227],[-80.3197,7.76906],[-80.32384,7.77169],[-80.31297,7.77653],[-80.31596,7.78136],[-80.30775,7.78774]]]}},{"type":"Feature","properties":{"corregimiento":"Las Tablas Abajo","distrito":"Las Tablas","provincia":"Los Santos","bbox":[-80.27134,7.77818,-80.22382,7.8353]},"geometry":{"type":"Polygon","coordinates":[[[-80.2241,7.82243],[-80.23133,7.8192],[-80.2348,7.81321],[-80.23528,7.80729],[-80.23099,7.79805],[-80.27134,7.77818],[-80.27107,7.78969],[-80.26381,7.79466],[-80.26319,7.80382],[-80.25646,7.81114],[-80.2598,7.8184],[-80.25791,7.82272],[-80.24191,7.8353],[-80.22805,7.82974],[-80.22382,7.82586],[-80.2241,7.82243]]]}},{"type":"Feature","properties":{"corregimiento":"Santo Domingo","distrito":"Las Tablas","provincia":"Los Santos","bbox":[-80.26521,7.70657,-80.16555,7.78321]},"geometry":{"type":"Polygon","coordinates":[[[-80.17089,7.76774],[-80.16555,7.74717],[-80.16806,7.74242],[-80.16565,7.73699],[-80.17448,7.73366],[-80.18382,7.7354],[-80.18227,7.73106],[-80.1863,7.73024],[-80.1875,7.7253],[-80.1888,7.72942],[-80.19897,7.72689],[-80.20545,7.73074],[-80.2233,7.72023],[-80.2264,7.72094],[-80.22813,7.71565],[-80.24117,7.71264],[-80.25189,7.70657],[-80.2607,7.72149],[-80.26123,7.72353],[-80.25443,7.72224],[-80.24589,7.72834],[-80.23722,7.74365],[-80.24816,7.7456],[-80.25025,7.74782],[-80.24836,7.75328],[-80.26233,7.76016],[-80.25366,7.76785],[-80.26521,7.77068],[-80.25627,7.77505],[-80.21289,7.7639],[-80.20618,7.76963],[-80.19913,7.76836],[-80.20117,7.776],[-80.19647,7.77484],[-80.19704,7.77795],[-80.19319,7.77801],[-80.19226,7.78321],[-80.17089,7.76774]]]}},{"type":"Feature","properties":{"corregimiento":"El Carate","distrito":"Las Tablas","provincia":"Los Santos","bbox":[-80.32994,7.70088,-80.28512,7.76227]},"geometry":{"type":"Polygon","coordinates":[[[-80.31266,7.75037],[-80.30604,7.74141],[-80.29215,7.74694],[-80.29284,7.74157],[-80.28664,7.73931],[-80.29294,7.73434],[-80.28755,7.73417],[-80.28512,7.72748],[-80.29431,7.72198],[-80.28938,7.70803],[-80.29939,7.7066],[-80.30795,7.70094],[-80.31549,7.70088],[-80.32136,7.70607],[-80.31537,7.71354],[-80.31432,7.728],[-80.32278,7.72862],[-80.32994,7.7401],[-80.32351,7.76227],[-80.31379,7.76011],[-80.31266,7.75037]]]}},{"type":"Feature","properties":{"corregimiento":"El Cocal","distrito":"Las Tablas","provincia":"Los Santos","bbox":[-80.29294,7.72176,-80.26526,7.75903]},"geometry":{"type":"Polygon","coordinates":[[[-80.26892,7.75042],[-80.26526,7.73358],[-80.27973,7.72176],[-80.28755,7.73417],[-80.29294,7.73434],[-80.28664,7.73931],[-80.29284,7.74157],[-80.29215,7.74694],[-80.28369,7.74839],[-80.28303,7.75251],[-80.27813,7.75694],[-80.27533,7.75627],[-80.27555,7.75903],[-80.26892,7.75042]]]}},{"type":"Feature","properties":{"corregimiento":"La Laja","distrito":"Las Tablas","provincia":"Los Santos","bbox":[-80.27632,7.72224,-80.23722,7.74365]},"geometry":{"type":"Polygon","coordinates":[[[-80.25443,7.72224],[-80.27632,7.72453],[-80.26526,7.73358],[-80.26631,7.74247],[-80.2557,7.73535],[-80.23722,7.74365],[-80.24614,7.72813],[-80.25443,7.72224]]]}},{"type":"Feature","properties":{"corregimiento":"La Palma","distrito":"Las Tablas","provincia":"Los Santos","bbox":[-80.21369,7.67306,-80.17565,7.7295]},"geometry":{"type":"Polygon","coordinates":[[[-80.19,7.7295],[-80.1825,7.71891],[-80.18399,7.71513],[-80.17791,7.69991],[-80.18071,7.69453],[-80.17565,7.67916],[-80.17804,7.67306],[-80.18855,7.68326],[-80.19549,7.68647],[-80.20035,7.6845],[-80.20423,7.6916],[-80.20256,7.6957],[-80.21369,7.704],[-80.20902,7.7094],[-80.20952,7.71355],[-80.20153,7.71748],[-80.20002,7.72231],[-80.20206,7.72432],[-80.19092,7.72443],[-80.19,7.7295]]]}},{"type":"Feature","properties":{"corregimiento":"La Tiza","distrito":"Las Tablas","provincia":"Los Santos","bbox":[-80.31266,7.7414,-80.27813,7.76354]},"geometry":{"type":"Polygon","coordinates":[[[-80.27813,7.75694],[-80.28385,7.74829],[-80.28909,7.7487],[-80.30562,7.7414],[-80.31266,7.75029],[-80.30142,7.75417],[-80.29844,7.75148],[-80.28658,7.76354],[-80.27813,7.76344],[-80.27813,7.75694]]]}},{"type":"Feature","properties":{"corregimiento":"Peña Blanca","distrito":"Las Tablas","provincia":"Los Santos","bbox":[-80.29431,7.70211,-80.25296,7.73118]},"geometry":{"type":"Polygon","coordinates":[[[-80.27632,7.72453],[-80.26123,7.72353],[-80.25296,7.70602],[-80.25741,7.70621],[-80.25717,7.71203],[-80.26461,7.71065],[-80.26503,7.70669],[-80.27083,7.70211],[-80.27416,7.70503],[-80.28362,7.70445],[-80.2887,7.70731],[-80.29431,7.72198],[-80.2852,7.72639],[-80.28571,7.73118],[-80.27973,7.72176],[-80.27632,7.72453]]]}},{"type":"Feature","properties":{"corregimiento":"San José","distrito":"Las Tablas","provincia":"Los Santos","bbox":[-80.28856,7.62492,-80.19092,7.73077]},"geometry":{"type":"Polygon","coordinates":[[[-80.19182,7.7285],[-80.19092,7.72443],[-80.20213,7.72426],[-80.20002,7.72231],[-80.20153,7.71748],[-80.20952,7.71355],[-80.20902,7.7094],[-80.21355,7.70521],[-80.20256,7.6957],[-80.20423,7.6916],[-80.1998,7.68161],[-80.20771,7.67579],[-80.20981,7.67055],[-80.22207,7.66797],[-80.22461,7.65426],[-80.21872,7.64287],[-80.22864,7.63591],[-80.23654,7.63703],[-80.23645,7.62492],[-80.24261,7.63043],[-80.26285,7.63036],[-80.2603,7.64279],[-80.27092,7.66535],[-80.28109,7.6775],[-80.28008,7.68003],[-80.28539,7.68347],[-80.28401,7.68498],[-80.28856,7.69129],[-80.28333,7.70097],[-80.28588,7.70312],[-80.28079,7.70571],[-80.27066,7.70214],[-80.26247,7.71192],[-80.25709,7.71202],[-80.25741,7.70621],[-80.25323,7.70584],[-80.24117,7.71264],[-80.22813,7.71565],[-80.22655,7.72084],[-80.21712,7.7232],[-80.21436,7.72685],[-80.21263,7.72526],[-80.21085,7.72885],[-80.20533,7.73077],[-80.19897,7.72689],[-80.19182,7.7285]]]}},{"type":"Feature","properties":{"corregimiento":"Sesteadero","distrito":"Las Tablas","provincia":"Los Santos","bbox":[-80.26892,7.73544,-80.23968,7.76016]},"geometry":{"type":"Polygon","coordinates":[[[-80.23968,7.74383],[-80.24631,7.73843],[-80.25646,7.73544],[-80.26631,7.74247],[-80.26892,7.75042],[-80.26647,7.75291],[-80.26389,7.75009],[-80.2602,7.75374],[-80.26233,7.76016],[-80.24836,7.75328],[-80.25025,7.74782],[-80.24816,7.7456],[-80.23968,7.74383]]]}},{"type":"Feature","properties":{"corregimiento":"Nuario","distrito":"Las Tablas","provincia":"Los Santos","bbox":[-80.38589,7.46776,-80.21614,7.57213]},"geometry":{"type":"Polygon","coordinates":[[[-80.38404,7.57213],[-80.36251,7.54527],[-80.34765,7.54135],[-80.33914,7.54405],[-80.33838,7.54993],[-80.33596,7.54613],[-80.33058,7.54631],[-80.32467,7.53963],[-80.3098,7.53293],[-80.30202,7.53954],[-80.29599,7.5394],[-80.29253,7.54522],[-80.28261,7.54755],[-80.28063,7.55163],[-80.27604,7.55101],[-80.27415,7.55554],[-80.26944,7.55447],[-80.27258,7.54983],[-80.2693,7.54996],[-80.26642,7.54454],[-80.26453,7.54735],[-80.25735,7.54738],[-80.25219,7.55252],[-80.24569,7.55191],[-80.24197,7.54848],[-80.23968,7.54983],[-80.23341,7.54202],[-80.23025,7.54355],[-80.22907,7.53797],[-80.22248,7.53929],[-80.22429,7.53516],[-80.21973,7.53149],[-80.22233,7.52779],[-80.21862,7.52702],[-80.21756,7.52441],[-80.22068,7.52276],[-80.21614,7.51919],[-80.23783,7.48149],[-80.23883,7.47538],[-80.24984,7.47541],[-80.25352,7.47792],[-80.25998,7.47469],[-80.26103,7.47748],[-80.25767,7.48025],[-80.26274,7.48644],[-80.25762,7.49211],[-80.25744,7.49836],[-80.27316,7.51112],[-80.32332,7.50896],[-80.3518,7.46776],[-80.35836,7.47343],[-80.36818,7.49328],[-80.36796,7.5013],[-80.3717,7.50674],[-80.36816,7.51115],[-80.37083,7.51489],[-80.37071,7.5242],[-80.38589,7.56268],[-80.38404,7.57213]]]}},{"type":"Feature","properties":{"corregimiento":"Bajo Corral","distrito":"Las Tablas","provincia":"Los Santos","bbox":[-80.30604,7.53137,-80.20897,7.63747]},"geometry":{"type":"Polygon","coordinates":[[[-80.26285,7.63036],[-80.24261,7.63043],[-80.23645,7.62492],[-80.24269,7.62001],[-80.23578,7.60789],[-80.23268,7.55627],[-80.21676,7.55871],[-80.21902,7.57046],[-80.20897,7.55578],[-80.21009,7.54652],[-80.21533,7.54424],[-80.21975,7.53137],[-80.22429,7.53516],[-80.22254,7.53936],[-80.22923,7.53807],[-80.23017,7.54349],[-80.23341,7.54202],[-80.23975,7.54987],[-80.24189,7.54845],[-80.24453,7.55148],[-80.25219,7.55252],[-80.25735,7.54738],[-80.26453,7.54735],[-80.26642,7.54454],[-80.2693,7.54996],[-80.27255,7.54976],[-80.27013,7.55522],[-80.27496,7.55519],[-80.2761,7.55097],[-80.28621,7.55294],[-80.28585,7.54973],[-80.28968,7.55077],[-80.28813,7.55461],[-80.29129,7.55391],[-80.29604,7.56069],[-80.30206,7.56015],[-80.30102,7.56339],[-80.30604,7.57054],[-80.30224,7.5749],[-80.29878,7.57419],[-80.28634,7.59091],[-80.29262,7.60283],[-80.28442,7.61108],[-80.29398,7.61589],[-80.29571,7.61945],[-80.29327,7.62496],[-80.28327,7.63747],[-80.27722,7.63169],[-80.27297,7.63383],[-80.26285,7.63036]]]}},{"type":"Feature","properties":{"corregimiento":"Bayano","distrito":"Las Tablas","provincia":"Los Santos","bbox":[-80.51354,7.53712,-80.35863,7.68595]},"geometry":{"type":"Polygon","coordinates":[[[-80.35863,7.68595],[-80.35977,7.66394],[-80.36511,7.66179],[-80.36862,7.66561],[-80.36303,7.65183],[-80.37307,7.64899],[-80.37764,7.64448],[-80.37485,7.63627],[-80.37916,7.63049],[-80.3746,7.62411],[-80.37693,7.62271],[-80.37296,7.60811],[-80.38193,7.61068],[-80.38145,7.60706],[-80.38714,7.60968],[-80.39679,7.60786],[-80.39171,7.59022],[-80.39764,7.58228],[-80.40237,7.58099],[-80.38398,7.57232],[-80.38589,7.56268],[-80.37601,7.53712],[-80.51354,7.56181],[-80.41485,7.64789],[-80.39824,7.65607],[-80.39148,7.66429],[-80.38996,7.66976],[-80.39207,7.67184],[-80.37786,7.67291],[-80.37234,7.68058],[-80.36596,7.67994],[-80.35863,7.68595]]]}},{"type":"Feature","properties":{"corregimiento":"El Muñóz","distrito":"Las Tablas","provincia":"Los Santos","bbox":[-80.36303,7.63615,-80.28327,7.70803]},"geometry":{"type":"Polygon","coordinates":[[[-80.28938,7.70803],[-80.28327,7.7045],[-80.28591,7.70307],[-80.28333,7.70097],[-80.28856,7.69129],[-80.28401,7.68476],[-80.30331,7.66614],[-80.31132,7.65031],[-80.33951,7.63615],[-80.36303,7.65183],[-80.36086,7.65728],[-80.34364,7.6677],[-80.34058,7.67331],[-80.34187,7.68589],[-80.33873,7.69031],[-80.33412,7.69228],[-80.32817,7.6829],[-80.32041,7.68286],[-80.3148,7.70148],[-80.30782,7.70096],[-80.29939,7.7066],[-80.28938,7.70803]]]}},{"type":"Feature","properties":{"corregimiento":"El Pedregoso","distrito":"Las Tablas","provincia":"Los Santos","bbox":[-80.3336,7.68286,-80.31432,7.72862]},"geometry":{"type":"Polygon","coordinates":[[[-80.31519,7.70096],[-80.32041,7.68286],[-80.32829,7.68299],[-80.33353,7.69004],[-80.3336,7.69798],[-80.32962,7.70656],[-80.33286,7.71],[-80.32891,7.71298],[-80.32914,7.71841],[-80.32599,7.72125],[-80.33119,7.7238],[-80.32995,7.72574],[-80.32278,7.72862],[-80.31432,7.728],[-80.31537,7.71354],[-80.32136,7.70607],[-80.31519,7.70096]]]}},{"type":"Feature","properties":{"corregimiento":"La Miel","distrito":"Las Tablas","provincia":"Los Santos","bbox":[-80.38398,7.53293,-80.27851,7.59205]},"geometry":{"type":"Polygon","coordinates":[[[-80.29855,7.57639],[-80.30608,7.57043],[-80.30102,7.56339],[-80.3019,7.55987],[-80.29599,7.56066],[-80.29129,7.55391],[-80.28813,7.55461],[-80.28941,7.55061],[-80.28482,7.54998],[-80.28553,7.55314],[-80.28122,7.55339],[-80.27851,7.55241],[-80.28261,7.54755],[-80.29253,7.54522],[-80.29599,7.5394],[-80.30202,7.53954],[-80.3098,7.53293],[-80.32467,7.53963],[-80.33058,7.54631],[-80.33596,7.54613],[-80.33838,7.54993],[-80.33914,7.54405],[-80.34765,7.54135],[-80.36251,7.54527],[-80.38398,7.57232],[-80.35945,7.57893],[-80.34045,7.5887],[-80.32989,7.58633],[-80.31993,7.59205],[-80.30586,7.58724],[-80.30289,7.5771],[-80.29855,7.57639]]]}},{"type":"Feature","properties":{"corregimiento":"Palmira","distrito":"Las Tablas","provincia":"Los Santos","bbox":[-80.36862,7.65183,-80.33864,7.71038]},"geometry":{"type":"Polygon","coordinates":[[[-80.33864,7.69036],[-80.34187,7.68589],[-80.34058,7.67331],[-80.34364,7.6677],[-80.36086,7.65728],[-80.36303,7.65183],[-80.36862,7.66561],[-80.36511,7.66179],[-80.35971,7.66406],[-80.36002,7.68131],[-80.35559,7.69192],[-80.35851,7.70331],[-80.35577,7.70838],[-80.35071,7.71038],[-80.34439,7.70467],[-80.33864,7.69036]]]}},{"type":"Feature","properties":{"corregimiento":"Río Hondo","distrito":"Las Tablas","provincia":"Los Santos","bbox":[-80.39207,7.67071,-80.32061,7.76581]},"geometry":{"type":"Polygon","coordinates":[[[-80.32061,7.76581],[-80.32475,7.76131],[-80.32426,7.7561],[-80.32944,7.74614],[-80.32994,7.7401],[-80.32278,7.72862],[-80.33115,7.72445],[-80.32599,7.72125],[-80.32914,7.71841],[-80.32891,7.71298],[-80.33286,7.71],[-80.32962,7.70656],[-80.33363,7.69785],[-80.33275,7.6907],[-80.34008,7.69106],[-80.34405,7.70421],[-80.35071,7.71038],[-80.35832,7.70408],[-80.35563,7.69147],[-80.36288,7.68172],[-80.37234,7.68058],[-80.37709,7.67697],[-80.37722,7.67329],[-80.38309,7.67071],[-80.39207,7.67184],[-80.38987,7.67627],[-80.39164,7.68701],[-80.38374,7.69559],[-80.38321,7.70141],[-80.3799,7.70175],[-80.37636,7.71289],[-80.37038,7.71314],[-80.36893,7.72157],[-80.36339,7.7218],[-80.36484,7.72944],[-80.35871,7.73413],[-80.35749,7.73962],[-80.34866,7.74439],[-80.34843,7.75008],[-80.34454,7.7492],[-80.34122,7.75245],[-80.33837,7.74994],[-80.33461,7.7511],[-80.33333,7.75853],[-80.32061,7.76581]]]}},{"type":"Feature","properties":{"corregimiento":"San Miguel","distrito":"Las Tablas","provincia":"Los Santos","bbox":[-80.29427,7.62496,-80.2603,7.6712]},"geometry":{"type":"Polygon","coordinates":[[[-80.26285,7.63036],[-80.27297,7.63383],[-80.27722,7.63169],[-80.28327,7.63747],[-80.29327,7.62496],[-80.29427,7.63429],[-80.2902,7.64784],[-80.29193,7.65296],[-80.28599,7.65562],[-80.28698,7.66038],[-80.27723,7.6643],[-80.2781,7.66813],[-80.27488,7.6712],[-80.2603,7.64279],[-80.26285,7.63036]]]}},{"type":"Feature","properties":{"corregimiento":"Valle Rico","distrito":"Las Tablas","provincia":"Los Santos","bbox":[-80.40237,7.57232,-80.32049,7.65183]},"geometry":{"type":"Polygon","coordinates":[[[-80.33951,7.63615],[-80.34373,7.63121],[-80.34217,7.61844],[-80.32768,7.61116],[-80.33026,7.60869],[-80.32299,7.60155],[-80.32563,7.59657],[-80.32049,7.5956],[-80.32451,7.58822],[-80.33121,7.58626],[-80.33923,7.58904],[-80.35945,7.57893],[-80.38398,7.57232],[-80.40237,7.58099],[-80.39764,7.58228],[-80.39171,7.59022],[-80.39679,7.60786],[-80.38714,7.60968],[-80.38145,7.60706],[-80.38193,7.61068],[-80.37296,7.60811],[-80.37693,7.62271],[-80.3746,7.62411],[-80.37916,7.63049],[-80.37487,7.6362],[-80.37766,7.64415],[-80.37592,7.64658],[-80.36303,7.65183],[-80.33951,7.63615]]]}},{"type":"Feature","properties":{"corregimiento":"Vallerriquito","distrito":"Las Tablas","provincia":"Los Santos","bbox":[-80.34371,7.57631,-80.27488,7.68349]},"geometry":{"type":"Polygon","coordinates":[[[-80.27488,7.6712],[-80.2781,7.66813],[-80.27723,7.6643],[-80.28698,7.66038],[-80.28599,7.65562],[-80.29202,7.6527],[-80.29056,7.64147],[-80.29425,7.63449],[-80.29327,7.62496],[-80.2957,7.61927],[-80.28442,7.61108],[-80.29262,7.60283],[-80.28634,7.59091],[-80.29649,7.57831],[-80.30201,7.57631],[-80.30586,7.58724],[-80.31028,7.58754],[-80.31383,7.59171],[-80.32362,7.59185],[-80.32049,7.5956],[-80.32563,7.59657],[-80.32299,7.60155],[-80.33026,7.60869],[-80.32768,7.61116],[-80.33329,7.61559],[-80.34087,7.61616],[-80.34371,7.63134],[-80.34172,7.63546],[-80.31122,7.65039],[-80.30331,7.66614],[-80.28605,7.68349],[-80.28008,7.68003],[-80.28109,7.6775],[-80.27488,7.6712]]]}}]}