{"type":"FeatureCollection","features":[{"type":"Feature","properties":{"corregimiento":"El Ejido","distrito":"Los Santos","provincia":"Los Santos","bbox":[-80.40501,7.89491,-80.33863,7.93173]},"geometry":{"type":"Polygon","coordinates":[[[-80.33863,7.91172],[-80.35123,7.91658],[-80.35356,7.91188],[-80.34793,7.90426],[-80.34961,7.90101],[-80.35505,7.90113],[-80.35849,7.90505],[-80.38311,7.89491],[-80.38783,7.89598],[-80.3909,7.90175],[-80.40386,7.91082],[-80.40501,7.91489],[-80.39892,7.91765],[-80.40263,7.93109],[-80.38898,7.92268],[-80.38511,7.92472],[-80.38559,7.93084],[-80.38243,7.93173],[-80.37675,7.92246],[-80.35184,7.92432],[-80.34032,7.91598],[-80.33863,7.91172]]]}},{"type":"Feature","properties":{"corregimiento":"La Espigadilla","distrito":"Los Santos","provincia":"Los Santos","bbox":[-80.43269,7.85201,-80.35512,7.91414]},"geometry":{"type":"Polygon","coordinates":[[[-80.35512,7.90119],[-80.3669,7.89826],[-80.36739,7.89182],[-80.37478,7.88052],[-80.36443,7.86496],[-80.37158,7.86235],[-80.3718,7.85586],[-80.375,7.85201],[-80.38571,7.85407],[-80.4002,7.87306],[-80.40318,7.86581],[-80.42707,7.86096],[-80.43124,7.86226],[-80.43269,7.87815],[-80.42717,7.89239],[-80.41976,7.89256],[-80.41712,7.89798],[-80.41145,7.90004],[-80.41062,7.90659],[-80.40563,7.90882],[-80.40514,7.91414],[-80.38566,7.89534],[-80.35849,7.90505],[-80.35512,7.90119]]]}},{"type":"Feature","properties":{"corregimiento":"Los Ángeles","distrito":"Los Santos","provincia":"Los Santos","bbox":[-80.37478,7.86504,-80.31975,7.91645]},"geometry":{"type":"Polygon","coordinates":[[[-80.33863,7.91172],[-80.32937,7.90404],[-80.3279,7.90872],[-80.3251,7.90847],[-80.32047,7.90129],[-80.32296,7.89492],[-80.31975,7.88842],[-80.32574,7.8833],[-80.32792,7.86923],[-80.33185,7.86504],[-80.34197,7.86644],[-80.34923,7.88358],[-80.34954,7.87469],[-80.35648,7.87499],[-80.36483,7.86511],[-80.37478,7.88052],[-80.36732,7.89199],[-80.36708,7.89803],[-80.34862,7.90188],[-80.35356,7.91188],[-80.35159,7.91645],[-80.33863,7.91172]]]}},{"type":"Feature","properties":{"corregimiento":"Sabana Grande","distrito":"Los Santos","provincia":"Los Santos","bbox":[-80.39711,7.7985,-80.32517,7.88358]},"geometry":{"type":"Polygon","coordinates":[[[-80.32991,7.86668],[-80.32517,7.85249],[-80.33016,7.84117],[-80.34471,7.83773],[-80.35265,7.82283],[-80.36472,7.81903],[-80.3697,7.80811],[-80.36663,7.80302],[-80.36822,7.80047],[-80.37252,7.80199],[-80.37326,7.7985],[-80.38445,7.80464],[-80.38529,7.80926],[-80.3943,7.81848],[-80.39239,7.82575],[-80.38514,7.83134],[-80.38748,7.83636],[-80.38471,7.84371],[-80.38026,7.84255],[-80.38504,7.84522],[-80.3886,7.84448],[-80.39711,7.85115],[-80.38571,7.85407],[-80.375,7.85201],[-80.3718,7.85586],[-80.37158,7.86235],[-80.36484,7.86436],[-80.35641,7.87503],[-80.34954,7.87469],[-80.34923,7.88358],[-80.34199,7.86645],[-80.32991,7.86668]]]}},{"type":"Feature","properties":{"corregimiento":"Santa Ana","distrito":"Los Santos","provincia":"Los Santos","bbox":[-80.40206,7.90284,-80.31812,8.00442]},"geometry":{"type":"Polygon","coordinates":[[[-80.36231,8.00086],[-80.3523,7.98094],[-80.34768,7.9794],[-80.33637,7.96694],[-80.33924,7.96334],[-80.32413,7.93256],[-80.31812,7.90284],[-80.32608,7.90884],[-80.32958,7.90411],[-80.35184,7.92432],[-80.3787,7.92308],[-80.38243,7.93173],[-80.38558,7.93081],[-80.3905,7.94587],[-80.40187,7.94628],[-80.39787,7.95269],[-80.39817,7.96347],[-80.39272,7.97121],[-80.38927,7.97183],[-80.39419,7.97412],[-80.39181,7.97634],[-80.3941,7.97818],[-80.39572,7.97532],[-80.40121,7.97808],[-80.40206,7.98683],[-80.398,7.98756],[-80.40189,7.9928],[-80.39835,7.9928],[-80.39428,7.98752],[-80.39539,7.9933],[-80.39053,7.99274],[-80.37491,8.00442],[-80.36231,8.00086]]]}},{"type":"Feature","properties":{"corregimiento":"La Villa de Los Santos (Cabecera)","distrito":"Los Santos","provincia":"Los Santos","bbox":[-80.51728,7.84991,-80.38511,7.96002]},"geometry":{"type":"Polygon","coordinates":[[[-80.3905,7.94587],[-80.38511,7.92472],[-80.38898,7.92268],[-80.40263,7.93109],[-80.39892,7.91765],[-80.40514,7.91414],[-80.41482,7.92196],[-80.42009,7.91895],[-80.42014,7.93526],[-80.43423,7.92057],[-80.43669,7.91105],[-80.44421,7.90643],[-80.43585,7.89692],[-80.42717,7.89239],[-80.4327,7.87808],[-80.43129,7.86241],[-80.42707,7.86096],[-80.432,7.85455],[-80.44451,7.85552],[-80.4879,7.84991],[-80.50407,7.85961],[-80.51728,7.87274],[-80.50996,7.88762],[-80.50229,7.89135],[-80.49726,7.89064],[-80.48563,7.90294],[-80.48386,7.90829],[-80.47961,7.91001],[-80.47875,7.91498],[-80.47452,7.91609],[-80.46776,7.9287],[-80.45993,7.93082],[-80.45927,7.94542],[-80.44902,7.93625],[-80.44372,7.93801],[-80.44281,7.9414],[-80.43584,7.93898],[-80.43403,7.94208],[-80.42491,7.94341],[-80.42321,7.93978],[-80.41855,7.94411],[-80.41771,7.94945],[-80.40387,7.95308],[-80.40505,7.9589],[-80.39813,7.96002],[-80.39837,7.95068],[-80.40187,7.94628],[-80.3905,7.94587]]]}},{"type":"Feature","properties":{"corregimiento":"Las Cruces","distrito":"Los Santos","provincia":"Los Santos","bbox":[-80.48189,7.74707,-80.41036,7.85542]},"geometry":{"type":"Polygon","coordinates":[[[-80.432,7.85455],[-80.4272,7.8508],[-80.42615,7.84209],[-80.41756,7.84151],[-80.41187,7.82089],[-80.4142,7.80984],[-80.41036,7.80232],[-80.41454,7.79674],[-80.41701,7.79747],[-80.41881,7.78759],[-80.42581,7.78973],[-80.4291,7.78767],[-80.42731,7.77956],[-80.4311,7.77001],[-80.43532,7.76755],[-80.43199,7.7624],[-80.43752,7.75824],[-80.43526,7.75473],[-80.43851,7.75071],[-80.43732,7.74707],[-80.48189,7.77489],[-80.46944,7.77938],[-80.46804,7.78363],[-80.46303,7.78138],[-80.44762,7.78835],[-80.44711,7.79182],[-80.44297,7.79396],[-80.44886,7.79546],[-80.44878,7.81947],[-80.46051,7.82617],[-80.46564,7.83267],[-80.46183,7.84127],[-80.45259,7.84309],[-80.4447,7.85542],[-80.432,7.85455]]]}},{"type":"Feature","properties":{"corregimiento":"Tres Quebradas","distrito":"Los Santos","provincia":"Los Santos","bbox":[-80.432,7.82686,-80.38026,7.87306]},"geometry":{"type":"Polygon","coordinates":[[[-80.38571,7.85407],[-80.39711,7.85115],[-80.3886,7.84448],[-80.38504,7.84522],[-80.38026,7.84255],[-80.38679,7.84426],[-80.40698,7.83808],[-80.40661,7.82884],[-80.41269,7.82686],[-80.41762,7.84164],[-80.42615,7.84209],[-80.4272,7.8508],[-80.432,7.85455],[-80.42561,7.86165],[-80.40318,7.86581],[-80.4002,7.87306],[-80.38571,7.85407]]]}},{"type":"Feature","properties":{"corregimiento":"Agua Buena","distrito":"Los Santos","provincia":"Los Santos","bbox":[-80.4142,7.79983,-80.38307,7.84371]},"geometry":{"type":"Polygon","coordinates":[[[-80.38471,7.84371],[-80.38748,7.83636],[-80.38514,7.83134],[-80.39239,7.82575],[-80.3943,7.81848],[-80.38307,7.80415],[-80.3918,7.80251],[-80.39276,7.80474],[-80.40903,7.79983],[-80.4142,7.81131],[-80.41269,7.82686],[-80.40661,7.82884],[-80.40713,7.83789],[-80.38471,7.84371]]]}},{"type":"Feature","properties":{"corregimiento":"Villa Lourdes","distrito":"Los Santos","provincia":"Los Santos","bbox":[-80.50501,7.77489,-80.4429,7.85552]},"geometry":{"type":"Polygon","coordinates":[[[-80.48189,7.77489],[-80.49625,7.7867],[-80.50501,7.78822],[-80.49123,7.80263],[-80.48205,7.80185],[-80.48259,7.81592],[-80.47275,7.81553],[-80.47548,7.81939],[-80.47526,7.83094],[-80.48117,7.83436],[-80.47528,7.84189],[-80.47631,7.85101],[-80.44451,7.85552],[-80.45259,7.84309],[-80.46183,7.84127],[-80.46568,7.83243],[-80.46051,7.82617],[-80.44878,7.81947],[-80.44886,7.79546],[-80.4429,7.7941],[-80.44711,7.79182],[-80.44762,7.78835],[-80.46303,7.78138],[-80.46804,7.78363],[-80.46944,7.77938],[-80.48189,7.77489]]]}},{"type":"Feature","properties":{"corregimiento":"La Colorada","distrito":"Los Santos","provincia":"Los Santos","bbox":[-80.59547,7.81071,-80.52228,7.85929]},"geometry":{"type":"Polygon","coordinates":[[[-80.56106,7.81305],[-80.56513,7.81565],[-80.58538,7.81071],[-80.58075,7.81861],[-80.59123,7.81494],[-80.59086,7.81957],[-80.59547,7.82466],[-80.5912,7.82532],[-80.5909,7.8292],[-80.58767,7.82816],[-80.58429,7.83711],[-80.57909,7.84094],[-80.56779,7.83796],[-80.56902,7.84445],[-80.55773,7.8462],[-80.55642,7.85427],[-80.55148,7.85317],[-80.54918,7.84882],[-80.54113,7.85055],[-80.53956,7.85283],[-80.54112,7.85433],[-80.54059,7.85821],[-80.54013,7.85929],[-80.53603,7.85621],[-80.53796,7.85193],[-80.53357,7.84688],[-80.52228,7.84636],[-80.52456,7.84464],[-80.52392,7.83494],[-80.5273,7.83535],[-80.53009,7.83014],[-80.53272,7.83202],[-80.53291,7.82879],[-80.54085,7.8248],[-80.54231,7.82127],[-80.54677,7.82302],[-80.55216,7.8194],[-80.55652,7.8204],[-80.56106,7.81305]]]}},{"type":"Feature","properties":{"corregimiento":"Los Olivos","distrito":"Los Santos","provincia":"Los Santos","bbox":[-80.53204,7.87274,-80.45961,7.94829]},"geometry":{"type":"Polygon","coordinates":[[[-80.45961,7.93316],[-80.46076,7.93022],[-80.46776,7.9287],[-80.47452,7.91609],[-80.47875,7.91498],[-80.47961,7.91001],[-80.48386,7.90829],[-80.48563,7.90294],[-80.49726,7.89064],[-80.50229,7.89135],[-80.50996,7.88762],[-80.51728,7.87274],[-80.53191,7.87698],[-80.53204,7.88922],[-80.52875,7.8982],[-80.5218,7.89539],[-80.52109,7.90203],[-80.52501,7.90462],[-80.52243,7.91284],[-80.51346,7.91667],[-80.50811,7.92343],[-80.50338,7.92331],[-80.50452,7.92853],[-80.50028,7.93341],[-80.48939,7.93684],[-80.47975,7.94723],[-80.47257,7.94829],[-80.46511,7.94327],[-80.46306,7.93331],[-80.45961,7.93316]]]}},{"type":"Feature","properties":{"corregimiento":"El Guásimo","distrito":"Los Santos","provincia":"Los Santos","bbox":[-80.56106,7.79098,-80.4879,7.87698]},"geometry":{"type":"Polygon","coordinates":[[[-80.51728,7.87274],[-80.50407,7.85961],[-80.4879,7.84991],[-80.49993,7.83953],[-80.51011,7.84334],[-80.50871,7.8386],[-80.51571,7.83346],[-80.51132,7.81916],[-80.51791,7.79098],[-80.54669,7.79717],[-80.56106,7.81305],[-80.55652,7.8204],[-80.55216,7.8194],[-80.54677,7.82302],[-80.54231,7.82127],[-80.54085,7.8248],[-80.53291,7.82879],[-80.53272,7.83202],[-80.53009,7.83014],[-80.5273,7.83535],[-80.52361,7.83535],[-80.52456,7.84464],[-80.52224,7.84631],[-80.53357,7.84688],[-80.53796,7.85193],[-80.53603,7.85621],[-80.54017,7.85918],[-80.53616,7.86221],[-80.53726,7.87028],[-80.53191,7.87698],[-80.51728,7.87274]]]}},{"type":"Feature","properties":{"corregimiento":"Las Guabas","distrito":"Los Santos","provincia":"Los Santos","bbox":[-80.51791,7.78822,-80.47275,7.85283]},"geometry":{"type":"Polygon","coordinates":[[[-80.50501,7.78822],[-80.51791,7.79098],[-80.51132,7.81916],[-80.51571,7.83346],[-80.50871,7.8386],[-80.51011,7.84334],[-80.49993,7.83953],[-80.4879,7.84991],[-80.47546,7.85283],[-80.47528,7.84189],[-80.48117,7.83436],[-80.47526,7.83094],[-80.47548,7.81939],[-80.47275,7.81553],[-80.48259,7.81592],[-80.48205,7.80185],[-80.49123,7.80263],[-80.50501,7.78822]]]}},{"type":"Feature","properties":{"corregimiento":"Llano Largo","distrito":"Los Santos","provincia":"Los Santos","bbox":[-80.44422,7.89256,-80.40514,7.93526]},"geometry":{"type":"Polygon","coordinates":[[[-80.40514,7.91414],[-80.40563,7.90882],[-80.41062,7.90659],[-80.41123,7.9003],[-80.41712,7.89798],[-80.41976,7.89256],[-80.43048,7.89269],[-80.44422,7.90548],[-80.43669,7.91105],[-80.43423,7.92057],[-80.42014,7.93526],[-80.42009,7.91895],[-80.41482,7.92196],[-80.40514,7.91414]]]}}]}