{"type":"FeatureCollection","features":[{"type":"Feature","properties":{"corregimiento":"Mogollón","distrito":"Macaracas","provincia":"Los Santos","bbox":[-80.56239,7.55308,-80.41485,7.67167]},"geometry":{"type":"Polygon","coordinates":[[[-80.46305,7.65917],[-80.43485,7.66101],[-80.43141,7.64719],[-80.41485,7.64789],[-80.51354,7.56181],[-80.56239,7.55308],[-80.55702,7.56053],[-80.5372,7.56408],[-80.53244,7.56827],[-80.5304,7.5749],[-80.52363,7.57891],[-80.51793,7.57746],[-80.50892,7.58094],[-80.50949,7.58617],[-80.50615,7.59181],[-80.51052,7.59655],[-80.51134,7.60818],[-80.51467,7.61305],[-80.50591,7.62575],[-80.49819,7.62941],[-80.48883,7.61407],[-80.48406,7.61219],[-80.48358,7.6218],[-80.47787,7.6297],[-80.48785,7.65659],[-80.48726,7.67167],[-80.48198,7.66422],[-80.46305,7.65917]]]}},{"type":"Feature","properties":{"corregimiento":"Bahía Honda","distrito":"Macaracas","provincia":"Los Santos","bbox":[-80.48916,7.68417,-80.41586,7.74707]},"geometry":{"type":"Polygon","coordinates":[[[-80.43014,7.7393],[-80.41823,7.7228],[-80.4205,7.71956],[-80.41678,7.71966],[-80.41586,7.71586],[-80.4265,7.70768],[-80.4263,7.70178],[-80.43696,7.69038],[-80.43693,7.68588],[-80.4407,7.68417],[-80.45524,7.68516],[-80.45942,7.69269],[-80.46722,7.69626],[-80.47684,7.70659],[-80.48382,7.7088],[-80.48916,7.71629],[-80.47322,7.71956],[-80.46498,7.71705],[-80.46879,7.72436],[-80.45617,7.72962],[-80.45108,7.74341],[-80.44327,7.74269],[-80.43732,7.74707],[-80.43679,7.74291],[-80.43254,7.74416],[-80.42833,7.74159],[-80.43014,7.7393]]]}},{"type":"Feature","properties":{"corregimiento":"Bajos de Güera","distrito":"Macaracas","provincia":"Los Santos","bbox":[-80.71923,7.54016,-80.53563,7.61391]},"geometry":{"type":"Polygon","coordinates":[[[-80.53563,7.56766],[-80.53713,7.56414],[-80.54351,7.56153],[-80.55194,7.56261],[-80.55884,7.55954],[-80.56239,7.55308],[-80.62883,7.54205],[-80.71923,7.54016],[-80.66567,7.60166],[-80.66138,7.60138],[-80.66144,7.59801],[-80.65491,7.59134],[-80.64493,7.58741],[-80.64092,7.5926],[-80.61943,7.60565],[-80.61222,7.606],[-80.61145,7.61182],[-80.60794,7.61391],[-80.58865,7.60305],[-80.57112,7.60131],[-80.55817,7.58305],[-80.54817,7.58064],[-80.5432,7.58433],[-80.54135,7.57799],[-80.54331,7.57491],[-80.53563,7.56766]]]}},{"type":"Feature","properties":{"corregimiento":"Espino Amarillo","distrito":"Macaracas","provincia":"Los Santos","bbox":[-80.50342,7.65917,-80.42189,7.71629]},"geometry":{"type":"Polygon","coordinates":[[[-80.48916,7.71629],[-80.48382,7.7088],[-80.47278,7.70379],[-80.46722,7.69626],[-80.46259,7.69558],[-80.45459,7.68487],[-80.43798,7.68475],[-80.43696,7.69038],[-80.42645,7.70163],[-80.42189,7.68369],[-80.42754,7.67644],[-80.42939,7.6653],[-80.43391,7.66075],[-80.46305,7.65917],[-80.46688,7.66818],[-80.4736,7.6729],[-80.47973,7.67572],[-80.48722,7.67489],[-80.50342,7.70001],[-80.48916,7.71629]]]}},{"type":"Feature","properties":{"corregimiento":"La Mesa","distrito":"Macaracas","provincia":"Los Santos","bbox":[-80.66567,7.58741,-80.57724,7.68764]},"geometry":{"type":"Polygon","coordinates":[[[-80.58508,7.68764],[-80.57769,7.68394],[-80.5835,7.67813],[-80.57724,7.67489],[-80.57804,7.66569],[-80.59208,7.64651],[-80.59222,7.63818],[-80.60441,7.62452],[-80.61213,7.60609],[-80.61943,7.60565],[-80.64092,7.5926],[-80.64493,7.58741],[-80.65491,7.59134],[-80.66144,7.59801],[-80.66138,7.60138],[-80.66567,7.60166],[-80.62951,7.66019],[-80.6308,7.66789],[-80.62316,7.66933],[-80.61931,7.67673],[-80.61354,7.67602],[-80.605,7.68005],[-80.59984,7.67488],[-80.5943,7.67525],[-80.59335,7.68577],[-80.58508,7.68764]]]}},{"type":"Feature","properties":{"corregimiento":"Las Palmas","distrito":"Macaracas","provincia":"Los Santos","bbox":[-80.53529,7.61219,-80.46305,7.73758]},"geometry":{"type":"Polygon","coordinates":[[[-80.51146,7.72971],[-80.50214,7.72246],[-80.4894,7.71638],[-80.50342,7.70001],[-80.49643,7.68721],[-80.48722,7.67489],[-80.47931,7.67563],[-80.46688,7.66818],[-80.46305,7.65917],[-80.48189,7.66417],[-80.48795,7.67053],[-80.48785,7.65659],[-80.47787,7.6297],[-80.48358,7.6218],[-80.48406,7.61219],[-80.48883,7.61407],[-80.49819,7.62941],[-80.5069,7.62488],[-80.51059,7.63269],[-80.51203,7.65304],[-80.51935,7.65348],[-80.51684,7.66224],[-80.51296,7.66572],[-80.51826,7.66582],[-80.52995,7.68191],[-80.5223,7.69055],[-80.52089,7.69812],[-80.53451,7.71993],[-80.53529,7.72566],[-80.53214,7.72651],[-80.53405,7.73022],[-80.53121,7.73758],[-80.51727,7.72356],[-80.51157,7.72646],[-80.51146,7.72971]]]}},{"type":"Feature","properties":{"corregimiento":"Llano de Piedra","distrito":"Macaracas","provincia":"Los Santos","bbox":[-80.60831,7.56766,-80.50614,7.7115]},"geometry":{"type":"Polygon","coordinates":[[[-80.52974,7.68319],[-80.51826,7.66582],[-80.51296,7.66572],[-80.51684,7.66224],[-80.51935,7.65348],[-80.51206,7.65311],[-80.51341,7.65002],[-80.50968,7.6436],[-80.51059,7.63269],[-80.5069,7.62488],[-80.51467,7.61293],[-80.51134,7.60818],[-80.51052,7.59655],[-80.50614,7.5916],[-80.50949,7.58617],[-80.50899,7.58088],[-80.51793,7.57746],[-80.52363,7.57891],[-80.53563,7.56766],[-80.54331,7.57491],[-80.54135,7.57799],[-80.5432,7.58433],[-80.54817,7.58064],[-80.55817,7.58305],[-80.57112,7.60131],[-80.58865,7.60305],[-80.60831,7.61549],[-80.60473,7.61911],[-80.60441,7.62452],[-80.59222,7.63818],[-80.59213,7.6464],[-80.58719,7.65118],[-80.58623,7.65669],[-80.58352,7.65697],[-80.58137,7.66418],[-80.57804,7.66569],[-80.57724,7.67489],[-80.58243,7.67646],[-80.5832,7.6808],[-80.58,7.68041],[-80.57764,7.68409],[-80.57061,7.68129],[-80.57103,7.69226],[-80.56115,7.70497],[-80.55666,7.70647],[-80.55284,7.70136],[-80.55053,7.70589],[-80.54008,7.7115],[-80.52974,7.68319]]]}},{"type":"Feature","properties":{"corregimiento":"Macaracas (Cabecera)","distrito":"Macaracas","provincia":"Los Santos","bbox":[-80.58002,7.68129,-80.48266,7.75896]},"geometry":{"type":"Polygon","coordinates":[[[-80.50322,7.72552],[-80.51146,7.72971],[-80.51157,7.72646],[-80.51727,7.72356],[-80.53121,7.73758],[-80.53405,7.73022],[-80.53214,7.72651],[-80.53529,7.72566],[-80.53451,7.71993],[-80.52089,7.69812],[-80.5223,7.69055],[-80.52883,7.68332],[-80.54008,7.7115],[-80.55053,7.70589],[-80.55284,7.70136],[-80.55666,7.70647],[-80.56115,7.70497],[-80.57103,7.69226],[-80.57061,7.68129],[-80.58002,7.68454],[-80.57071,7.69964],[-80.56965,7.71029],[-80.56287,7.71077],[-80.56174,7.72037],[-80.55751,7.72727],[-80.55945,7.74171],[-80.56386,7.74405],[-80.5674,7.75265],[-80.55696,7.7489],[-80.54726,7.7538],[-80.5391,7.75426],[-80.53516,7.75319],[-80.5313,7.7467],[-80.52179,7.75375],[-80.51472,7.75445],[-80.51109,7.75896],[-80.50368,7.75765],[-80.49696,7.75114],[-80.48973,7.74883],[-80.48885,7.74386],[-80.48343,7.7421],[-80.48266,7.73343],[-80.49048,7.7316],[-80.49424,7.72657],[-80.50322,7.72552]]]}},{"type":"Feature","properties":{"corregimiento":"Corozal","distrito":"Macaracas","provincia":"Los Santos","bbox":[-80.51112,7.71629,-80.43732,7.77651]},"geometry":{"type":"Polygon","coordinates":[[[-80.4841,7.77651],[-80.43732,7.74707],[-80.44327,7.74269],[-80.45108,7.74341],[-80.45617,7.72962],[-80.46879,7.72436],[-80.46498,7.71705],[-80.47322,7.71956],[-80.48916,7.71629],[-80.50214,7.72246],[-80.50322,7.72552],[-80.49424,7.72657],[-80.49048,7.7316],[-80.48272,7.73336],[-80.48343,7.7421],[-80.48885,7.74386],[-80.48973,7.74883],[-80.49696,7.75114],[-80.50361,7.75761],[-80.51112,7.75838],[-80.50185,7.77135],[-80.4841,7.77651]]]}},{"type":"Feature","properties":{"corregimiento":"Chupa","distrito":"Macaracas","provincia":"Los Santos","bbox":[-80.58932,7.7489,-80.54793,7.81565]},"geometry":{"type":"Polygon","coordinates":[[[-80.56106,7.81305],[-80.56005,7.79782],[-80.55591,7.79277],[-80.55829,7.77493],[-80.5554,7.77336],[-80.55604,7.768],[-80.55144,7.76523],[-80.55335,7.76155],[-80.55081,7.75482],[-80.54793,7.75344],[-80.55696,7.7489],[-80.5674,7.75265],[-80.56728,7.75797],[-80.56359,7.76106],[-80.56594,7.76352],[-80.57051,7.76379],[-80.57026,7.76082],[-80.5733,7.75972],[-80.57251,7.76878],[-80.5752,7.77308],[-80.58165,7.77384],[-80.58238,7.77956],[-80.58819,7.78724],[-80.58477,7.79116],[-80.58932,7.79419],[-80.5872,7.79667],[-80.58899,7.80118],[-80.57975,7.80764],[-80.58538,7.81071],[-80.56513,7.81565],[-80.56106,7.81305]]]}},{"type":"Feature","properties":{"corregimiento":"El Cedro","distrito":"Macaracas","provincia":"Los Santos","bbox":[-80.56106,7.7467,-80.4841,7.81305]},"geometry":{"type":"Polygon","coordinates":[[[-80.54669,7.79717],[-80.49625,7.7867],[-80.4841,7.77651],[-80.50193,7.77131],[-80.51454,7.75457],[-80.52179,7.75375],[-80.5313,7.7467],[-80.53541,7.75335],[-80.55058,7.7545],[-80.55335,7.76155],[-80.55144,7.76523],[-80.55604,7.768],[-80.5554,7.77336],[-80.55829,7.77493],[-80.55591,7.79277],[-80.56005,7.79782],[-80.56106,7.81305],[-80.54669,7.79717]]]}}]}