{"type":"FeatureCollection","features":[{"type":"Feature","properties":{"corregimiento":"Pedasí (Cabecera)","distrito":"Pedasí","provincia":"Los Santos","bbox":[-80.12139,7.44077,-79.99288,7.56617]},"geometry":{"type":"Polygon","coordinates":[[[-80.02656,7.56617],[-80.00691,7.54528],[-80.00301,7.52915],[-79.99762,7.52466],[-79.99288,7.51455],[-80.0023,7.50168],[-79.99786,7.48206],[-80.00268,7.47478],[-79.9991,7.47447],[-80.00018,7.47269],[-79.99845,7.47445],[-79.99822,7.47029],[-80.01356,7.46009],[-80.01323,7.45741],[-80.01706,7.45889],[-80.02444,7.45626],[-80.03095,7.44968],[-80.05552,7.45333],[-80.0661,7.44967],[-80.06982,7.4448],[-80.06904,7.44136],[-80.07918,7.44077],[-80.0807,7.44544],[-80.08738,7.44896],[-80.0861,7.45417],[-80.08999,7.45835],[-80.10808,7.46864],[-80.10787,7.47365],[-80.11381,7.47781],[-80.12139,7.48989],[-80.11071,7.48973],[-80.10726,7.49191],[-80.10543,7.50051],[-80.08044,7.51083],[-80.08089,7.54045],[-80.0681,7.54433],[-80.0623,7.54332],[-80.05974,7.54661],[-80.06162,7.55412],[-80.0571,7.55876],[-80.04911,7.54755],[-80.04414,7.54697],[-80.03282,7.55421],[-80.03172,7.56146],[-80.02526,7.56225],[-80.0282,7.56435],[-80.02656,7.56617]]]}},{"type":"Feature","properties":{"corregimiento":"Los Asientos","distrito":"Pedasí","provincia":"Los Santos","bbox":[-80.17127,7.42905,-80.07828,7.5768]},"geometry":{"type":"Polygon","coordinates":[[[-80.09053,7.56407],[-80.08942,7.5577],[-80.09347,7.55645],[-80.0939,7.55236],[-80.1008,7.54704],[-80.09787,7.54301],[-80.08116,7.54014],[-80.08044,7.51083],[-80.10543,7.50051],[-80.10726,7.49191],[-80.11071,7.48973],[-80.12139,7.48989],[-80.11381,7.47781],[-80.10787,7.47365],[-80.10808,7.46864],[-80.09356,7.46159],[-80.08615,7.4543],[-80.08673,7.44806],[-80.07828,7.44211],[-80.08101,7.43575],[-80.09054,7.43582],[-80.09569,7.42905],[-80.12701,7.43088],[-80.13141,7.43381],[-80.13029,7.44138],[-80.1347,7.44138],[-80.13613,7.43794],[-80.1376,7.44242],[-80.14424,7.44612],[-80.1436,7.4518],[-80.14699,7.44942],[-80.14897,7.45378],[-80.16564,7.46399],[-80.17121,7.46176],[-80.16811,7.4688],[-80.17127,7.47447],[-80.16703,7.47896],[-80.1602,7.48069],[-80.15753,7.48589],[-80.15878,7.49131],[-80.15292,7.50125],[-80.156,7.50877],[-80.1512,7.51427],[-80.15144,7.51644],[-80.16114,7.51886],[-80.16958,7.52994],[-80.16673,7.52787],[-80.16151,7.53067],[-80.15308,7.5271],[-80.14717,7.53108],[-80.14511,7.52782],[-80.1437,7.53024],[-80.13761,7.52991],[-80.13391,7.53822],[-80.13472,7.54659],[-80.13219,7.54405],[-80.12849,7.54785],[-80.12591,7.54632],[-80.12159,7.55269],[-80.12522,7.55549],[-80.11844,7.55524],[-80.12121,7.55797],[-80.11717,7.56112],[-80.11905,7.56762],[-80.12353,7.5708],[-80.12163,7.5768],[-80.11204,7.57427],[-80.11341,7.5662],[-80.10286,7.56726],[-80.09053,7.56407]]]}},{"type":"Feature","properties":{"corregimiento":"Mariabé","distrito":"Pedasí","provincia":"Los Santos","bbox":[-80.10074,7.53995,-80.02524,7.65075]},"geometry":{"type":"Polygon","coordinates":[[[-80.06604,7.65075],[-80.04685,7.63494],[-80.04903,7.62801],[-80.03291,7.59627],[-80.03186,7.57738],[-80.02668,7.56667],[-80.0282,7.56435],[-80.02524,7.56231],[-80.03172,7.56146],[-80.03282,7.55421],[-80.04524,7.54665],[-80.05102,7.54944],[-80.0571,7.55876],[-80.06162,7.55412],[-80.05974,7.54661],[-80.06245,7.54324],[-80.0681,7.54433],[-80.0825,7.53995],[-80.09787,7.54301],[-80.10074,7.54747],[-80.08839,7.56084],[-80.09083,7.56165],[-80.0912,7.56843],[-80.07578,7.57804],[-80.07314,7.5847],[-80.06866,7.58667],[-80.07448,7.59554],[-80.0634,7.60004],[-80.06341,7.61164],[-80.06745,7.62162],[-80.06552,7.62685],[-80.06871,7.6275],[-80.06502,7.63078],[-80.06999,7.63094],[-80.07414,7.63788],[-80.06925,7.63962],[-80.07517,7.64202],[-80.0688,7.64405],[-80.06604,7.65075]]]}},{"type":"Feature","properties":{"corregimiento":"Purio","distrito":"Pedasí","provincia":"Los Santos","bbox":[-80.12287,7.56379,-80.06341,7.63668]},"geometry":{"type":"Polygon","coordinates":[[[-80.07751,7.63668],[-80.06946,7.63049],[-80.06746,7.63243],[-80.06502,7.63078],[-80.06871,7.6275],[-80.06552,7.62685],[-80.06744,7.62152],[-80.06341,7.61164],[-80.06347,7.59986],[-80.07448,7.59554],[-80.06866,7.58667],[-80.07314,7.5847],[-80.07578,7.57804],[-80.0911,7.56856],[-80.09088,7.56379],[-80.10286,7.56726],[-80.11341,7.5662],[-80.11204,7.57427],[-80.12287,7.57761],[-80.12027,7.5869],[-80.10821,7.59023],[-80.10414,7.59522],[-80.09788,7.59364],[-80.09149,7.59618],[-80.09342,7.60534],[-80.08932,7.61289],[-80.0911,7.62025],[-80.08426,7.62316],[-80.08335,7.63001],[-80.07962,7.63039],[-80.07751,7.63668]]]}},{"type":"Feature","properties":{"corregimiento":"Oria Arriba","distrito":"Pedasí","provincia":"Los Santos","bbox":[-80.25998,7.41121,-80.12858,7.56167]},"geometry":{"type":"Polygon","coordinates":[[[-80.18287,7.55409],[-80.17125,7.53041],[-80.16114,7.51886],[-80.15124,7.51559],[-80.156,7.50877],[-80.15292,7.50125],[-80.15878,7.49131],[-80.15749,7.48596],[-80.1602,7.48069],[-80.16703,7.47896],[-80.17127,7.47447],[-80.16811,7.4688],[-80.17121,7.46176],[-80.16564,7.46399],[-80.14897,7.45378],[-80.14699,7.44942],[-80.1436,7.4518],[-80.14431,7.44623],[-80.1376,7.44242],[-80.13638,7.43806],[-80.1347,7.44138],[-80.13018,7.44126],[-80.13141,7.43381],[-80.12858,7.43219],[-80.13316,7.42619],[-80.14538,7.42381],[-80.14674,7.41639],[-80.15276,7.41857],[-80.15621,7.41582],[-80.16031,7.41724],[-80.16184,7.41121],[-80.17443,7.41172],[-80.17627,7.41371],[-80.17371,7.41618],[-80.17988,7.41923],[-80.18209,7.41582],[-80.18723,7.4182],[-80.18451,7.42305],[-80.18613,7.428],[-80.19635,7.43279],[-80.20609,7.43032],[-80.20501,7.42257],[-80.21153,7.42555],[-80.21891,7.41679],[-80.22961,7.42491],[-80.20702,7.4512],[-80.25998,7.47469],[-80.25352,7.47792],[-80.24984,7.47541],[-80.23864,7.47552],[-80.23783,7.48149],[-80.21614,7.51919],[-80.18149,7.56167],[-80.18287,7.55409]]]}}]}