{"type":"FeatureCollection","features":[{"type":"Feature","properties":{"corregimiento":"Pocrí (Cabecera)","distrito":"Pocrí","provincia":"Los Santos","bbox":[-80.17128,7.60927,-80.06802,7.70068]},"geometry":{"type":"Polygon","coordinates":[[[-80.06802,7.64848],[-80.0688,7.64405],[-80.07517,7.64202],[-80.06931,7.63859],[-80.07393,7.63836],[-80.07284,7.63489],[-80.0782,7.63612],[-80.07962,7.63039],[-80.08335,7.63001],[-80.08426,7.62316],[-80.09104,7.62036],[-80.08987,7.61705],[-80.09663,7.61787],[-80.09582,7.61524],[-80.09919,7.61365],[-80.10363,7.61612],[-80.11687,7.60927],[-80.12182,7.61236],[-80.12823,7.6116],[-80.12982,7.6199],[-80.13605,7.61928],[-80.14014,7.62394],[-80.14959,7.62715],[-80.14951,7.63355],[-80.15599,7.63701],[-80.16551,7.63772],[-80.16822,7.63503],[-80.17128,7.64195],[-80.16676,7.64427],[-80.15803,7.65679],[-80.15475,7.65734],[-80.15326,7.66169],[-80.14892,7.65966],[-80.13331,7.66469],[-80.1314,7.67051],[-80.12651,7.67241],[-80.12725,7.67646],[-80.12355,7.67667],[-80.11914,7.6887],[-80.11103,7.69052],[-80.11138,7.69551],[-80.11669,7.69534],[-80.11251,7.69782],[-80.11317,7.70028],[-80.10924,7.70068],[-80.08971,7.67942],[-80.08428,7.66693],[-80.06802,7.64848]]]}},{"type":"Feature","properties":{"corregimiento":"El Cañafístulo","distrito":"Pocrí","provincia":"Los Santos","bbox":[-80.24268,7.51919,-80.17128,7.68647]},"geometry":{"type":"Polygon","coordinates":[[[-80.17804,7.67306],[-80.18075,7.66764],[-80.17993,7.65399],[-80.17128,7.64195],[-80.18167,7.64024],[-80.19097,7.63491],[-80.19565,7.6373],[-80.20005,7.6341],[-80.19901,7.63081],[-80.20453,7.63172],[-80.21575,7.62051],[-80.21397,7.61779],[-80.20443,7.62302],[-80.20987,7.61798],[-80.21019,7.60208],[-80.20632,7.59857],[-80.2115,7.58812],[-80.20913,7.58487],[-80.21069,7.58137],[-80.20661,7.57789],[-80.21245,7.57228],[-80.21074,7.56831],[-80.18149,7.56167],[-80.21614,7.51919],[-80.22068,7.52276],[-80.21756,7.52441],[-80.21862,7.52702],[-80.22242,7.52875],[-80.21789,7.53426],[-80.21533,7.54424],[-80.21011,7.54647],[-80.20897,7.55578],[-80.21902,7.57046],[-80.21676,7.55871],[-80.23268,7.55627],[-80.23578,7.60789],[-80.24268,7.62009],[-80.23584,7.626],[-80.23654,7.63703],[-80.22864,7.63591],[-80.21869,7.64291],[-80.22461,7.65426],[-80.22197,7.6681],[-80.20981,7.67055],[-80.20771,7.67579],[-80.20421,7.67634],[-80.19561,7.68647],[-80.17804,7.67306]]]}},{"type":"Feature","properties":{"corregimiento":"Paraíso","distrito":"Pocrí","provincia":"Los Santos","bbox":[-80.18778,7.64187,-80.11103,7.75794]},"geometry":{"type":"Polygon","coordinates":[[[-80.11281,7.69886],[-80.11667,7.69508],[-80.11138,7.69551],[-80.11103,7.69052],[-80.11914,7.6887],[-80.12355,7.67667],[-80.12725,7.67646],[-80.12651,7.67241],[-80.1314,7.67051],[-80.13342,7.66458],[-80.14892,7.65966],[-80.15317,7.66174],[-80.16681,7.64423],[-80.17111,7.64187],[-80.17452,7.64541],[-80.17995,7.65417],[-80.18075,7.66764],[-80.17565,7.67896],[-80.18066,7.69248],[-80.17791,7.69991],[-80.18399,7.71513],[-80.1825,7.71891],[-80.18778,7.72442],[-80.1863,7.73024],[-80.18227,7.73106],[-80.18382,7.7354],[-80.17448,7.73366],[-80.16565,7.73699],[-80.16806,7.74242],[-80.16555,7.74717],[-80.16665,7.75794],[-80.15686,7.75711],[-80.1355,7.73873],[-80.12356,7.71323],[-80.1144,7.70279],[-80.11773,7.70073],[-80.11281,7.69886]]]}},{"type":"Feature","properties":{"corregimiento":"Lajamina","distrito":"Pocrí","provincia":"Los Santos","bbox":[-80.17833,7.52782,-80.08979,7.61787]},"geometry":{"type":"Polygon","coordinates":[[[-80.08979,7.61715],[-80.09342,7.60534],[-80.09149,7.59618],[-80.09788,7.59364],[-80.10414,7.59522],[-80.10821,7.59023],[-80.12044,7.58658],[-80.12353,7.5708],[-80.11905,7.56762],[-80.11717,7.56112],[-80.12121,7.55797],[-80.11844,7.55524],[-80.12522,7.55549],[-80.12159,7.55269],[-80.12591,7.54632],[-80.12849,7.54785],[-80.13219,7.54405],[-80.13472,7.54659],[-80.13391,7.53822],[-80.13894,7.52886],[-80.1437,7.53024],[-80.14511,7.52782],[-80.14652,7.53099],[-80.15096,7.5305],[-80.15888,7.54465],[-80.1666,7.54697],[-80.16525,7.55854],[-80.17199,7.57035],[-80.17281,7.57759],[-80.16782,7.57996],[-80.17,7.58525],[-80.1767,7.58878],[-80.17833,7.59448],[-80.1749,7.60181],[-80.17104,7.60151],[-80.16756,7.60713],[-80.16058,7.60744],[-80.15286,7.61528],[-80.15126,7.61231],[-80.14284,7.61767],[-80.14055,7.6154],[-80.12943,7.61522],[-80.12823,7.6116],[-80.12182,7.61236],[-80.11687,7.60927],[-80.10363,7.61612],[-80.09919,7.61365],[-80.09582,7.61524],[-80.09663,7.61787],[-80.08979,7.61715]]]}},{"type":"Feature","properties":{"corregimiento":"Paritilla","distrito":"Pocrí","provincia":"Los Santos","bbox":[-80.21539,7.5271,-80.12809,7.64195]},"geometry":{"type":"Polygon","coordinates":[[[-80.17128,7.64195],[-80.16822,7.63503],[-80.16551,7.63772],[-80.15898,7.63737],[-80.14955,7.6336],[-80.14959,7.62715],[-80.14014,7.62394],[-80.13605,7.61928],[-80.12987,7.61994],[-80.12809,7.61517],[-80.14055,7.6154],[-80.14284,7.61767],[-80.15138,7.6123],[-80.1525,7.61546],[-80.15472,7.61212],[-80.15828,7.61233],[-80.16062,7.60741],[-80.16756,7.60713],[-80.17104,7.60151],[-80.1748,7.6019],[-80.17832,7.59475],[-80.1767,7.58878],[-80.17,7.58525],[-80.16782,7.57996],[-80.17281,7.57759],[-80.17199,7.57035],[-80.16525,7.55854],[-80.1666,7.54697],[-80.15883,7.54459],[-80.15554,7.53552],[-80.15063,7.53184],[-80.15004,7.52897],[-80.15308,7.5271],[-80.16151,7.53067],[-80.16673,7.52787],[-80.17115,7.53028],[-80.17714,7.54657],[-80.18287,7.55409],[-80.18149,7.56167],[-80.21074,7.56831],[-80.21244,7.57222],[-80.20661,7.57789],[-80.21075,7.58153],[-80.21108,7.59275],[-80.20632,7.59857],[-80.21078,7.60587],[-80.20984,7.61811],[-80.20443,7.62302],[-80.21412,7.61777],[-80.21539,7.62183],[-80.20758,7.62623],[-80.20453,7.63172],[-80.19901,7.63081],[-80.20005,7.6341],[-80.19565,7.6373],[-80.19097,7.63491],[-80.18167,7.64024],[-80.17128,7.64195]]]}}]}