{"type":"FeatureCollection","features":[{"type":"Feature","properties":{"corregimiento":"Tonosí (Cabecera)","distrito":"Tonosí","provincia":"Los Santos","bbox":[-80.45375,7.31102,-80.34174,7.43319]},"geometry":{"type":"Polygon","coordinates":[[[-80.43568,7.43319],[-80.40008,7.41595],[-80.39621,7.41672],[-80.39601,7.41337],[-80.39055,7.41364],[-80.38948,7.41071],[-80.38596,7.4129],[-80.38732,7.40877],[-80.38396,7.40677],[-80.38169,7.4093],[-80.3781,7.40818],[-80.37826,7.40469],[-80.37333,7.40613],[-80.37488,7.40188],[-80.37894,7.40181],[-80.37617,7.40021],[-80.37754,7.39859],[-80.36742,7.40226],[-80.36783,7.39719],[-80.36473,7.39586],[-80.36817,7.39179],[-80.36004,7.39171],[-80.35968,7.38205],[-80.36813,7.36229],[-80.36048,7.35118],[-80.35246,7.34791],[-80.35472,7.33349],[-80.34174,7.31975],[-80.37392,7.31402],[-80.3757,7.31102],[-80.38143,7.31204],[-80.38398,7.32552],[-80.39181,7.33002],[-80.39682,7.34298],[-80.43697,7.35509],[-80.4352,7.37072],[-80.44015,7.37458],[-80.44537,7.39023],[-80.44466,7.39664],[-80.45375,7.41105],[-80.45263,7.43036],[-80.44008,7.4306],[-80.43568,7.43319]]]}},{"type":"Feature","properties":{"corregimiento":"Cañas","distrito":"Tonosí","provincia":"Los Santos","bbox":[-80.35339,7.41765,-80.20702,7.51107]},"geometry":{"type":"Polygon","coordinates":[[[-80.25998,7.47469],[-80.20702,7.4512],[-80.22889,7.4253],[-80.24214,7.42314],[-80.25,7.42969],[-80.27412,7.43069],[-80.29593,7.42086],[-80.31425,7.41765],[-80.31904,7.44513],[-80.35339,7.44749],[-80.34563,7.45448],[-80.34958,7.46795],[-80.32332,7.50896],[-80.27308,7.51107],[-80.25744,7.49836],[-80.25762,7.49211],[-80.26274,7.48644],[-80.25767,7.48025],[-80.26103,7.47748],[-80.25998,7.47469]]]}},{"type":"Feature","properties":{"corregimiento":"El Cacao","distrito":"Tonosí","provincia":"Los Santos","bbox":[-80.47696,7.39134,-80.33476,7.49772]},"geometry":{"type":"Polygon","coordinates":[[[-80.36821,7.49348],[-80.35836,7.47343],[-80.34881,7.46732],[-80.34614,7.46236],[-80.34563,7.45448],[-80.35259,7.44916],[-80.35357,7.44205],[-80.3519,7.43597],[-80.3465,7.43451],[-80.34401,7.42935],[-80.3504,7.42855],[-80.35234,7.42492],[-80.34116,7.4206],[-80.33476,7.42128],[-80.33484,7.41729],[-80.34232,7.41378],[-80.33983,7.41139],[-80.34628,7.41391],[-80.3479,7.40929],[-80.35098,7.41162],[-80.35741,7.40649],[-80.35165,7.40166],[-80.35284,7.3943],[-80.36775,7.39134],[-80.36473,7.39586],[-80.36767,7.39682],[-80.36765,7.4025],[-80.37635,7.3984],[-80.37896,7.40124],[-80.37757,7.40351],[-80.37478,7.40196],[-80.37333,7.40613],[-80.37826,7.40469],[-80.3781,7.40818],[-80.38169,7.4093],[-80.38408,7.40683],[-80.38732,7.40877],[-80.38596,7.4129],[-80.38936,7.41069],[-80.39055,7.41364],[-80.39589,7.41329],[-80.39621,7.41672],[-80.40008,7.41595],[-80.43568,7.43319],[-80.45359,7.43],[-80.45834,7.43143],[-80.45815,7.4338],[-80.46175,7.43294],[-80.46319,7.44497],[-80.46079,7.44913],[-80.46776,7.45962],[-80.47126,7.45949],[-80.4742,7.46382],[-80.47696,7.47473],[-80.46243,7.49552],[-80.45263,7.49772],[-80.45033,7.49319],[-80.4497,7.49681],[-80.44528,7.49735],[-80.44327,7.493],[-80.43716,7.4903],[-80.44096,7.48716],[-80.4395,7.48556],[-80.41142,7.4791],[-80.41297,7.46971],[-80.38399,7.46037],[-80.38252,7.45743],[-80.37894,7.48245],[-80.3705,7.48521],[-80.36821,7.49348]]]}},{"type":"Feature","properties":{"corregimiento":"Guánico","distrito":"Tonosí","provincia":"Los Santos","bbox":[-80.64148,7.24147,-80.3794,7.41891]},"geometry":{"type":"Polygon","coordinates":[[[-80.56307,7.41891],[-80.54593,7.39246],[-80.53813,7.3971],[-80.52754,7.38864],[-80.5259,7.39184],[-80.51816,7.39418],[-80.51094,7.38755],[-80.50645,7.3873],[-80.49808,7.37697],[-80.48008,7.3718],[-80.46721,7.36118],[-80.45865,7.36451],[-80.4514,7.35749],[-80.44203,7.35389],[-80.43697,7.35509],[-80.39682,7.34298],[-80.39181,7.33002],[-80.38398,7.32552],[-80.38325,7.31325],[-80.3794,7.31108],[-80.39408,7.30233],[-80.40062,7.28584],[-80.39869,7.27927],[-80.42368,7.27017],[-80.4243,7.26327],[-80.42005,7.26203],[-80.42725,7.25628],[-80.42477,7.24992],[-80.42954,7.24925],[-80.43026,7.24355],[-80.43977,7.24147],[-80.43991,7.25443],[-80.44864,7.25616],[-80.44841,7.26173],[-80.45928,7.26586],[-80.45737,7.28068],[-80.46873,7.28639],[-80.47387,7.29596],[-80.48619,7.29535],[-80.48487,7.29821],[-80.49055,7.30325],[-80.49365,7.31353],[-80.50206,7.30911],[-80.52201,7.31408],[-80.5348,7.32336],[-80.53716,7.31995],[-80.54657,7.31903],[-80.55381,7.32901],[-80.57747,7.32546],[-80.5886,7.33314],[-80.59003,7.33897],[-80.60955,7.35039],[-80.61554,7.35774],[-80.62902,7.35352],[-80.64148,7.36158],[-80.63165,7.37134],[-80.62456,7.37354],[-80.62857,7.38794],[-80.60861,7.38325],[-80.59393,7.38524],[-80.59077,7.39179],[-80.58373,7.39382],[-80.56307,7.41891]]]}},{"type":"Feature","properties":{"corregimiento":"Cambutal","distrito":"Tonosí","provincia":"Los Santos","bbox":[-80.68312,7.22778,-80.43977,7.36106]},"geometry":{"type":"Polygon","coordinates":[[[-80.64037,7.36105],[-80.62902,7.35352],[-80.61554,7.35774],[-80.60955,7.35039],[-80.59003,7.33897],[-80.5886,7.33314],[-80.57747,7.32546],[-80.55381,7.32901],[-80.54657,7.31903],[-80.53716,7.31995],[-80.5348,7.32336],[-80.52201,7.31408],[-80.50206,7.30911],[-80.49365,7.31353],[-80.49055,7.30325],[-80.48487,7.29821],[-80.48619,7.29535],[-80.47387,7.29596],[-80.46873,7.28639],[-80.45737,7.28068],[-80.45928,7.26586],[-80.44841,7.26173],[-80.44864,7.25616],[-80.43991,7.25443],[-80.43977,7.24147],[-80.45917,7.24748],[-80.46014,7.24562],[-80.48049,7.24735],[-80.49119,7.25035],[-80.50189,7.24853],[-80.50721,7.25114],[-80.52153,7.23762],[-80.54456,7.24323],[-80.56549,7.24437],[-80.58015,7.22778],[-80.58373,7.23317],[-80.59468,7.2359],[-80.60259,7.23039],[-80.61402,7.23266],[-80.61188,7.2435],[-80.61488,7.24894],[-80.61189,7.26105],[-80.61739,7.29713],[-80.6352,7.29777],[-80.63851,7.3017],[-80.65033,7.30486],[-80.65983,7.31703],[-80.65967,7.32448],[-80.67039,7.33007],[-80.67809,7.32695],[-80.68097,7.3183],[-80.68312,7.32104],[-80.67903,7.32816],[-80.66738,7.33676],[-80.66957,7.3406],[-80.66671,7.34826],[-80.66934,7.35247],[-80.66316,7.35622],[-80.65225,7.35549],[-80.64547,7.36106],[-80.64037,7.36105]]]}},{"type":"Feature","properties":{"corregimiento":"Isla de Cañas","distrito":"Tonosí","provincia":"Los Santos","bbox":[-80.36654,7.36361,-80.25535,7.44749]},"geometry":{"type":"Polygon","coordinates":[[[-80.25535,7.4282],[-80.26442,7.42264],[-80.29348,7.41754],[-80.31516,7.40919],[-80.3469,7.38546],[-80.36321,7.36361],[-80.36654,7.36545],[-80.35992,7.38012],[-80.36031,7.39054],[-80.35159,7.39604],[-80.35171,7.4018],[-80.35741,7.40649],[-80.35098,7.41162],[-80.3479,7.40929],[-80.34628,7.41391],[-80.33991,7.41134],[-80.34225,7.4139],[-80.3346,7.41768],[-80.3366,7.41779],[-80.33647,7.42246],[-80.34101,7.42058],[-80.35231,7.42484],[-80.3504,7.42855],[-80.34401,7.42935],[-80.3465,7.43451],[-80.3521,7.43626],[-80.35339,7.44749],[-80.31904,7.44513],[-80.31425,7.41765],[-80.29593,7.42086],[-80.27412,7.43069],[-80.25919,7.43114],[-80.25535,7.4282]]]}},{"type":"Feature","properties":{"corregimiento":"Altos de Güera","distrito":"Tonosí","provincia":"Los Santos","bbox":[-80.73594,7.48076,-80.48424,7.56181]},"geometry":{"type":"Polygon","coordinates":[[[-80.50142,7.55915],[-80.49943,7.55394],[-80.49575,7.55251],[-80.49479,7.54622],[-80.48424,7.54783],[-80.50067,7.54073],[-80.50077,7.50386],[-80.52123,7.50631],[-80.52632,7.51209],[-80.53604,7.5118],[-80.54482,7.50359],[-80.55094,7.50423],[-80.55414,7.50031],[-80.57343,7.4925],[-80.58095,7.49749],[-80.58853,7.4917],[-80.59123,7.49393],[-80.62136,7.48076],[-80.62479,7.49297],[-80.63566,7.5028],[-80.64775,7.49789],[-80.65655,7.50028],[-80.66882,7.49917],[-80.67448,7.49506],[-80.6812,7.49719],[-80.68608,7.49142],[-80.69161,7.49529],[-80.70669,7.48943],[-80.71589,7.49078],[-80.72204,7.50594],[-80.7301,7.51141],[-80.72902,7.52004],[-80.73594,7.52464],[-80.72855,7.53084],[-80.72753,7.53545],[-80.71923,7.54016],[-80.62883,7.54205],[-80.51354,7.56181],[-80.50142,7.55915]]]}},{"type":"Feature","properties":{"corregimiento":"El Bebedero","distrito":"Tonosí","provincia":"Los Santos","bbox":[-80.56307,7.35429,-80.4352,7.50426]},"geometry":{"type":"Polygon","coordinates":[[[-80.47696,7.47473],[-80.4742,7.46382],[-80.47126,7.45949],[-80.46776,7.45962],[-80.46079,7.44913],[-80.46309,7.43514],[-80.45263,7.43036],[-80.45375,7.41105],[-80.44466,7.39664],[-80.44537,7.39023],[-80.44015,7.37458],[-80.4352,7.37072],[-80.43776,7.36333],[-80.43608,7.35689],[-80.43858,7.35429],[-80.45121,7.35739],[-80.45865,7.36451],[-80.46721,7.36118],[-80.48008,7.3718],[-80.49808,7.37697],[-80.50645,7.3873],[-80.51094,7.38755],[-80.51808,7.39415],[-80.5259,7.39184],[-80.52754,7.38864],[-80.53813,7.3971],[-80.54593,7.39246],[-80.56307,7.41891],[-80.53743,7.44334],[-80.53875,7.45478],[-80.52539,7.45945],[-80.53983,7.48607],[-80.53328,7.48406],[-80.52809,7.48816],[-80.52179,7.48785],[-80.5148,7.49589],[-80.49943,7.50426],[-80.49736,7.50059],[-80.50827,7.49251],[-80.50091,7.49168],[-80.49937,7.48394],[-80.49447,7.47963],[-80.48786,7.48133],[-80.47696,7.47473]]]}},{"type":"Feature","properties":{"corregimiento":"El Cortezo","distrito":"Tonosí","provincia":"Los Santos","bbox":[-80.73123,7.35411,-80.59849,7.50262]},"geometry":{"type":"Polygon","coordinates":[[[-80.60407,7.48806],[-80.60114,7.4735],[-80.59849,7.47236],[-80.60358,7.46709],[-80.60222,7.45627],[-80.60696,7.45546],[-80.60783,7.4504],[-80.61853,7.45199],[-80.62231,7.44925],[-80.6225,7.44369],[-80.62022,7.42895],[-80.60107,7.41703],[-80.60539,7.41401],[-80.6014,7.41072],[-80.60602,7.4024],[-80.60642,7.38702],[-80.61086,7.38368],[-80.62857,7.38794],[-80.62463,7.37343],[-80.63153,7.37142],[-80.63965,7.36205],[-80.64552,7.36104],[-80.652,7.35561],[-80.66316,7.35622],[-80.66413,7.35411],[-80.66914,7.35817],[-80.66925,7.37324],[-80.67871,7.38836],[-80.68567,7.39463],[-80.697,7.39716],[-80.70314,7.40361],[-80.71524,7.40754],[-80.71938,7.41383],[-80.71292,7.42234],[-80.70148,7.42868],[-80.7091,7.43678],[-80.70916,7.44126],[-80.71492,7.44953],[-80.71483,7.4564],[-80.7208,7.45717],[-80.72116,7.4601],[-80.72924,7.46448],[-80.73123,7.47001],[-80.71589,7.49078],[-80.70669,7.48943],[-80.69161,7.49529],[-80.68608,7.49142],[-80.68139,7.49713],[-80.6743,7.49509],[-80.66874,7.49918],[-80.65646,7.50028],[-80.64781,7.49788],[-80.63488,7.50262],[-80.62479,7.49297],[-80.62136,7.48076],[-80.60407,7.48806]]]}},{"type":"Feature","properties":{"corregimiento":"Flores","distrito":"Tonosí","provincia":"Los Santos","bbox":[-80.50857,7.45743,-80.36715,7.55915]},"geometry":{"type":"Polygon","coordinates":[[[-80.37601,7.53712],[-80.37071,7.5242],[-80.37083,7.51489],[-80.36816,7.51115],[-80.3717,7.50674],[-80.36715,7.49542],[-80.3705,7.48521],[-80.37894,7.48245],[-80.38252,7.45743],[-80.38399,7.46037],[-80.41297,7.46971],[-80.41142,7.4791],[-80.4395,7.48556],[-80.44096,7.48716],[-80.43716,7.4903],[-80.44327,7.493],[-80.44552,7.49744],[-80.4497,7.49681],[-80.45033,7.49319],[-80.45263,7.49772],[-80.46243,7.49552],[-80.47696,7.47473],[-80.48786,7.48133],[-80.49447,7.47963],[-80.49937,7.48394],[-80.50091,7.49168],[-80.50665,7.49081],[-80.50857,7.49299],[-80.49711,7.50118],[-80.50077,7.50386],[-80.50067,7.54073],[-80.48424,7.54783],[-80.49479,7.54622],[-80.49575,7.55251],[-80.49943,7.55394],[-80.50142,7.55915],[-80.37601,7.53712]]]}},{"type":"Feature","properties":{"corregimiento":"La Tronosa","distrito":"Tonosí","provincia":"Los Santos","bbox":[-80.62236,7.38368,-80.50077,7.51241]},"geometry":{"type":"Polygon","coordinates":[[[-80.50077,7.50386],[-80.5148,7.49589],[-80.52179,7.48785],[-80.52809,7.48816],[-80.53328,7.48406],[-80.53983,7.48607],[-80.52539,7.45945],[-80.53875,7.45478],[-80.53743,7.44334],[-80.56632,7.41621],[-80.5667,7.41266],[-80.58373,7.39382],[-80.59061,7.39193],[-80.59379,7.38529],[-80.61086,7.38368],[-80.6062,7.38756],[-80.60602,7.4024],[-80.6014,7.41072],[-80.60539,7.41401],[-80.60107,7.41703],[-80.62031,7.42907],[-80.62236,7.44908],[-80.61833,7.45207],[-80.60765,7.45047],[-80.60696,7.45546],[-80.60222,7.45627],[-80.60358,7.46709],[-80.59849,7.47236],[-80.60114,7.4735],[-80.60407,7.48806],[-80.59123,7.49393],[-80.58853,7.4917],[-80.58095,7.49749],[-80.57343,7.4925],[-80.55414,7.50031],[-80.55094,7.50423],[-80.54482,7.50359],[-80.5322,7.51241],[-80.52617,7.51204],[-80.52113,7.50628],[-80.50077,7.50386]]]}}]}