{"type":"FeatureCollection","features":[{"type":"Feature","properties":{"corregimiento":"San Miguel (Cabecera)","distrito":"Balboa","provincia":"Panamá","bbox":[-79.069,8.34294,-78.83565,8.52349]},"geometry":{"type":"MultiPolygon","coordinates":[[[[-78.85746,8.38003],[-78.86579,8.3872],[-78.87108,8.38601],[-78.88368,8.39114],[-78.89685,8.38832],[-78.89855,8.38578],[-78.90917,8.38917],[-78.93422,8.37517],[-78.93713,8.36814],[-78.94501,8.36945],[-78.95636,8.35581],[-78.95033,8.34406],[-78.95257,8.34294],[-78.95618,8.35161],[-78.9718,8.3691],[-78.96796,8.37227],[-78.9685,8.3757],[-78.96502,8.37456],[-78.96078,8.3805],[-78.95731,8.37756],[-78.96069,8.3816],[-78.96245,8.3803],[-78.9609,8.38714],[-78.95749,8.38725],[-78.95969,8.39032],[-78.95689,8.39097],[-78.96141,8.39514],[-78.96017,8.40044],[-78.96432,8.40201],[-78.96805,8.41185],[-78.9646,8.41197],[-78.96561,8.41988],[-78.96344,8.42084],[-78.96773,8.42119],[-78.97114,8.42583],[-78.9656,8.43056],[-78.96981,8.43285],[-78.97315,8.43094],[-78.97003,8.43766],[-78.97486,8.44493],[-78.97173,8.45216],[-78.97319,8.45566],[-78.96611,8.46127],[-78.96362,8.45627],[-78.95886,8.45944],[-78.95281,8.45786],[-78.95051,8.45983],[-78.95028,8.45325],[-78.94558,8.45283],[-78.93295,8.46061],[-78.93243,8.45661],[-78.92844,8.45598],[-78.92781,8.45434],[-78.92929,8.45378],[-78.92936,8.45342],[-78.92867,8.45294],[-78.92266,8.45753],[-78.92864,8.46045],[-78.92982,8.46449],[-78.9249,8.46264],[-78.92,8.46692],[-78.91992,8.46084],[-78.91485,8.46375],[-78.91657,8.46776],[-78.90888,8.47089],[-78.90583,8.46886],[-78.90765,8.46097],[-78.90526,8.46612],[-78.90362,8.45906],[-78.89577,8.45923],[-78.89951,8.45751],[-78.90228,8.45261],[-78.90215,8.45021],[-78.89834,8.45702],[-78.89687,8.45675],[-78.89685,8.45387],[-78.89628,8.45332],[-78.89587,8.45376],[-78.89327,8.46347],[-78.8963,8.46601],[-78.89218,8.47458],[-78.88901,8.47516],[-78.88619,8.47102],[-78.8811,8.47164],[-78.88335,8.46435],[-78.87923,8.46217],[-78.87853,8.46782],[-78.87742,8.46784],[-78.87314,8.46119],[-78.87779,8.45645],[-78.8714,8.45774],[-78.87407,8.45246],[-78.86994,8.44922],[-78.87097,8.44805],[-78.87124,8.44723],[-78.87105,8.44619],[-78.87202,8.44533],[-78.8742,8.43643],[-78.87108,8.44316],[-78.87072,8.44805],[-78.86765,8.44915],[-78.86875,8.45472],[-78.86584,8.4547],[-78.86668,8.45017],[-78.8612,8.44989],[-78.8616,8.4458],[-78.85812,8.44674],[-78.86244,8.44053],[-78.85958,8.43224],[-78.8616,8.43232],[-78.86424,8.4161],[-78.87179,8.40508],[-78.86531,8.41229],[-78.86416,8.41078],[-78.85815,8.42243],[-78.85602,8.41642],[-78.8653,8.40354],[-78.85915,8.40592],[-78.85332,8.41527],[-78.85224,8.4113],[-78.84824,8.41217],[-78.84673,8.40595],[-78.84256,8.41298],[-78.84155,8.4074],[-78.83807,8.40566],[-78.83912,8.40222],[-78.83605,8.40087],[-78.84272,8.3996],[-78.8362,8.39401],[-78.83565,8.38957],[-78.8412,8.38402],[-78.84794,8.38293],[-78.84982,8.38849],[-78.85147,8.38482],[-78.85707,8.38641],[-78.84841,8.3788],[-78.85457,8.38154],[-78.85442,8.37903],[-78.85746,8.38003]]],[[[-78.97427,8.48869],[-78.97964,8.48418],[-78.9791,8.47648],[-78.98458,8.47801],[-78.98726,8.47491],[-78.98743,8.4774],[-78.99681,8.46941],[-78.98819,8.46983],[-78.99036,8.46723],[-78.99595,8.46762],[-78.99603,8.46459],[-78.98615,8.46609],[-78.98771,8.46339],[-78.98534,8.46047],[-78.9729,8.46284],[-78.98043,8.45596],[-78.97636,8.44738],[-78.98069,8.44298],[-78.97948,8.45032],[-78.98682,8.45069],[-78.98926,8.46063],[-79.00337,8.46318],[-79.00816,8.45829],[-79.00812,8.46121],[-79.01469,8.46664],[-79.02315,8.46592],[-79.02044,8.47143],[-79.01713,8.46926],[-79.01215,8.47305],[-79.00925,8.46676],[-79.00885,8.47127],[-79.00468,8.46976],[-79.002,8.47684],[-78.99675,8.47687],[-78.9964,8.47378],[-78.99364,8.47916],[-78.99085,8.47812],[-78.98338,8.48275],[-78.98222,8.48887],[-78.97427,8.48869]]],[[[-79.02983,8.52349],[-79.02647,8.52032],[-79.03379,8.5111],[-79.031,8.50508],[-79.03367,8.50291],[-79.02457,8.5018],[-79.02213,8.49561],[-79.02753,8.49205],[-79.02952,8.49554],[-79.03341,8.49468],[-79.03008,8.49829],[-79.03165,8.5011],[-79.0432,8.50256],[-79.03352,8.52114],[-79.02983,8.52349]]],[[[-79.05663,8.50441],[-79.05511,8.50138],[-79.05764,8.49523],[-79.05858,8.49813],[-79.05812,8.49348],[-79.04965,8.50037],[-79.05623,8.48984],[-79.05277,8.4899],[-79.05268,8.48733],[-79.05862,8.48231],[-79.06166,8.48538],[-79.06729,8.48183],[-79.06628,8.48922],[-79.069,8.49521],[-79.05663,8.50441]]]]}},{"type":"Feature","properties":{"corregimiento":"La Ensenada","distrito":"Balboa","provincia":"Panamá","bbox":[-78.92809,8.29585,-78.80886,8.39697]},"geometry":{"type":"MultiPolygon","coordinates":[[[[-78.8264,8.39697],[-78.81851,8.39325],[-78.81959,8.38907],[-78.81583,8.39049],[-78.81239,8.38748],[-78.81628,8.38405],[-78.81471,8.38149],[-78.80936,8.38117],[-78.80886,8.37464],[-78.81307,8.36922],[-78.81772,8.3717],[-78.8251,8.36941],[-78.83445,8.37625],[-78.82868,8.39036],[-78.83045,8.39189],[-78.83343,8.38723],[-78.83325,8.39113],[-78.8264,8.39697]]],[[[-78.86579,8.3872],[-78.85352,8.37805],[-78.85146,8.37103],[-78.84997,8.37365],[-78.84763,8.37257],[-78.85208,8.36972],[-78.85173,8.36705],[-78.84429,8.36757],[-78.8383,8.36298],[-78.83907,8.35873],[-78.84295,8.35656],[-78.84185,8.34791],[-78.84721,8.34605],[-78.85145,8.34151],[-78.85165,8.33974],[-78.85361,8.34063],[-78.85887,8.33798],[-78.85154,8.33958],[-78.8455,8.34628],[-78.84439,8.34444],[-78.83866,8.34726],[-78.83571,8.34437],[-78.83186,8.34614],[-78.83113,8.34366],[-78.83566,8.34066],[-78.84078,8.34067],[-78.83962,8.34266],[-78.84065,8.34288],[-78.8459,8.33139],[-78.84304,8.32052],[-78.8517,8.31452],[-78.85432,8.3036],[-78.85608,8.30299],[-78.85714,8.30558],[-78.85771,8.30585],[-78.85891,8.30559],[-78.85947,8.30592],[-78.8555,8.30184],[-78.85198,8.30404],[-78.85694,8.29585],[-78.87004,8.29713],[-78.87236,8.30221],[-78.87338,8.30246],[-78.87235,8.30092],[-78.88012,8.29954],[-78.88406,8.30214],[-78.89429,8.29953],[-78.88551,8.30961],[-78.88411,8.32587],[-78.89314,8.32084],[-78.89372,8.32896],[-78.90365,8.33185],[-78.89866,8.35042],[-78.90185,8.35222],[-78.91817,8.35018],[-78.92697,8.34272],[-78.92809,8.34891],[-78.92374,8.35494],[-78.91927,8.3552],[-78.91474,8.36271],[-78.91181,8.37279],[-78.91517,8.37791],[-78.90917,8.38917],[-78.89855,8.38578],[-78.89685,8.38832],[-78.88368,8.39114],[-78.87108,8.38601],[-78.86579,8.3872]]]]}},{"type":"Feature","properties":{"corregimiento":"La Esmeralda","distrito":"Balboa","provincia":"Panamá","bbox":[-78.97168,8.22089,-78.88411,8.35042]},"geometry":{"type":"Polygon","coordinates":[[[-78.88551,8.30961],[-78.89828,8.29682],[-78.89976,8.29979],[-78.89574,8.30714],[-78.90359,8.30886],[-78.91084,8.29718],[-78.90928,8.29541],[-78.91165,8.29422],[-78.914,8.29954],[-78.92081,8.29781],[-78.91669,8.29153],[-78.92187,8.28296],[-78.91944,8.27505],[-78.92288,8.26642],[-78.91249,8.2549],[-78.9113,8.23884],[-78.91259,8.24439],[-78.91417,8.2459],[-78.91241,8.24142],[-78.91459,8.23999],[-78.90607,8.22821],[-78.90105,8.22773],[-78.89933,8.23079],[-78.89667,8.22801],[-78.89746,8.2234],[-78.9068,8.22089],[-78.9115,8.22738],[-78.91837,8.22784],[-78.92805,8.2361],[-78.92262,8.23786],[-78.92744,8.24126],[-78.92414,8.25122],[-78.93044,8.25775],[-78.9297,8.26198],[-78.93233,8.26442],[-78.93257,8.26924],[-78.92902,8.26924],[-78.92639,8.27337],[-78.93343,8.27835],[-78.92954,8.28026],[-78.92904,8.28264],[-78.93318,8.28065],[-78.93401,8.28644],[-78.93503,8.2874],[-78.9332,8.27358],[-78.94662,8.2877],[-78.94427,8.28786],[-78.94344,8.28846],[-78.94341,8.2888],[-78.95691,8.29008],[-78.95811,8.293],[-78.965,8.29386],[-78.96675,8.30149],[-78.96323,8.30049],[-78.96306,8.30129],[-78.97149,8.3055],[-78.97168,8.30909],[-78.93574,8.305],[-78.92737,8.31752],[-78.92827,8.32779],[-78.92293,8.32883],[-78.91547,8.34055],[-78.90878,8.34161],[-78.89866,8.35042],[-78.90365,8.33185],[-78.89372,8.32896],[-78.89314,8.32084],[-78.88411,8.32587],[-78.88551,8.30961]]]}},{"type":"Feature","properties":{"corregimiento":"La Guinea","distrito":"Balboa","provincia":"Panamá","bbox":[-78.96922,8.305,-78.89866,8.38917]},"geometry":{"type":"Polygon","coordinates":[[[-78.89866,8.35042],[-78.90878,8.34161],[-78.91547,8.34055],[-78.92293,8.32883],[-78.92827,8.32779],[-78.92737,8.31752],[-78.93574,8.305],[-78.96922,8.30964],[-78.96455,8.31203],[-78.96543,8.32737],[-78.96224,8.32816],[-78.96166,8.33162],[-78.95965,8.32962],[-78.9628,8.32624],[-78.96216,8.31899],[-78.95522,8.31175],[-78.95422,8.32389],[-78.94577,8.31983],[-78.94312,8.32155],[-78.93832,8.31956],[-78.93767,8.32322],[-78.93987,8.32101],[-78.94865,8.32286],[-78.95404,8.33183],[-78.9558,8.32631],[-78.95707,8.33899],[-78.94823,8.34189],[-78.94728,8.33747],[-78.94441,8.33938],[-78.94221,8.33932],[-78.94288,8.33837],[-78.94058,8.33761],[-78.93945,8.33866],[-78.93931,8.3401],[-78.93849,8.33979],[-78.9367,8.34025],[-78.93532,8.3425],[-78.93444,8.34116],[-78.93365,8.34183],[-78.93261,8.34078],[-78.9307,8.34098],[-78.92915,8.33991],[-78.92855,8.33991],[-78.93065,8.34112],[-78.93258,8.34093],[-78.93363,8.34199],[-78.93442,8.34135],[-78.93529,8.34271],[-78.93941,8.34021],[-78.94054,8.33783],[-78.94201,8.33943],[-78.9445,8.33976],[-78.94728,8.33814],[-78.94689,8.34138],[-78.9516,8.34513],[-78.95635,8.35585],[-78.94483,8.36962],[-78.93713,8.36814],[-78.93422,8.37517],[-78.90917,8.38917],[-78.91517,8.37791],[-78.91181,8.37279],[-78.91474,8.36271],[-78.91927,8.3552],[-78.92374,8.35494],[-78.92806,8.34895],[-78.92787,8.34413],[-78.91817,8.35018],[-78.90185,8.35222],[-78.89866,8.35042]]]}},{"type":"Feature","properties":{"corregimiento":"Pedro González","distrito":"Balboa","provincia":"Panamá","bbox":[-79.14445,8.20882,-79.06618,8.42901]},"geometry":{"type":"MultiPolygon","coordinates":[[[[-79.1031,8.31619],[-79.10264,8.31045],[-79.09931,8.31009],[-79.08404,8.28835],[-79.0839,8.27213],[-79.07655,8.26898],[-79.07627,8.263],[-79.06891,8.2643],[-79.07017,8.2624],[-79.06618,8.25851],[-79.07791,8.25895],[-79.07781,8.25564],[-79.08212,8.254],[-79.08327,8.25883],[-79.08688,8.26055],[-79.10244,8.25654],[-79.10649,8.24585],[-79.1031,8.23924],[-79.09838,8.23852],[-79.09982,8.23013],[-79.10575,8.23132],[-79.10821,8.22678],[-79.11091,8.22698],[-79.11156,8.22202],[-79.10828,8.21794],[-79.11117,8.2096],[-79.11283,8.21392],[-79.12087,8.20882],[-79.12274,8.21266],[-79.12958,8.21403],[-79.13104,8.22166],[-79.12709,8.22739],[-79.13457,8.22362],[-79.13231,8.2283],[-79.13737,8.23669],[-79.13773,8.24415],[-79.14445,8.2395],[-79.14267,8.25081],[-79.13978,8.24971],[-79.13687,8.25964],[-79.13452,8.25436],[-79.12033,8.25816],[-79.13086,8.26405],[-79.12983,8.26806],[-79.12623,8.26884],[-79.12822,8.27147],[-79.1238,8.27949],[-79.12925,8.28155],[-79.1249,8.28396],[-79.12942,8.28685],[-79.1276,8.2914],[-79.12968,8.29489],[-79.1214,8.30363],[-79.12272,8.30668],[-79.11623,8.31321],[-79.11703,8.31544],[-79.1031,8.31619]]],[[[-79.11454,8.42901],[-79.11572,8.42132],[-79.10147,8.41522],[-79.10048,8.41145],[-79.10323,8.40806],[-79.10061,8.40629],[-79.09576,8.40852],[-79.09448,8.40096],[-79.09079,8.4023],[-79.09106,8.40761],[-79.088,8.40971],[-79.08829,8.41354],[-79.09126,8.4131],[-79.08996,8.41892],[-79.0869,8.41953],[-79.08229,8.41406],[-79.08704,8.40194],[-79.08003,8.3966],[-79.08586,8.38583],[-79.08405,8.38253],[-79.08601,8.37806],[-79.09341,8.3799],[-79.09559,8.37795],[-79.09622,8.38369],[-79.09947,8.38278],[-79.10378,8.38939],[-79.11716,8.39169],[-79.1154,8.39655],[-79.11865,8.40173],[-79.11769,8.40205],[-79.11727,8.4038],[-79.12005,8.40104],[-79.12165,8.40459],[-79.12798,8.40058],[-79.12856,8.4036],[-79.13176,8.40406],[-79.12667,8.41253],[-79.1296,8.41686],[-79.12798,8.42004],[-79.11946,8.42846],[-79.11454,8.42901]]]]}},{"type":"Feature","properties":{"corregimiento":"Saboga","distrito":"Balboa","provincia":"Panamá","bbox":[-79.07183,8.60782,-79.05132,8.63615]},"geometry":{"type":"Polygon","coordinates":[[[-79.06467,8.63615],[-79.05877,8.6354],[-79.06013,8.62808],[-79.05709,8.62424],[-79.05132,8.62455],[-79.06101,8.61428],[-79.06323,8.60782],[-79.06576,8.61599],[-79.07183,8.62038],[-79.06902,8.62121],[-79.06874,8.6289],[-79.06467,8.63615]]]}}]}