{"type":"FeatureCollection","features":[{"type":"Feature","properties":{"corregimiento":"Las Margaritas","distrito":"Chepo","provincia":"Panamá","bbox":[-79.28557,9.17629,-79.01681,9.33583]},"geometry":{"type":"Polygon","coordinates":[[[-79.02333,9.29737],[-79.02123,9.27709],[-79.03057,9.26052],[-79.03078,9.25421],[-79.0242,9.24616],[-79.02214,9.22729],[-79.01917,9.22407],[-79.02048,9.21875],[-79.01681,9.21696],[-79.05464,9.2125],[-79.05757,9.20861],[-79.06336,9.20722],[-79.07658,9.19431],[-79.07622,9.18862],[-79.0823,9.17629],[-79.09442,9.19085],[-79.09421,9.19815],[-79.09997,9.20302],[-79.10812,9.22339],[-79.1366,9.23278],[-79.15734,9.21895],[-79.16453,9.23293],[-79.1681,9.23341],[-79.16796,9.24385],[-79.17222,9.24354],[-79.1883,9.25277],[-79.19595,9.24278],[-79.20509,9.24685],[-79.21467,9.24725],[-79.21644,9.25383],[-79.22465,9.25404],[-79.23599,9.26282],[-79.26239,9.26354],[-79.27236,9.26891],[-79.27317,9.27442],[-79.28557,9.28721],[-79.2754,9.30057],[-79.2756,9.30641],[-79.27905,9.31],[-79.27675,9.32147],[-79.27323,9.32129],[-79.2688,9.31514],[-79.25909,9.31276],[-79.24582,9.31593],[-79.23904,9.31082],[-79.22492,9.31608],[-79.21785,9.31094],[-79.20494,9.31969],[-79.194,9.32146],[-79.19104,9.32666],[-79.1822,9.33021],[-79.16849,9.32946],[-79.16333,9.33371],[-79.15529,9.33355],[-79.15349,9.33583],[-79.14959,9.32616],[-79.1373,9.32653],[-79.13362,9.32345],[-79.11958,9.3306],[-79.10103,9.33178],[-79.09711,9.3215],[-79.08627,9.31089],[-79.09778,9.30261],[-79.0967,9.2956],[-79.08805,9.29808],[-79.08557,9.29602],[-79.07426,9.29683],[-79.06988,9.3028],[-79.05652,9.30484],[-79.05203,9.29797],[-79.04399,9.30007],[-79.04182,9.29659],[-79.03458,9.29547],[-79.02333,9.29737]]]}},{"type":"Feature","properties":{"corregimiento":"Chepo (Cabecera","distrito":"Chepo","provincia":"Panamá","bbox":[-79.2408,9.04097,-78.92487,9.23278]},"geometry":{"type":"Polygon","coordinates":[[[-79.01681,9.21696],[-79.01504,9.21285],[-79.00592,9.21595],[-79.0018,9.21355],[-78.99801,9.21511],[-78.98527,9.20918],[-78.98231,9.21256],[-78.97478,9.21403],[-78.97569,9.19694],[-78.96369,9.18925],[-78.97692,9.17945],[-78.98049,9.17031],[-78.97228,9.1618],[-78.96268,9.16103],[-78.96183,9.15537],[-78.95433,9.1551],[-78.94856,9.14111],[-78.95222,9.13882],[-78.95284,9.12825],[-78.94009,9.11345],[-78.93249,9.11017],[-78.93682,9.09826],[-78.93407,9.0987],[-78.93361,9.09471],[-78.93679,9.09103],[-78.93481,9.08827],[-78.93803,9.08491],[-78.93641,9.07292],[-78.93879,9.0721],[-78.93061,9.06381],[-78.92487,9.04922],[-78.9253,9.04135],[-78.92883,9.04097],[-78.93143,9.04427],[-78.93668,9.04163],[-78.96344,9.04992],[-78.97026,9.04768],[-78.98328,9.05037],[-78.98313,9.05238],[-78.98759,9.05293],[-78.98788,9.05692],[-79.00467,9.0621],[-79.01315,9.07151],[-79.02125,9.0713],[-79.03623,9.06491],[-79.03921,9.07388],[-79.05388,9.08097],[-79.05819,9.09057],[-79.07851,9.09791],[-79.08024,9.09496],[-79.08443,9.09617],[-79.08927,9.09339],[-79.11254,9.09581],[-79.13121,9.08996],[-79.13428,9.08632],[-79.13822,9.09356],[-79.15187,9.10058],[-79.15741,9.10132],[-79.16759,9.0966],[-79.18879,9.10074],[-79.19116,9.10653],[-79.20069,9.11544],[-79.21858,9.11591],[-79.23282,9.12739],[-79.23171,9.13388],[-79.2356,9.14739],[-79.2408,9.15491],[-79.23877,9.17103],[-79.23243,9.17764],[-79.22435,9.17925],[-79.22665,9.18661],[-79.21858,9.19488],[-79.21319,9.19712],[-79.21093,9.19531],[-79.19796,9.20367],[-79.19416,9.20324],[-79.1898,9.20691],[-79.1891,9.21179],[-79.17729,9.21531],[-79.1707,9.22103],[-79.15746,9.21887],[-79.1366,9.23278],[-79.10812,9.22339],[-79.09997,9.20302],[-79.09421,9.19815],[-79.09442,9.19085],[-79.0823,9.17629],[-79.07622,9.18862],[-79.07658,9.19431],[-79.06336,9.20722],[-79.05757,9.20861],[-79.05464,9.2125],[-79.01681,9.21696]]]}},{"type":"Feature","properties":{"corregimiento":"Cañita","distrito":"Chepo","provincia":"Panamá","bbox":[-78.9493,9.16023,-78.71615,9.39839]},"geometry":{"type":"Polygon","coordinates":[[[-78.72334,9.39337],[-78.72299,9.3424],[-78.71615,9.34046],[-78.71904,9.32894],[-78.7182,9.31195],[-78.72245,9.30271],[-78.72317,9.29276],[-78.72913,9.28738],[-78.72702,9.27786],[-78.71711,9.27477],[-78.72218,9.26791],[-78.72986,9.26394],[-78.73583,9.25265],[-78.74746,9.25371],[-78.76001,9.24724],[-78.77148,9.25075],[-78.77847,9.24759],[-78.78681,9.24963],[-78.78643,9.24225],[-78.78933,9.24199],[-78.79048,9.23649],[-78.78507,9.2263],[-78.78532,9.21985],[-78.80447,9.21788],[-78.80353,9.22009],[-78.81579,9.21541],[-78.8177,9.21729],[-78.82257,9.2055],[-78.82021,9.20759],[-78.82013,9.20486],[-78.8047,9.20696],[-78.79901,9.20508],[-78.80427,9.20324],[-78.79708,9.20363],[-78.79748,9.20001],[-78.79384,9.20006],[-78.79883,9.19801],[-78.79918,9.19525],[-78.80217,9.19649],[-78.79605,9.18428],[-78.79826,9.17991],[-78.8005,9.18363],[-78.80303,9.18299],[-78.80012,9.18013],[-78.80333,9.17431],[-78.79737,9.17031],[-78.80012,9.16166],[-78.80214,9.16542],[-78.80223,9.16131],[-78.80772,9.16023],[-78.80653,9.16449],[-78.80436,9.16227],[-78.80463,9.16515],[-78.80134,9.16688],[-78.80304,9.16675],[-78.80418,9.17791],[-78.80615,9.17527],[-78.80832,9.17748],[-78.80398,9.17959],[-78.80728,9.18575],[-78.80326,9.18754],[-78.80334,9.19437],[-78.80974,9.20132],[-78.82661,9.20618],[-78.83839,9.20617],[-78.84423,9.2039],[-78.84729,9.19779],[-78.87423,9.19651],[-78.87518,9.19095],[-78.88222,9.19709],[-78.87986,9.20141],[-78.8848,9.20505],[-78.91657,9.20279],[-78.9101,9.2084],[-78.91175,9.21467],[-78.91599,9.21775],[-78.91367,9.22366],[-78.91476,9.23355],[-78.92261,9.24161],[-78.91902,9.25046],[-78.9483,9.25544],[-78.9493,9.33695],[-78.94578,9.33589],[-78.94335,9.33962],[-78.94095,9.32962],[-78.93588,9.32799],[-78.93911,9.31598],[-78.93534,9.31091],[-78.94197,9.3086],[-78.93904,9.30307],[-78.92742,9.30303],[-78.92245,9.31258],[-78.93253,9.31497],[-78.93335,9.32165],[-78.92302,9.32694],[-78.92245,9.3331],[-78.91284,9.33441],[-78.91564,9.33755],[-78.91633,9.35049],[-78.90476,9.35303],[-78.90035,9.36547],[-78.89284,9.37048],[-78.87742,9.37236],[-78.87396,9.36939],[-78.86737,9.37203],[-78.86163,9.36676],[-78.8549,9.37178],[-78.84729,9.36975],[-78.83825,9.37228],[-78.81781,9.36877],[-78.81505,9.38117],[-78.81805,9.3888],[-78.806,9.387],[-78.79204,9.39474],[-78.78523,9.38986],[-78.77642,9.39585],[-78.77057,9.39045],[-78.76289,9.39839],[-78.76085,9.39365],[-78.75183,9.38765],[-78.73846,9.39068],[-78.73074,9.38804],[-78.72334,9.39337]]]}},{"type":"Feature","properties":{"corregimiento":"El Llano","distrito":"Chepo","provincia":"Panamá","bbox":[-79.03078,8.94689,-78.76178,9.34545]},"geometry":{"type":"MultiPolygon","coordinates":[[[[-78.97522,9.34545],[-78.96878,9.34129],[-78.96598,9.34461],[-78.96241,9.34074],[-78.95789,9.34216],[-78.9493,9.33695],[-78.9483,9.25544],[-78.91902,9.25046],[-78.92261,9.24161],[-78.91476,9.23355],[-78.91367,9.22366],[-78.91599,9.21775],[-78.91175,9.21467],[-78.9101,9.2084],[-78.91657,9.20279],[-78.8848,9.20505],[-78.87986,9.20141],[-78.88222,9.19709],[-78.87518,9.19095],[-78.87423,9.19651],[-78.84729,9.19779],[-78.84419,9.20392],[-78.83044,9.20673],[-78.80941,9.20119],[-78.80378,9.1955],[-78.80326,9.18754],[-78.80749,9.18725],[-78.80681,9.18116],[-78.80851,9.1821],[-78.80957,9.17715],[-78.81318,9.17708],[-78.81173,9.18018],[-78.81538,9.17694],[-78.81791,9.17938],[-78.81858,9.17686],[-78.82093,9.17717],[-78.81775,9.18243],[-78.81155,9.18394],[-78.81581,9.18563],[-78.81053,9.18671],[-78.81568,9.18773],[-78.81611,9.19116],[-78.80658,9.19088],[-78.80798,9.19348],[-78.80557,9.19519],[-78.81074,9.19272],[-78.81054,9.19545],[-78.81167,9.19333],[-78.81405,9.19472],[-78.81093,9.20039],[-78.81426,9.20052],[-78.81538,9.19526],[-78.81817,9.19624],[-78.8176,9.19979],[-78.82071,9.19924],[-78.81869,9.19621],[-78.82122,9.19498],[-78.81435,9.19322],[-78.81905,9.19346],[-78.81602,9.18919],[-78.81727,9.18433],[-78.82094,9.18732],[-78.8199,9.18479],[-78.82345,9.18421],[-78.82383,9.19041],[-78.8252,9.18887],[-78.82824,9.19201],[-78.82421,9.19322],[-78.82524,9.19909],[-78.82831,9.20416],[-78.8318,9.20577],[-78.82821,9.20364],[-78.82613,9.19461],[-78.82935,9.19342],[-78.82941,9.19695],[-78.83005,9.19749],[-78.83109,9.19728],[-78.83175,9.19237],[-78.82521,9.18446],[-78.8277,9.18197],[-78.83396,9.18808],[-78.83298,9.18423],[-78.84001,9.18371],[-78.84422,9.17685],[-78.84549,9.18127],[-78.84295,9.18197],[-78.84877,9.1909],[-78.84488,9.19119],[-78.84305,9.19335],[-78.84797,9.19248],[-78.84971,9.19588],[-78.85144,9.19106],[-78.85359,9.19481],[-78.85416,9.19148],[-78.85543,9.19301],[-78.85975,9.18838],[-78.86021,9.17596],[-78.86435,9.17068],[-78.86397,9.18296],[-78.86625,9.18692],[-78.86381,9.19049],[-78.86603,9.18898],[-78.8662,9.18992],[-78.86531,9.1914],[-78.86536,9.19202],[-78.86678,9.19166],[-78.86698,9.19395],[-78.87,9.19545],[-78.86709,9.18633],[-78.87146,9.18509],[-78.8671,9.18332],[-78.86674,9.17239],[-78.87556,9.17988],[-78.87657,9.17763],[-78.88372,9.18139],[-78.88486,9.17855],[-78.88354,9.17548],[-78.87521,9.1726],[-78.87571,9.17023],[-78.87407,9.17258],[-78.87239,9.17107],[-78.87616,9.16208],[-78.87025,9.15962],[-78.87452,9.15923],[-78.87232,9.15757],[-78.8738,9.15414],[-78.87601,9.15409],[-78.87681,9.1534],[-78.87709,9.15153],[-78.87273,9.15374],[-78.8749,9.15076],[-78.87147,9.14892],[-78.8752,9.14697],[-78.86905,9.14727],[-78.86914,9.14227],[-78.865,9.14936],[-78.86463,9.14567],[-78.85838,9.14602],[-78.86238,9.14292],[-78.86019,9.13617],[-78.86304,9.13652],[-78.85629,9.13045],[-78.85815,9.12811],[-78.85664,9.12641],[-78.85784,9.12542],[-78.85963,9.12746],[-78.86085,9.12745],[-78.85932,9.12424],[-78.85703,9.12508],[-78.85528,9.12962],[-78.85374,9.12278],[-78.85187,9.12666],[-78.85008,9.12722],[-78.85311,9.11944],[-78.85859,9.11621],[-78.86751,9.12093],[-78.86605,9.12745],[-78.86989,9.12789],[-78.87228,9.12489],[-78.87532,9.12676],[-78.88298,9.1242],[-78.87506,9.1228],[-78.87151,9.12402],[-78.87017,9.12689],[-78.86681,9.1257],[-78.87,9.11905],[-78.87639,9.11511],[-78.86628,9.11879],[-78.86502,9.1129],[-78.87049,9.11146],[-78.86733,9.10737],[-78.86439,9.11043],[-78.86304,9.10673],[-78.86045,9.10752],[-78.8631,9.11285],[-78.8615,9.11529],[-78.85225,9.10989],[-78.85602,9.10919],[-78.85325,9.10846],[-78.85474,9.10601],[-78.85282,9.10544],[-78.85604,9.10322],[-78.85362,9.10134],[-78.85169,9.10665],[-78.85267,9.10755],[-78.85009,9.10833],[-78.85004,9.10565],[-78.84642,9.10528],[-78.84802,9.10161],[-78.84335,9.10466],[-78.84468,9.10021],[-78.84288,9.10156],[-78.84251,9.09867],[-78.84055,9.0991],[-78.84225,9.10246],[-78.83921,9.10089],[-78.84006,9.10432],[-78.83587,9.09852],[-78.83207,9.1016],[-78.83539,9.09673],[-78.83251,9.09456],[-78.82985,9.09884],[-78.82031,9.09048],[-78.82128,9.09431],[-78.81771,9.09451],[-78.81671,9.08677],[-78.82058,9.08385],[-78.8157,9.08644],[-78.81016,9.08289],[-78.81389,9.08749],[-78.81107,9.08719],[-78.80573,9.08046],[-78.80378,9.08234],[-78.79624,9.07961],[-78.79156,9.08569],[-78.78668,9.08238],[-78.78829,9.07715],[-78.78189,9.07757],[-78.78023,9.0802],[-78.76841,9.07565],[-78.76493,9.0619],[-78.76765,9.05594],[-78.76178,9.04595],[-78.76658,9.0425],[-78.76658,9.03869],[-78.77181,9.04158],[-78.77605,9.03844],[-78.7784,9.03071],[-78.77457,9.02829],[-78.77678,9.02694],[-78.77342,9.02057],[-78.77698,9.01786],[-78.77756,9.0121],[-78.77376,9.01026],[-78.77413,9.00699],[-78.77732,9.00702],[-78.77478,8.99509],[-78.78017,8.98891],[-78.77751,8.98868],[-78.77625,8.98246],[-78.77869,8.98094],[-78.77645,8.97162],[-78.77861,8.94689],[-78.78424,8.95361],[-78.7901,8.96736],[-78.78936,8.97205],[-78.7962,8.97605],[-78.79739,8.9852],[-78.81411,8.9856],[-78.82113,8.99883],[-78.83094,8.99959],[-78.83857,9.00597],[-78.8382,9.01385],[-78.8417,9.02155],[-78.84903,9.02315],[-78.84888,9.01944],[-78.85237,9.01773],[-78.87348,9.01583],[-78.87822,9.0128],[-78.88015,9.02034],[-78.90118,9.02471],[-78.90374,9.03027],[-78.91858,9.03598],[-78.91895,9.04391],[-78.9253,9.04135],[-78.92487,9.04922],[-78.93061,9.06381],[-78.93879,9.0721],[-78.93641,9.07292],[-78.93803,9.08491],[-78.93481,9.08827],[-78.93679,9.09103],[-78.93361,9.09471],[-78.93407,9.0987],[-78.93682,9.09826],[-78.93249,9.11017],[-78.94009,9.11345],[-78.95284,9.12825],[-78.95222,9.13882],[-78.94856,9.14111],[-78.95433,9.1551],[-78.96183,9.15537],[-78.96268,9.16103],[-78.97228,9.1618],[-78.98049,9.17031],[-78.97692,9.17945],[-78.96369,9.18925],[-78.97569,9.19694],[-78.97478,9.21403],[-78.98749,9.20938],[-78.99801,9.21511],[-79.0018,9.21355],[-79.00592,9.21595],[-79.01504,9.21285],[-79.02037,9.21848],[-79.01917,9.22407],[-79.02214,9.22729],[-79.0242,9.24616],[-79.03078,9.25421],[-79.03057,9.26052],[-79.02123,9.27709],[-79.02333,9.29737],[-79.01546,9.2925],[-79.01269,9.29612],[-79.00958,9.2951],[-79.00804,9.29891],[-78.99991,9.30109],[-78.99605,9.29686],[-78.98727,9.30048],[-78.98444,9.30877],[-78.99393,9.31137],[-78.99954,9.31642],[-79.0003,9.33072],[-78.99125,9.34173],[-78.98883,9.34043],[-78.98643,9.34407],[-78.9836,9.3425],[-78.98202,9.34536],[-78.97522,9.34545]]],[[[-78.85741,9.15776],[-78.84973,9.15558],[-78.84643,9.15814],[-78.84634,9.15217],[-78.84367,9.1571],[-78.84394,9.15178],[-78.84202,9.15003],[-78.84195,9.15349],[-78.83931,9.15315],[-78.84083,9.15564],[-78.83647,9.15253],[-78.83733,9.15673],[-78.83455,9.15446],[-78.83362,9.15816],[-78.83061,9.15377],[-78.83521,9.1534],[-78.83304,9.15287],[-78.83466,9.14851],[-78.82997,9.15201],[-78.83042,9.14784],[-78.8265,9.1498],[-78.82884,9.14749],[-78.82582,9.14527],[-78.82273,9.14908],[-78.82319,9.14503],[-78.82026,9.15084],[-78.82028,9.14581],[-78.81748,9.14675],[-78.82024,9.14434],[-78.81371,9.14562],[-78.81682,9.14201],[-78.81197,9.1419],[-78.81159,9.14611],[-78.809,9.14289],[-78.80679,9.14573],[-78.8069,9.13969],[-78.80156,9.13839],[-78.80632,9.13499],[-78.81225,9.13904],[-78.8133,9.13613],[-78.81504,9.13631],[-78.81514,9.13785],[-78.8162,9.13808],[-78.81526,9.13744],[-78.81528,9.13624],[-78.81435,9.13551],[-78.81707,9.13549],[-78.81687,9.13463],[-78.80755,9.13377],[-78.81187,9.13275],[-78.80903,9.13048],[-78.81673,9.12846],[-78.83259,9.13152],[-78.83128,9.13312],[-78.83133,9.13357],[-78.84258,9.13206],[-78.84758,9.12833],[-78.84666,9.13205],[-78.85273,9.12848],[-78.85726,9.13189],[-78.85974,9.14035],[-78.85463,9.14455],[-78.84991,9.14303],[-78.85105,9.14981],[-78.85207,9.147],[-78.85418,9.15157],[-78.85685,9.15164],[-78.84921,9.15306],[-78.85033,9.1554],[-78.85636,9.156],[-78.85665,9.15469],[-78.85881,9.15335],[-78.85741,9.15776]]],[[[-78.85057,9.18697],[-78.85143,9.17898],[-78.8489,9.17365],[-78.83656,9.17483],[-78.83379,9.17013],[-78.83806,9.17206],[-78.8354,9.16999],[-78.83979,9.16843],[-78.83958,9.17057],[-78.84131,9.1714],[-78.84006,9.16647],[-78.84204,9.16808],[-78.84323,9.16808],[-78.84349,9.1675],[-78.84068,9.1649],[-78.83526,9.16847],[-78.83808,9.16415],[-78.83388,9.16233],[-78.83643,9.16254],[-78.83591,9.16001],[-78.84375,9.16232],[-78.8433,9.16004],[-78.83851,9.15963],[-78.84189,9.15591],[-78.84314,9.15962],[-78.84629,9.16111],[-78.84954,9.15844],[-78.85294,9.16167],[-78.85459,9.15906],[-78.85947,9.16189],[-78.8594,9.15772],[-78.86048,9.16198],[-78.86148,9.15669],[-78.86474,9.15509],[-78.86259,9.1618],[-78.8714,9.16311],[-78.86886,9.16397],[-78.86874,9.16849],[-78.86589,9.16537],[-78.85624,9.16891],[-78.85602,9.1655],[-78.85304,9.16453],[-78.85418,9.16875],[-78.84981,9.17084],[-78.85415,9.17182],[-78.85137,9.17519],[-78.85739,9.1711],[-78.85399,9.1754],[-78.85375,9.18448],[-78.85057,9.18697]]]]}},{"type":"Feature","properties":{"corregimiento":"Santa Cruz de Chinina","distrito":"Chepo","provincia":"Panamá","bbox":[-79.17499,8.92721,-78.80616,9.09791]},"geometry":{"type":"Polygon","coordinates":[[[-78.92883,9.04097],[-78.91895,9.04391],[-78.91858,9.03598],[-78.90374,9.03027],[-78.90118,9.02471],[-78.88015,9.02034],[-78.87822,9.0128],[-78.87348,9.01583],[-78.85237,9.01773],[-78.84888,9.01944],[-78.84903,9.02315],[-78.8417,9.02155],[-78.8382,9.01385],[-78.83853,9.00592],[-78.83094,8.99959],[-78.82113,8.99883],[-78.81398,8.98551],[-78.80894,8.98655],[-78.80616,8.9699],[-78.81111,8.96484],[-78.8175,8.96413],[-78.81847,8.96044],[-78.82847,8.96029],[-78.83156,8.95628],[-78.83372,8.95881],[-78.83665,8.95279],[-78.83957,8.95545],[-78.83999,8.95213],[-78.84349,8.9539],[-78.84795,8.95047],[-78.85037,8.95323],[-78.86204,8.95085],[-78.86375,8.94781],[-78.87373,8.95002],[-78.87943,8.94654],[-78.8815,8.94969],[-78.88589,8.94784],[-78.89305,8.9522],[-78.89874,8.95083],[-78.90167,8.94673],[-78.90564,8.94705],[-78.90626,8.94195],[-78.9135,8.94338],[-78.90992,8.94018],[-78.91497,8.93554],[-78.91417,8.9283],[-78.92457,8.92944],[-78.92824,8.92721],[-78.93373,8.93708],[-78.941,8.93223],[-78.95156,8.93601],[-78.9538,8.93951],[-78.9577,8.93775],[-78.95963,8.94196],[-78.96542,8.94197],[-78.96522,8.94526],[-78.96765,8.94387],[-78.97098,8.94684],[-78.97692,8.94459],[-78.97786,8.94845],[-78.98699,8.95451],[-79.01237,8.96659],[-79.0276,8.96999],[-79.03025,8.97747],[-79.03886,8.98351],[-79.04293,8.97508],[-79.08102,8.99104],[-79.09735,8.98574],[-79.10615,8.99441],[-79.10199,9.00204],[-79.09542,9.00551],[-79.09381,9.01837],[-79.09955,9.02179],[-79.11667,9.0029],[-79.1249,9.00042],[-79.13919,9.00928],[-79.16633,9.0133],[-79.17351,9.0211],[-79.17499,9.02982],[-79.17313,9.03434],[-79.15995,9.03793],[-79.15816,9.03257],[-79.16246,9.02191],[-79.15843,9.01852],[-79.15118,9.02968],[-79.15346,9.04272],[-79.13733,9.03875],[-79.14202,9.03061],[-79.13984,9.02849],[-79.13171,9.03524],[-79.13707,9.04695],[-79.12864,9.04796],[-79.12498,9.05252],[-79.12866,9.05665],[-79.13709,9.05372],[-79.13978,9.05705],[-79.13162,9.06336],[-79.13716,9.06651],[-79.13233,9.07246],[-79.13729,9.07222],[-79.14049,9.07707],[-79.13463,9.08374],[-79.14105,9.08793],[-79.13779,9.08917],[-79.13368,9.0864],[-79.13121,9.08996],[-79.11194,9.09591],[-79.08927,9.09339],[-79.08443,9.09617],[-79.08024,9.09496],[-79.07862,9.09791],[-79.05819,9.09057],[-79.05388,9.08097],[-79.03921,9.07388],[-79.03623,9.06491],[-79.02125,9.0713],[-79.01315,9.07151],[-79.00467,9.0621],[-78.98788,9.05692],[-78.98759,9.05293],[-78.98313,9.05238],[-78.98328,9.05037],[-78.97026,9.04768],[-78.96344,9.04992],[-78.93668,9.04163],[-78.93143,9.04427],[-78.92883,9.04097]]]}},{"type":"Feature","properties":{"corregimiento":"Comarca Kuna de Madugandi","distrito":"Chepo","provincia":"Panamá","bbox":[-78.79769,8.92922,-78.06436,9.3996]},"geometry":{"type":"MultiPolygon","coordinates":[[[[-78.69987,9.3996],[-78.69707,9.39224],[-78.68941,9.38793],[-78.68853,9.38473],[-78.67059,9.37639],[-78.66471,9.36236],[-78.65557,9.36163],[-78.65569,9.35753],[-78.64696,9.35765],[-78.64581,9.35381],[-78.6314,9.35503],[-78.63002,9.34477],[-78.62326,9.33739],[-78.60961,9.33986],[-78.59831,9.33713],[-78.59616,9.34248],[-78.58726,9.344],[-78.57289,9.33887],[-78.56299,9.3445],[-78.55353,9.34354],[-78.55036,9.34918],[-78.54074,9.35107],[-78.53934,9.35409],[-78.53509,9.35338],[-78.5364,9.36148],[-78.52722,9.36402],[-78.52685,9.36798],[-78.5141,9.36639],[-78.51205,9.36361],[-78.5098,9.36647],[-78.50108,9.36518],[-78.49705,9.35496],[-78.50456,9.34923],[-78.49555,9.3409],[-78.48277,9.33705],[-78.47869,9.33149],[-78.47973,9.319],[-78.48931,9.31484],[-78.48852,9.30617],[-78.47524,9.29808],[-78.47573,9.27943],[-78.46989,9.27836],[-78.46225,9.26257],[-78.43338,9.26259],[-78.43062,9.26598],[-78.43091,9.27341],[-78.42663,9.27792],[-78.42073,9.27871],[-78.41394,9.28986],[-78.41104,9.28699],[-78.40271,9.28751],[-78.3966,9.29413],[-78.39137,9.29391],[-78.38712,9.27732],[-78.38104,9.27241],[-78.37143,9.2687],[-78.36501,9.27096],[-78.35528,9.26289],[-78.34889,9.26475],[-78.35036,9.27229],[-78.3305,9.27182],[-78.32154,9.28113],[-78.3092,9.28107],[-78.30329,9.26667],[-78.30076,9.24933],[-78.295,9.24105],[-78.29907,9.22894],[-78.29691,9.22398],[-78.292,9.22477],[-78.27938,9.21672],[-78.2715,9.22049],[-78.2659,9.21824],[-78.26549,9.22751],[-78.2566,9.22792],[-78.25648,9.21769],[-78.25227,9.21404],[-78.23722,9.21389],[-78.23389,9.21637],[-78.22095,9.2092],[-78.21086,9.20989],[-78.20753,9.20665],[-78.19483,9.20428],[-78.1845,9.20636],[-78.17383,9.20112],[-78.16374,9.20211],[-78.15756,9.19586],[-78.14618,9.19671],[-78.13496,9.19003],[-78.13012,9.1906],[-78.12776,9.18511],[-78.11619,9.17892],[-78.10998,9.18034],[-78.10936,9.18335],[-78.0974,9.1748],[-78.08713,9.17261],[-78.08728,9.16656],[-78.09374,9.16607],[-78.09533,9.16346],[-78.09184,9.16164],[-78.09106,9.14789],[-78.06897,9.14096],[-78.06436,9.13487],[-78.08,9.12636],[-78.08096,9.1194],[-78.08482,9.11584],[-78.08189,9.11101],[-78.06744,9.10786],[-78.06761,9.09345],[-78.07401,9.08326],[-78.07449,9.07481],[-78.07006,9.07237],[-78.074,9.05932],[-78.09173,9.05179],[-78.08961,9.0453],[-78.09131,9.04188],[-78.09773,9.04002],[-78.09586,9.03387],[-78.11149,9.02821],[-78.11943,9.02114],[-78.12182,9.01315],[-78.12684,9.01441],[-78.127,9.02246],[-78.13766,9.02853],[-78.14546,9.02801],[-78.1709,8.99908],[-78.17386,8.99184],[-78.18027,8.98745],[-78.18111,8.98251],[-78.19007,8.97487],[-78.19389,8.94707],[-78.20875,8.9359],[-78.22899,8.92922],[-78.2475,8.93838],[-78.25364,8.94508],[-78.25812,8.94368],[-78.27996,8.956],[-78.30489,8.95702],[-78.32236,8.95177],[-78.33407,8.95175],[-78.43656,8.95677],[-78.49928,8.98011],[-78.53251,9.0004],[-78.53555,9.00231],[-78.53428,9.00525],[-78.54824,9.01398],[-78.5381,9.02321],[-78.53761,9.03824],[-78.55892,9.05202],[-78.55526,9.05742],[-78.56086,9.06765],[-78.55915,9.0713],[-78.55492,9.0732],[-78.55204,9.06922],[-78.54541,9.08124],[-78.54325,9.07733],[-78.53809,9.07757],[-78.53994,9.07226],[-78.53756,9.06823],[-78.52939,9.06441],[-78.51816,9.07678],[-78.51736,9.07101],[-78.5213,9.06959],[-78.52037,9.06672],[-78.51659,9.06893],[-78.51577,9.0671],[-78.52251,9.06476],[-78.52318,9.06158],[-78.51951,9.05536],[-78.51753,9.0605],[-78.51586,9.0598],[-78.517,9.05638],[-78.51474,9.05432],[-78.51296,9.069],[-78.51266,9.06574],[-78.51215,9.06855],[-78.50878,9.06981],[-78.51148,9.05304],[-78.50536,9.05301],[-78.50807,9.05508],[-78.50467,9.06223],[-78.50386,9.05689],[-78.5066,9.05535],[-78.50107,9.04829],[-78.50476,9.04101],[-78.50197,9.04435],[-78.49945,9.05206],[-78.50553,9.06471],[-78.50082,9.06605],[-78.5046,9.06427],[-78.50201,9.06043],[-78.49742,9.06254],[-78.50134,9.06361],[-78.49947,9.06891],[-78.49882,9.06591],[-78.49453,9.06911],[-78.49787,9.07381],[-78.49112,9.07176],[-78.49062,9.06324],[-78.48948,9.0668],[-78.48981,9.06479],[-78.48308,9.06785],[-78.4831,9.0707],[-78.48677,9.06792],[-78.49047,9.07121],[-78.49033,9.07339],[-78.48784,9.07308],[-78.48765,9.07384],[-78.48585,9.07356],[-78.48574,9.0738],[-78.48546,9.07359],[-78.48453,9.07402],[-78.48704,9.07555],[-78.48463,9.08095],[-78.48023,9.07584],[-78.4825,9.07364],[-78.48264,9.07252],[-78.47709,9.0774],[-78.47301,9.0721],[-78.46991,9.07512],[-78.46877,9.07375],[-78.46658,9.07325],[-78.46782,9.07247],[-78.46905,9.06807],[-78.46524,9.07443],[-78.47022,9.07597],[-78.47364,9.07491],[-78.47382,9.08257],[-78.47687,9.07803],[-78.47819,9.0785],[-78.47408,9.08264],[-78.47439,9.08386],[-78.48199,9.08004],[-78.48125,9.0832],[-78.49189,9.08315],[-78.49395,9.08655],[-78.49636,9.08435],[-78.49573,9.0816],[-78.49592,9.0807],[-78.49637,9.07986],[-78.49591,9.08156],[-78.49654,9.0838],[-78.49649,9.08427],[-78.49611,9.08512],[-78.49426,9.08685],[-78.48721,9.08502],[-78.4894,9.08942],[-78.48473,9.08757],[-78.48239,9.0926],[-78.47673,9.08702],[-78.47644,9.09203],[-78.46389,9.09185],[-78.4699,9.0983],[-78.46553,9.0979],[-78.46804,9.09945],[-78.46561,9.1021],[-78.48467,9.09733],[-78.48609,9.09873],[-78.484,9.0987],[-78.48161,9.10005],[-78.48589,9.09943],[-78.48674,9.10166],[-78.48906,9.104],[-78.48635,9.09911],[-78.49036,9.09785],[-78.49497,9.09093],[-78.49363,9.08766],[-78.49654,9.08551],[-78.49685,9.08235],[-78.49845,9.08133],[-78.49759,9.08553],[-78.50128,9.08627],[-78.49791,9.08726],[-78.49788,9.09263],[-78.49377,9.09689],[-78.49774,9.09636],[-78.49433,9.09886],[-78.49613,9.10126],[-78.49522,9.09895],[-78.49923,9.0993],[-78.49733,9.09361],[-78.50144,9.08652],[-78.50334,9.09016],[-78.49904,9.09521],[-78.49992,9.10064],[-78.49628,9.09969],[-78.49681,9.10477],[-78.49881,9.10423],[-78.49962,9.10662],[-78.50064,9.10714],[-78.49515,9.10628],[-78.49581,9.10303],[-78.49346,9.10088],[-78.49042,9.1044],[-78.49463,9.10368],[-78.49482,9.10737],[-78.49169,9.10671],[-78.49388,9.10924],[-78.50026,9.10881],[-78.50176,9.10604],[-78.49969,9.10512],[-78.50359,9.10337],[-78.5111,9.10906],[-78.50955,9.11365],[-78.51344,9.11256],[-78.51455,9.1162],[-78.50971,9.12194],[-78.50769,9.11756],[-78.50848,9.12275],[-78.50346,9.12476],[-78.50727,9.12443],[-78.50644,9.12525],[-78.50567,9.12692],[-78.50768,9.12489],[-78.5082,9.12662],[-78.51164,9.12834],[-78.51439,9.12133],[-78.52007,9.12652],[-78.5192,9.12445],[-78.528,9.12468],[-78.55011,9.12941],[-78.54678,9.1337],[-78.5399,9.1334],[-78.53963,9.13596],[-78.54419,9.13385],[-78.54526,9.13587],[-78.54707,9.13579],[-78.54533,9.13414],[-78.54905,9.1346],[-78.54805,9.1327],[-78.55327,9.12903],[-78.55222,9.12994],[-78.55248,9.13156],[-78.55537,9.13135],[-78.55307,9.13256],[-78.55661,9.13154],[-78.55397,9.1376],[-78.55722,9.14052],[-78.55517,9.1375],[-78.55807,9.13257],[-78.55604,9.12863],[-78.56197,9.12955],[-78.56029,9.13153],[-78.56266,9.13068],[-78.56373,9.13493],[-78.56528,9.13016],[-78.57195,9.13021],[-78.57319,9.13275],[-78.57424,9.13307],[-78.5825,9.12975],[-78.57949,9.1322],[-78.5823,9.1319],[-78.57952,9.13674],[-78.59308,9.14214],[-78.58655,9.14722],[-78.5909,9.14738],[-78.6048,9.13632],[-78.60474,9.13861],[-78.61069,9.13896],[-78.60966,9.14178],[-78.61218,9.14171],[-78.60755,9.14609],[-78.60493,9.14413],[-78.60375,9.14462],[-78.60574,9.14597],[-78.60152,9.14964],[-78.60301,9.15206],[-78.59857,9.15108],[-78.5977,9.15221],[-78.60193,9.15272],[-78.60192,9.16055],[-78.60476,9.15929],[-78.60294,9.16127],[-78.60501,9.15936],[-78.60216,9.15432],[-78.60409,9.15221],[-78.60335,9.15051],[-78.60547,9.14878],[-78.60743,9.15002],[-78.60708,9.15185],[-78.60784,9.15243],[-78.60846,9.14952],[-78.60554,9.14715],[-78.61069,9.14619],[-78.61046,9.14882],[-78.61175,9.14858],[-78.61328,9.14331],[-78.61556,9.14596],[-78.61345,9.14811],[-78.61554,9.1467],[-78.61603,9.14907],[-78.61379,9.15201],[-78.61735,9.15247],[-78.61641,9.1463],[-78.61843,9.14728],[-78.62125,9.14779],[-78.61458,9.14422],[-78.61734,9.14248],[-78.61277,9.13936],[-78.61901,9.13284],[-78.61662,9.13572],[-78.6182,9.14183],[-78.62306,9.14259],[-78.62895,9.12878],[-78.63324,9.13657],[-78.63122,9.13765],[-78.63776,9.1394],[-78.63524,9.14044],[-78.63755,9.14064],[-78.6359,9.14573],[-78.63402,9.14492],[-78.63529,9.14687],[-78.62882,9.14442],[-78.63098,9.1465],[-78.62823,9.14731],[-78.64345,9.15141],[-78.64971,9.14618],[-78.64974,9.14996],[-78.6441,9.15143],[-78.64697,9.15288],[-78.65049,9.15061],[-78.65161,9.15447],[-78.64996,9.15298],[-78.64719,9.15655],[-78.65211,9.15649],[-78.65285,9.15038],[-78.65651,9.14799],[-78.65669,9.15091],[-78.65869,9.15012],[-78.65429,9.15417],[-78.665,9.15813],[-78.66169,9.15365],[-78.66656,9.15271],[-78.66907,9.15932],[-78.67147,9.15786],[-78.66712,9.15082],[-78.66479,9.15263],[-78.65802,9.14672],[-78.65423,9.14846],[-78.65315,9.14201],[-78.64533,9.14406],[-78.64483,9.14644],[-78.63945,9.14528],[-78.63884,9.14261],[-78.64647,9.14156],[-78.64316,9.13949],[-78.64505,9.13884],[-78.64614,9.14017],[-78.64737,9.14026],[-78.64411,9.13671],[-78.64242,9.14013],[-78.64321,9.14143],[-78.63945,9.14067],[-78.63841,9.14273],[-78.63858,9.13608],[-78.64129,9.14],[-78.64155,9.1347],[-78.63509,9.13606],[-78.6324,9.12944],[-78.64675,9.13086],[-78.65629,9.13669],[-78.6535,9.13327],[-78.65724,9.13253],[-78.65414,9.12925],[-78.65994,9.12785],[-78.66519,9.13462],[-78.6691,9.13374],[-78.66242,9.12834],[-78.66575,9.12732],[-78.66207,9.12598],[-78.66357,9.12318],[-78.65817,9.12588],[-78.6541,9.12325],[-78.65631,9.12221],[-78.65592,9.11702],[-78.65877,9.1164],[-78.65522,9.11445],[-78.65898,9.10694],[-78.65792,9.09482],[-78.65072,9.10844],[-78.6466,9.1071],[-78.64358,9.12394],[-78.63444,9.12226],[-78.63315,9.12453],[-78.63212,9.12195],[-78.63681,9.1212],[-78.63712,9.12019],[-78.62718,9.11808],[-78.63039,9.10981],[-78.62844,9.10603],[-78.63282,9.10258],[-78.63163,9.09798],[-78.62928,9.09701],[-78.62786,9.10244],[-78.62668,9.0988],[-78.62489,9.10214],[-78.6189,9.09873],[-78.6188,9.10123],[-78.62408,9.10331],[-78.6213,9.10544],[-78.62463,9.10963],[-78.61997,9.10995],[-78.62104,9.11271],[-78.61766,9.11598],[-78.62225,9.11991],[-78.62033,9.12379],[-78.61881,9.12283],[-78.6122,9.12598],[-78.6181,9.12697],[-78.61939,9.12405],[-78.62483,9.12327],[-78.62212,9.13622],[-78.61896,9.13089],[-78.61261,9.1365],[-78.60377,9.13331],[-78.59562,9.13893],[-78.58883,9.13444],[-78.58419,9.13467],[-78.5849,9.13189],[-78.60359,9.12697],[-78.59994,9.12429],[-78.60423,9.12182],[-78.60293,9.11994],[-78.60373,9.1189],[-78.60693,9.12211],[-78.60568,9.11817],[-78.61003,9.10948],[-78.60861,9.10114],[-78.60153,9.10198],[-78.60623,9.0976],[-78.60237,9.09705],[-78.59798,9.10066],[-78.60261,9.09047],[-78.60023,9.08788],[-78.59427,9.09936],[-78.59181,9.0908],[-78.59578,9.0847],[-78.59528,9.07777],[-78.61973,9.07381],[-78.63488,9.07521],[-78.64649,9.08586],[-78.67471,9.07915],[-78.68015,9.08305],[-78.67979,9.09223],[-78.68794,9.09299],[-78.69746,9.09932],[-78.71288,9.10306],[-78.71303,9.10802],[-78.71407,9.10331],[-78.73173,9.10406],[-78.72811,9.10657],[-78.7335,9.10654],[-78.73412,9.1097],[-78.72946,9.10852],[-78.73104,9.1111],[-78.72782,9.11173],[-78.72925,9.10991],[-78.72675,9.10906],[-78.72605,9.11282],[-78.72542,9.11038],[-78.7243,9.11337],[-78.72254,9.11172],[-78.7235,9.11489],[-78.72093,9.11719],[-78.72036,9.11415],[-78.71932,9.11563],[-78.71771,9.11441],[-78.7211,9.11115],[-78.71732,9.11155],[-78.72393,9.10976],[-78.72268,9.10638],[-78.72017,9.10858],[-78.71775,9.10569],[-78.71576,9.11317],[-78.71396,9.10967],[-78.71456,9.11244],[-78.70906,9.11178],[-78.7087,9.10841],[-78.71196,9.10829],[-78.70955,9.10682],[-78.70764,9.10945],[-78.69976,9.10745],[-78.71973,9.11845],[-78.72219,9.1224],[-78.71692,9.12836],[-78.71071,9.12858],[-78.71148,9.13114],[-78.70188,9.12717],[-78.70241,9.13099],[-78.70567,9.12931],[-78.70847,9.13317],[-78.71164,9.13263],[-78.70861,9.13518],[-78.70555,9.13334],[-78.70749,9.13881],[-78.71593,9.13236],[-78.71228,9.13904],[-78.7171,9.13348],[-78.71434,9.13895],[-78.71958,9.13578],[-78.71663,9.13901],[-78.71598,9.14122],[-78.71828,9.13941],[-78.71802,9.14198],[-78.71867,9.14361],[-78.71874,9.13985],[-78.72035,9.13667],[-78.72003,9.13977],[-78.72415,9.14021],[-78.72219,9.14207],[-78.72677,9.1433],[-78.72518,9.14561],[-78.72129,9.14366],[-78.72468,9.14631],[-78.72343,9.14847],[-78.71695,9.14679],[-78.7185,9.14853],[-78.71407,9.14982],[-78.72139,9.14992],[-78.71593,9.15209],[-78.72378,9.15582],[-78.71893,9.15408],[-78.71587,9.15542],[-78.72306,9.1568],[-78.72335,9.16055],[-78.72407,9.1605],[-78.72321,9.15647],[-78.72556,9.1566],[-78.72392,9.15508],[-78.72793,9.14954],[-78.72943,9.15614],[-78.73505,9.1533],[-78.73071,9.15223],[-78.73434,9.14852],[-78.73192,9.14471],[-78.73388,9.13748],[-78.7366,9.13944],[-78.73383,9.14054],[-78.73364,9.14475],[-78.73561,9.14676],[-78.73749,9.1444],[-78.73835,9.14786],[-78.7414,9.14645],[-78.74013,9.14398],[-78.74315,9.14578],[-78.74305,9.14329],[-78.74515,9.14648],[-78.74539,9.13999],[-78.74698,9.14289],[-78.74939,9.14045],[-78.74719,9.13783],[-78.75247,9.13722],[-78.75305,9.1394],[-78.74808,9.1421],[-78.75021,9.14504],[-78.74754,9.14577],[-78.75005,9.14784],[-78.74923,9.14596],[-78.75252,9.14548],[-78.75104,9.14482],[-78.75106,9.14282],[-78.75452,9.14387],[-78.75255,9.14823],[-78.75518,9.14676],[-78.7552,9.1502],[-78.74819,9.15108],[-78.74827,9.14693],[-78.7434,9.14806],[-78.74607,9.14951],[-78.74282,9.15109],[-78.74213,9.14832],[-78.74011,9.15156],[-78.73753,9.14922],[-78.73982,9.15297],[-78.7369,9.15412],[-78.74267,9.15404],[-78.74153,9.15704],[-78.7347,9.15823],[-78.73712,9.15871],[-78.73512,9.15981],[-78.73495,9.16076],[-78.74212,9.15926],[-78.74434,9.1552],[-78.74659,9.15855],[-78.75173,9.15912],[-78.74312,9.16131],[-78.74395,9.16489],[-78.74752,9.16151],[-78.7556,9.16558],[-78.75386,9.16034],[-78.75832,9.16108],[-78.75741,9.16571],[-78.76514,9.16774],[-78.76098,9.17364],[-78.76388,9.17292],[-78.76612,9.16708],[-78.7712,9.16934],[-78.77565,9.16561],[-78.77242,9.16946],[-78.77383,9.16994],[-78.77619,9.16588],[-78.77649,9.16774],[-78.77718,9.16848],[-78.77743,9.16556],[-78.78135,9.16429],[-78.78209,9.16859],[-78.78307,9.16382],[-78.78678,9.16338],[-78.78622,9.16893],[-78.78439,9.16861],[-78.78299,9.17004],[-78.78552,9.17152],[-78.78812,9.16779],[-78.79198,9.17176],[-78.79344,9.16874],[-78.79769,9.175],[-78.79121,9.1775],[-78.79336,9.17908],[-78.79115,9.18367],[-78.78464,9.18326],[-78.78488,9.18108],[-78.78246,9.18314],[-78.78845,9.18394],[-78.791,9.18796],[-78.79184,9.18568],[-78.79238,9.18955],[-78.78965,9.19076],[-78.79218,9.19235],[-78.77682,9.18844],[-78.7784,9.18705],[-78.7744,9.1848],[-78.77557,9.18861],[-78.77066,9.18907],[-78.76913,9.19193],[-78.76723,9.18848],[-78.76565,9.1912],[-78.76165,9.18865],[-78.75866,9.18832],[-78.76504,9.19223],[-78.76745,9.19083],[-78.77082,9.19542],[-78.75011,9.19739],[-78.75107,9.20024],[-78.74766,9.19816],[-78.74874,9.20245],[-78.74287,9.20087],[-78.74455,9.20285],[-78.74413,9.20333],[-78.73892,9.20003],[-78.72426,9.19835],[-78.72548,9.20216],[-78.72119,9.20411],[-78.70321,9.1962],[-78.69287,9.19737],[-78.68951,9.1907],[-78.69161,9.19005],[-78.6872,9.18825],[-78.69671,9.18786],[-78.69448,9.18483],[-78.68088,9.18827],[-78.67915,9.18345],[-78.67745,9.18677],[-78.67487,9.18407],[-78.66287,9.18272],[-78.65151,9.18725],[-78.64547,9.18285],[-78.65022,9.18109],[-78.64562,9.18086],[-78.65173,9.17545],[-78.64695,9.17647],[-78.64731,9.16973],[-78.64981,9.1723],[-78.65142,9.1701],[-78.65387,9.17221],[-78.65565,9.17173],[-78.65158,9.16942],[-78.64959,9.17073],[-78.64716,9.16441],[-78.6542,9.16082],[-78.65608,9.16371],[-78.65608,9.15933],[-78.66057,9.16019],[-78.6593,9.16196],[-78.65931,9.16414],[-78.65996,9.16178],[-78.66311,9.16312],[-78.66214,9.15973],[-78.65734,9.15892],[-78.65934,9.15604],[-78.6562,9.1553],[-78.65043,9.16011],[-78.64714,9.15829],[-78.64718,9.16174],[-78.64268,9.15861],[-78.64159,9.15978],[-78.64074,9.15688],[-78.63868,9.15755],[-78.64326,9.16111],[-78.64311,9.16358],[-78.63967,9.16183],[-78.63942,9.16364],[-78.64261,9.16532],[-78.64186,9.16401],[-78.64379,9.16379],[-78.64368,9.16136],[-78.64616,9.1624],[-78.64473,9.1697],[-78.63947,9.17026],[-78.64004,9.17345],[-78.63709,9.17442],[-78.63425,9.17132],[-78.63316,9.17145],[-78.63613,9.17552],[-78.63974,9.17526],[-78.6368,9.17971],[-78.62881,9.17806],[-78.63256,9.18376],[-78.62423,9.18014],[-78.62634,9.18259],[-78.61924,9.18059],[-78.61943,9.18426],[-78.61483,9.18496],[-78.61043,9.17982],[-78.60992,9.18218],[-78.59854,9.18437],[-78.60231,9.18748],[-78.60378,9.18447],[-78.60862,9.184],[-78.6075,9.18759],[-78.61138,9.18443],[-78.61062,9.18946],[-78.62165,9.18622],[-78.62037,9.18801],[-78.62079,9.18906],[-78.62529,9.18451],[-78.62084,9.19325],[-78.6287,9.18732],[-78.63167,9.19148],[-78.62813,9.18963],[-78.62151,9.19785],[-78.61288,9.19928],[-78.61715,9.19935],[-78.61653,9.20086],[-78.61705,9.20134],[-78.61856,9.19928],[-78.62241,9.20093],[-78.62432,9.19608],[-78.63154,9.19306],[-78.63196,9.19945],[-78.63339,9.19152],[-78.64387,9.18976],[-78.64152,9.19335],[-78.63485,9.1939],[-78.63917,9.19564],[-78.6395,9.19866],[-78.64062,9.19675],[-78.64134,9.19938],[-78.64624,9.19988],[-78.64302,9.20655],[-78.65325,9.20115],[-78.65789,9.20398],[-78.65581,9.20457],[-78.65729,9.21],[-78.66861,9.20567],[-78.67058,9.20903],[-78.66587,9.21001],[-78.67072,9.21533],[-78.67043,9.21121],[-78.67282,9.2121],[-78.67204,9.21714],[-78.66866,9.21743],[-78.67371,9.22288],[-78.67606,9.22286],[-78.67301,9.21878],[-78.67562,9.21985],[-78.67543,9.21459],[-78.68009,9.21488],[-78.67917,9.22005],[-78.67986,9.21733],[-78.68202,9.21916],[-78.68284,9.21446],[-78.68652,9.217],[-78.69534,9.21507],[-78.69619,9.21797],[-78.69276,9.22087],[-78.68545,9.22087],[-78.68987,9.2278],[-78.68262,9.22987],[-78.68693,9.22957],[-78.68992,9.23437],[-78.69263,9.22728],[-78.69015,9.22276],[-78.69418,9.22392],[-78.69459,9.22081],[-78.69909,9.22109],[-78.70059,9.21606],[-78.70221,9.22158],[-78.70414,9.22214],[-78.70341,9.2176],[-78.71083,9.21441],[-78.71011,9.21677],[-78.71459,9.2179],[-78.71159,9.22112],[-78.71197,9.22311],[-78.71746,9.21919],[-78.71958,9.22326],[-78.72319,9.22238],[-78.71902,9.22934],[-78.71667,9.22867],[-78.72048,9.23445],[-78.71831,9.2369],[-78.71862,9.2375],[-78.71944,9.23796],[-78.72071,9.2346],[-78.71861,9.23073],[-78.72387,9.22496],[-78.72581,9.22743],[-78.72486,9.22468],[-78.72965,9.22247],[-78.72843,9.22408],[-78.7285,9.22619],[-78.7294,9.22674],[-78.73428,9.22175],[-78.73584,9.22891],[-78.73882,9.21873],[-78.73797,9.22322],[-78.74234,9.22215],[-78.74035,9.22469],[-78.74643,9.22258],[-78.74721,9.22597],[-78.74747,9.22238],[-78.74957,9.22466],[-78.75088,9.22173],[-78.75123,9.22443],[-78.75517,9.22285],[-78.75108,9.22694],[-78.75753,9.22891],[-78.75469,9.23385],[-78.75627,9.23645],[-78.7552,9.23373],[-78.75815,9.23118],[-78.76037,9.23255],[-78.75871,9.23036],[-78.75889,9.22955],[-78.76508,9.23018],[-78.75883,9.22878],[-78.75857,9.227],[-78.75976,9.22773],[-78.75948,9.22704],[-78.76149,9.22772],[-78.76245,9.22701],[-78.75819,9.22553],[-78.76006,9.22473],[-78.75781,9.21933],[-78.76462,9.22196],[-78.76391,9.21873],[-78.76705,9.21861],[-78.76567,9.21991],[-78.76912,9.22016],[-78.76966,9.22321],[-78.7726,9.21871],[-78.77125,9.22419],[-78.77207,9.22741],[-78.77471,9.22111],[-78.77482,9.2232],[-78.78086,9.22094],[-78.77974,9.22356],[-78.78508,9.22133],[-78.78355,9.22564],[-78.78792,9.22909],[-78.78718,9.23432],[-78.79047,9.23638],[-78.78933,9.24199],[-78.78643,9.24225],[-78.78681,9.24963],[-78.77847,9.24759],[-78.77148,9.25075],[-78.76001,9.24724],[-78.74746,9.25371],[-78.73583,9.25265],[-78.72986,9.26394],[-78.72218,9.26791],[-78.71711,9.27477],[-78.72702,9.27786],[-78.72913,9.28738],[-78.72317,9.29276],[-78.72245,9.30271],[-78.7182,9.31195],[-78.71904,9.32894],[-78.71615,9.34046],[-78.72299,9.3424],[-78.72334,9.39337],[-78.71626,9.3957],[-78.71138,9.39418],[-78.7058,9.39886],[-78.69987,9.3996]]],[[[-78.56993,9.11635],[-78.56615,9.11462],[-78.57267,9.10946],[-78.57253,9.10221],[-78.57034,9.10928],[-78.56819,9.10662],[-78.56841,9.11049],[-78.56514,9.10566],[-78.55899,9.10327],[-78.56614,9.09985],[-78.56222,9.09495],[-78.56405,9.09476],[-78.56391,9.09394],[-78.56065,9.09382],[-78.56152,9.0875],[-78.56491,9.09124],[-78.56405,9.08815],[-78.56613,9.0878],[-78.56298,9.08754],[-78.56336,9.08426],[-78.56914,9.08517],[-78.56259,9.08122],[-78.55604,9.08209],[-78.55774,9.07604],[-78.56367,9.07451],[-78.57466,9.08201],[-78.59279,9.07776],[-78.58579,9.09245],[-78.58294,9.09221],[-78.58836,9.10507],[-78.58433,9.10438],[-78.58449,9.09597],[-78.58122,9.09566],[-78.5828,9.0995],[-78.5787,9.1006],[-78.58134,9.10155],[-78.58107,9.10485],[-78.5753,9.10511],[-78.57892,9.10746],[-78.57881,9.11269],[-78.56993,9.11635]]]]}},{"type":"Feature","properties":{"corregimiento":"Tortí","distrito":"Chepo","provincia":"Panamá","bbox":[-78.78017,8.79274,-78.12545,9.10587]},"geometry":{"type":"Polygon","coordinates":[[[-78.7322,9.10205],[-78.71691,9.10481],[-78.70664,9.10166],[-78.70622,9.09621],[-78.70407,9.09678],[-78.70452,9.10108],[-78.68794,9.09299],[-78.68176,9.09338],[-78.67824,9.09001],[-78.68015,9.08305],[-78.67456,9.07912],[-78.64649,9.08586],[-78.63626,9.07555],[-78.61973,9.07381],[-78.58751,9.07756],[-78.57438,9.08193],[-78.55833,9.07326],[-78.56141,9.06906],[-78.5561,9.06227],[-78.5579,9.05075],[-78.53761,9.03824],[-78.5381,9.02321],[-78.54824,9.01398],[-78.53428,9.00525],[-78.53555,9.00231],[-78.49928,8.98011],[-78.42726,8.9547],[-78.38896,8.95551],[-78.32236,8.95177],[-78.30489,8.95702],[-78.27996,8.956],[-78.25812,8.94368],[-78.25364,8.94508],[-78.25147,8.94099],[-78.23619,8.9323],[-78.22498,8.92922],[-78.20875,8.9359],[-78.19389,8.94707],[-78.19007,8.97487],[-78.18111,8.98251],[-78.18027,8.98745],[-78.17386,8.99184],[-78.1709,8.99908],[-78.14546,9.02801],[-78.13766,9.02853],[-78.12654,9.02171],[-78.12545,9.01318],[-78.13542,8.9988],[-78.13232,8.98165],[-78.12742,8.98145],[-78.12826,8.97264],[-78.13692,8.95729],[-78.15989,8.94893],[-78.16631,8.94186],[-78.17156,8.94236],[-78.17581,8.9375],[-78.1753,8.92558],[-78.17937,8.91741],[-78.17731,8.90802],[-78.18008,8.90459],[-78.17483,8.89826],[-78.17572,8.8912],[-78.17208,8.88723],[-78.17111,8.87735],[-78.17421,8.87139],[-78.19642,8.86726],[-78.19932,8.87151],[-78.20802,8.86981],[-78.21053,8.87352],[-78.22176,8.87627],[-78.22761,8.86748],[-78.22993,8.87538],[-78.23678,8.87628],[-78.24105,8.88715],[-78.24865,8.88566],[-78.24928,8.89114],[-78.25504,8.89235],[-78.26112,8.8853],[-78.26927,8.88162],[-78.27715,8.87141],[-78.28855,8.86553],[-78.29111,8.86017],[-78.30563,8.86877],[-78.30822,8.86032],[-78.31552,8.85287],[-78.31332,8.84676],[-78.32316,8.8414],[-78.32719,8.81981],[-78.33213,8.81916],[-78.327,8.81107],[-78.3326,8.80532],[-78.33917,8.80353],[-78.35584,8.81075],[-78.35379,8.81226],[-78.35494,8.81865],[-78.36527,8.82373],[-78.3633,8.83711],[-78.36504,8.84498],[-78.36096,8.84796],[-78.36204,8.85035],[-78.37041,8.85337],[-78.37976,8.85196],[-78.38362,8.84826],[-78.38981,8.84956],[-78.38882,8.85215],[-78.3963,8.84976],[-78.4041,8.85845],[-78.412,8.86116],[-78.41973,8.84669],[-78.42734,8.84373],[-78.43019,8.83929],[-78.45939,8.83973],[-78.4628,8.83662],[-78.4686,8.82503],[-78.46348,8.81913],[-78.46397,8.81125],[-78.46698,8.81103],[-78.47031,8.80539],[-78.48081,8.80455],[-78.48856,8.79874],[-78.49825,8.80457],[-78.50076,8.79882],[-78.50702,8.79811],[-78.51107,8.79274],[-78.51494,8.798],[-78.52014,8.79848],[-78.52632,8.80703],[-78.53226,8.80914],[-78.53256,8.82093],[-78.54458,8.8177],[-78.56409,8.8345],[-78.5643,8.84441],[-78.5605,8.85244],[-78.56821,8.86837],[-78.59927,8.88288],[-78.59908,8.88878],[-78.60464,8.89682],[-78.61229,8.89841],[-78.62033,8.90462],[-78.62498,8.91431],[-78.62888,8.91582],[-78.62777,8.92109],[-78.61723,8.92609],[-78.61955,8.94426],[-78.63089,8.94864],[-78.63811,8.94486],[-78.63412,8.93964],[-78.63545,8.9338],[-78.643,8.93164],[-78.6477,8.93366],[-78.64986,8.9293],[-78.654,8.92813],[-78.66146,8.92916],[-78.66766,8.93534],[-78.68475,8.93676],[-78.69319,8.94098],[-78.70913,8.93899],[-78.71285,8.93585],[-78.73675,8.94911],[-78.74851,8.94536],[-78.75258,8.93434],[-78.76256,8.93767],[-78.77361,8.9358],[-78.77877,8.93772],[-78.77645,8.97162],[-78.77869,8.98094],[-78.77625,8.98246],[-78.77751,8.98868],[-78.78017,8.98891],[-78.77478,8.99509],[-78.77732,9.00702],[-78.77413,9.00699],[-78.77376,9.01026],[-78.77756,9.0121],[-78.77698,9.01786],[-78.77342,9.02057],[-78.77678,9.02694],[-78.77457,9.02829],[-78.7784,9.03071],[-78.77605,9.03844],[-78.77181,9.04158],[-78.76658,9.03869],[-78.76658,9.0425],[-78.76184,9.04572],[-78.76331,9.05199],[-78.76765,9.05594],[-78.76493,9.0619],[-78.76841,9.07567],[-78.75704,9.0751],[-78.76022,9.08168],[-78.75518,9.08534],[-78.75441,9.09008],[-78.76525,9.10221],[-78.76189,9.10255],[-78.76198,9.10587],[-78.75708,9.1034],[-78.75832,9.09943],[-78.75109,9.09239],[-78.75445,9.08496],[-78.75027,9.08215],[-78.74762,9.0873],[-78.74558,9.08837],[-78.74636,9.08117],[-78.74318,9.0808],[-78.74123,9.08401],[-78.73702,9.0778],[-78.74015,9.09178],[-78.73692,9.08399],[-78.73524,9.0854],[-78.73216,9.0807],[-78.72873,9.08246],[-78.72937,9.07853],[-78.7263,9.07831],[-78.72139,9.08267],[-78.7254,9.08255],[-78.72601,9.08783],[-78.7216,9.08772],[-78.71888,9.09188],[-78.72655,9.09021],[-78.7264,9.09201],[-78.72374,9.09265],[-78.72246,9.09356],[-78.7224,9.0943],[-78.72617,9.09477],[-78.72497,9.09867],[-78.7294,9.09715],[-78.7275,9.10224],[-78.7334,9.1007],[-78.73441,9.10381],[-78.7322,9.10205]],[[-78.70791,9.10023],[-78.71239,9.10117],[-78.7128,9.10079],[-78.70791,9.10023]]]}},{"type":"Feature","properties":{"corregimiento":"Chepillo","distrito":"Chepo","provincia":"Panamá","bbox":[-79.13261,8.94393,-79.12409,8.95952]},"geometry":{"type":"Polygon","coordinates":[[[-79.13053,8.95952],[-79.12938,8.95508],[-79.12409,8.95155],[-79.12987,8.94393],[-79.13163,8.9448],[-79.12886,8.94946],[-79.13261,8.95452],[-79.13053,8.95952]]]}}]}