{"type":"FeatureCollection","features":[{"type":"Feature","properties":{"corregimiento":"Pásiga","distrito":"Chimán","provincia":"Panamá","bbox":[-78.91631,8.81335,-78.73066,8.98699]},"geometry":{"type":"Polygon","coordinates":[[[-78.77861,8.94689],[-78.77871,8.93766],[-78.77361,8.9358],[-78.76256,8.93767],[-78.7529,8.9343],[-78.74851,8.94536],[-78.7452,8.93786],[-78.73189,8.92847],[-78.73066,8.91778],[-78.74447,8.90972],[-78.74108,8.90632],[-78.75304,8.90412],[-78.75131,8.89818],[-78.75582,8.89649],[-78.75096,8.8949],[-78.7504,8.89047],[-78.75602,8.88815],[-78.7629,8.87969],[-78.76706,8.87824],[-78.7698,8.88146],[-78.76989,8.87589],[-78.7728,8.87706],[-78.77328,8.87468],[-78.76922,8.87059],[-78.77332,8.87068],[-78.78201,8.85932],[-78.78651,8.86275],[-78.79359,8.86037],[-78.79391,8.8538],[-78.79885,8.84743],[-78.79638,8.83451],[-78.81845,8.83116],[-78.82385,8.82117],[-78.82905,8.82125],[-78.8346,8.81337],[-78.83984,8.81335],[-78.85382,8.82329],[-78.85841,8.83007],[-78.8615,8.82814],[-78.87831,8.86531],[-78.8757,8.86675],[-78.88035,8.86742],[-78.87703,8.87539],[-78.88042,8.87791],[-78.88591,8.89141],[-78.88464,8.89371],[-78.89063,8.8944],[-78.89195,8.90259],[-78.89937,8.90378],[-78.89874,8.90778],[-78.90479,8.908],[-78.91055,8.91347],[-78.90767,8.9175],[-78.90835,8.92239],[-78.91226,8.92591],[-78.91631,8.92382],[-78.91335,8.93055],[-78.91497,8.93554],[-78.90993,8.94013],[-78.91372,8.94291],[-78.90707,8.94156],[-78.90459,8.94327],[-78.90552,8.94716],[-78.90167,8.94673],[-78.90042,8.95007],[-78.89334,8.95221],[-78.88589,8.94784],[-78.88142,8.94967],[-78.87943,8.94654],[-78.87373,8.95002],[-78.86375,8.94781],[-78.86204,8.95085],[-78.85037,8.95323],[-78.84795,8.95047],[-78.84349,8.9539],[-78.83999,8.95213],[-78.83957,8.95545],[-78.83654,8.95281],[-78.83372,8.95881],[-78.83156,8.95628],[-78.82847,8.96029],[-78.81847,8.96044],[-78.8175,8.96413],[-78.81111,8.96484],[-78.80616,8.9699],[-78.80788,8.98699],[-78.80292,8.98383],[-78.79735,8.98515],[-78.7962,8.97605],[-78.78936,8.97205],[-78.7901,8.96736],[-78.78424,8.95361],[-78.77861,8.94689]]]}},{"type":"Feature","properties":{"corregimiento":"Unión Santeña","distrito":"Chimán","provincia":"Panamá","bbox":[-78.82388,8.70678,-78.56673,8.94908]},"geometry":{"type":"Polygon","coordinates":[[[-78.62899,8.94829],[-78.61948,8.94419],[-78.6172,8.92628],[-78.62777,8.92109],[-78.62888,8.91582],[-78.62498,8.91431],[-78.62033,8.90462],[-78.61229,8.89841],[-78.60464,8.89682],[-78.59908,8.88878],[-78.59927,8.88288],[-78.58218,8.87341],[-78.57367,8.87272],[-78.56673,8.86521],[-78.5721,8.85706],[-78.57896,8.83267],[-78.58815,8.82474],[-78.59398,8.82537],[-78.59705,8.82252],[-78.59623,8.81553],[-78.59972,8.81305],[-78.59757,8.81074],[-78.60021,8.80581],[-78.59512,8.80253],[-78.59561,8.79698],[-78.60085,8.79775],[-78.6104,8.78845],[-78.61634,8.79078],[-78.62856,8.78498],[-78.62952,8.78212],[-78.63353,8.7832],[-78.63304,8.77406],[-78.61977,8.75104],[-78.62483,8.74064],[-78.62567,8.72754],[-78.63256,8.72405],[-78.63493,8.72965],[-78.64446,8.73288],[-78.65036,8.73172],[-78.66556,8.715],[-78.66287,8.70678],[-78.68249,8.72279],[-78.6735,8.72779],[-78.67514,8.73489],[-78.67105,8.73769],[-78.67673,8.74462],[-78.67419,8.74878],[-78.68028,8.74749],[-78.68164,8.75373],[-78.68686,8.74785],[-78.70138,8.74912],[-78.70476,8.75113],[-78.70405,8.75908],[-78.71035,8.75587],[-78.72497,8.75671],[-78.73447,8.7644],[-78.74153,8.76478],[-78.74041,8.77004],[-78.74334,8.76894],[-78.74653,8.77541],[-78.75192,8.77415],[-78.75134,8.77635],[-78.7547,8.77721],[-78.75213,8.78109],[-78.75465,8.78184],[-78.75805,8.79955],[-78.75636,8.80764],[-78.76475,8.81644],[-78.77192,8.82073],[-78.78358,8.8204],[-78.78616,8.81832],[-78.78672,8.81431],[-78.78452,8.81388],[-78.78687,8.81006],[-78.80836,8.79583],[-78.8111,8.80182],[-78.8064,8.81041],[-78.80746,8.81408],[-78.81156,8.81395],[-78.80985,8.81737],[-78.81534,8.81801],[-78.81546,8.82034],[-78.81859,8.81846],[-78.8196,8.8211],[-78.82388,8.82123],[-78.81845,8.83116],[-78.79618,8.83471],[-78.79885,8.84743],[-78.79391,8.8538],[-78.79359,8.86037],[-78.78651,8.86275],[-78.78201,8.85932],[-78.77332,8.87068],[-78.76922,8.87059],[-78.77328,8.87468],[-78.7728,8.87706],[-78.76989,8.87589],[-78.7698,8.88146],[-78.76706,8.87824],[-78.7629,8.87969],[-78.75602,8.88815],[-78.7504,8.89047],[-78.75096,8.8949],[-78.75582,8.89649],[-78.75131,8.89818],[-78.75304,8.90412],[-78.74108,8.90632],[-78.74447,8.90972],[-78.73066,8.91778],[-78.73189,8.92847],[-78.7452,8.93786],[-78.74851,8.94536],[-78.73639,8.94908],[-78.71285,8.93585],[-78.70913,8.93899],[-78.69319,8.94098],[-78.68475,8.93676],[-78.66766,8.93534],[-78.66146,8.92916],[-78.654,8.92813],[-78.64986,8.9293],[-78.6477,8.93366],[-78.643,8.93164],[-78.63545,8.9338],[-78.63412,8.93964],[-78.63808,8.94493],[-78.62899,8.94829]]]}},{"type":"Feature","properties":{"corregimiento":"Chimán (Cabecera)","distrito":"Chimán","provincia":"Panamá","bbox":[-78.64117,8.64614,-78.45944,8.86362]},"geometry":{"type":"Polygon","coordinates":[[[-78.56345,8.83405],[-78.54458,8.8177],[-78.53256,8.82093],[-78.53226,8.80914],[-78.52632,8.80703],[-78.52014,8.79848],[-78.51494,8.798],[-78.51107,8.79274],[-78.50702,8.79811],[-78.50076,8.79882],[-78.49816,8.80459],[-78.48841,8.79876],[-78.48081,8.80455],[-78.47046,8.80529],[-78.46492,8.81172],[-78.45944,8.80467],[-78.46654,8.78752],[-78.46388,8.78301],[-78.46861,8.77768],[-78.46747,8.76524],[-78.47328,8.76346],[-78.47275,8.75662],[-78.48274,8.74578],[-78.49028,8.74429],[-78.49732,8.74683],[-78.49989,8.73006],[-78.49817,8.72699],[-78.50372,8.72002],[-78.50167,8.71365],[-78.51108,8.71551],[-78.51645,8.72465],[-78.53087,8.72499],[-78.53833,8.71831],[-78.53797,8.71068],[-78.54197,8.70438],[-78.54695,8.70269],[-78.5444,8.69121],[-78.55188,8.67852],[-78.55392,8.66644],[-78.5401,8.65544],[-78.54185,8.64614],[-78.5576,8.65056],[-78.57925,8.663],[-78.57971,8.66663],[-78.57462,8.67168],[-78.5814,8.6731],[-78.58601,8.68089],[-78.59698,8.68448],[-78.60065,8.68915],[-78.60494,8.68809],[-78.60578,8.68308],[-78.60901,8.68538],[-78.60741,8.67723],[-78.61178,8.67803],[-78.61481,8.68458],[-78.61552,8.67498],[-78.62317,8.67359],[-78.6222,8.67595],[-78.62713,8.68073],[-78.62698,8.68849],[-78.63587,8.68928],[-78.63807,8.69243],[-78.63589,8.70152],[-78.64117,8.70591],[-78.6344,8.71491],[-78.63547,8.71922],[-78.63228,8.72083],[-78.63256,8.72405],[-78.62531,8.72818],[-78.62483,8.74064],[-78.61969,8.74965],[-78.63304,8.77406],[-78.63353,8.7832],[-78.62952,8.78212],[-78.62856,8.78498],[-78.61634,8.79078],[-78.6104,8.78845],[-78.60085,8.79775],[-78.59561,8.79698],[-78.59512,8.80253],[-78.60021,8.80581],[-78.59757,8.81074],[-78.59972,8.81305],[-78.59623,8.81553],[-78.59705,8.82252],[-78.59398,8.82537],[-78.58815,8.82474],[-78.57901,8.8326],[-78.5721,8.85706],[-78.56698,8.86362],[-78.5605,8.85244],[-78.56432,8.84429],[-78.56345,8.83405]]]}},{"type":"Feature","properties":{"corregimiento":"Brujas","distrito":"Chimán","provincia":"Panamá","bbox":[-78.55392,8.42523,-78.44873,8.72554]},"geometry":{"type":"Polygon","coordinates":[[[-78.52644,8.72554],[-78.51645,8.72465],[-78.51108,8.71551],[-78.50167,8.71365],[-78.50585,8.71302],[-78.50952,8.70744],[-78.50311,8.69944],[-78.50908,8.6951],[-78.50425,8.68776],[-78.49679,8.68662],[-78.49595,8.68093],[-78.49183,8.67841],[-78.49106,8.67242],[-78.49462,8.66959],[-78.49521,8.6643],[-78.4888,8.66015],[-78.48429,8.66251],[-78.47737,8.65499],[-78.47704,8.64884],[-78.47016,8.64626],[-78.47384,8.63825],[-78.46989,8.6333],[-78.46859,8.62377],[-78.48632,8.61786],[-78.4817,8.59592],[-78.4863,8.5938],[-78.48304,8.5888],[-78.47845,8.58845],[-78.4819,8.58214],[-78.47575,8.57443],[-78.47842,8.56747],[-78.48226,8.567],[-78.47571,8.54948],[-78.47061,8.54667],[-78.47154,8.54121],[-78.47842,8.54114],[-78.45878,8.5025],[-78.45256,8.4938],[-78.44873,8.4956],[-78.4541,8.48945],[-78.45886,8.48885],[-78.45868,8.47905],[-78.46114,8.47669],[-78.45983,8.46416],[-78.46454,8.46105],[-78.46512,8.44989],[-78.46902,8.44153],[-78.46756,8.42986],[-78.47287,8.42945],[-78.47249,8.42705],[-78.47427,8.42523],[-78.47932,8.43663],[-78.49651,8.44741],[-78.50865,8.46673],[-78.50648,8.47476],[-78.49893,8.47437],[-78.49756,8.48117],[-78.50159,8.48937],[-78.49979,8.49243],[-78.50342,8.49258],[-78.50473,8.49761],[-78.50192,8.50168],[-78.50333,8.50558],[-78.4964,8.50709],[-78.49823,8.51751],[-78.49481,8.52119],[-78.4993,8.52392],[-78.50158,8.52198],[-78.50401,8.52592],[-78.51411,8.52959],[-78.51564,8.53423],[-78.51251,8.53308],[-78.51204,8.53862],[-78.50684,8.54005],[-78.50914,8.54532],[-78.51303,8.54335],[-78.5239,8.55241],[-78.5315,8.55438],[-78.52851,8.55635],[-78.52968,8.56255],[-78.53461,8.56738],[-78.53238,8.56993],[-78.542,8.57748],[-78.54232,8.58401],[-78.5463,8.58763],[-78.53526,8.58414],[-78.5275,8.58887],[-78.52575,8.58734],[-78.52772,8.58385],[-78.52506,8.58761],[-78.52262,8.58654],[-78.52047,8.57998],[-78.51965,8.58401],[-78.51666,8.58143],[-78.51714,8.56851],[-78.51616,8.57646],[-78.51413,8.5709],[-78.5139,8.57345],[-78.51221,8.57034],[-78.51131,8.57217],[-78.51485,8.57456],[-78.51594,8.57839],[-78.51075,8.57244],[-78.51045,8.57849],[-78.50597,8.56726],[-78.51197,8.56509],[-78.51248,8.56456],[-78.51256,8.56388],[-78.50605,8.56663],[-78.5078,8.56104],[-78.50394,8.55494],[-78.5023,8.55608],[-78.50532,8.56289],[-78.50073,8.56425],[-78.49672,8.55836],[-78.49784,8.55982],[-78.50022,8.55553],[-78.49822,8.5542],[-78.49675,8.55793],[-78.49438,8.55308],[-78.49309,8.55262],[-78.49413,8.54924],[-78.49005,8.5444],[-78.48719,8.54307],[-78.49388,8.54981],[-78.49264,8.55264],[-78.49528,8.55605],[-78.49306,8.55401],[-78.48947,8.55479],[-78.49552,8.5569],[-78.49378,8.55981],[-78.49109,8.55844],[-78.48969,8.55863],[-78.49233,8.56022],[-78.49537,8.56015],[-78.49241,8.56089],[-78.49346,8.56802],[-78.49397,8.56398],[-78.50101,8.56644],[-78.49699,8.57075],[-78.49513,8.56898],[-78.49636,8.57256],[-78.48828,8.56547],[-78.49828,8.58158],[-78.50429,8.58174],[-78.50619,8.58556],[-78.50417,8.58586],[-78.5119,8.59275],[-78.50968,8.59414],[-78.5056,8.59278],[-78.50401,8.59396],[-78.50034,8.59256],[-78.5,8.59251],[-78.5,8.59295],[-78.51602,8.59742],[-78.51469,8.60008],[-78.5172,8.60211],[-78.52634,8.60122],[-78.52444,8.60329],[-78.5261,8.60987],[-78.52279,8.61073],[-78.52466,8.61527],[-78.52018,8.61985],[-78.52506,8.62947],[-78.52123,8.639],[-78.52589,8.64366],[-78.53207,8.64224],[-78.54185,8.64614],[-78.5401,8.65544],[-78.55392,8.66644],[-78.55188,8.67852],[-78.5444,8.69121],[-78.54695,8.70269],[-78.54005,8.70719],[-78.53839,8.71817],[-78.53498,8.72245],[-78.52644,8.72554]]]}},{"type":"Feature","properties":{"corregimiento":"Gonzalo Vásquez","distrito":"Chimán","provincia":"Panamá","bbox":[-78.46902,8.34725,-78.4117,8.4956]},"geometry":{"type":"Polygon","coordinates":[[[-78.44873,8.4956],[-78.44193,8.48803],[-78.43756,8.47695],[-78.43985,8.46802],[-78.4343,8.45335],[-78.43569,8.44115],[-78.4333,8.4317],[-78.42898,8.4287],[-78.42895,8.42463],[-78.42485,8.42392],[-78.42206,8.41534],[-78.4263,8.4139],[-78.42678,8.41035],[-78.4117,8.38386],[-78.41758,8.37894],[-78.41965,8.3654],[-78.41333,8.35638],[-78.41956,8.34725],[-78.42363,8.36168],[-78.43096,8.36602],[-78.4307,8.37069],[-78.43669,8.37743],[-78.43878,8.38733],[-78.4425,8.38456],[-78.44902,8.38586],[-78.45084,8.38263],[-78.45025,8.40656],[-78.45272,8.41215],[-78.45081,8.41761],[-78.46275,8.42966],[-78.46756,8.42986],[-78.46902,8.44153],[-78.46512,8.44989],[-78.46454,8.46105],[-78.45983,8.46416],[-78.46114,8.47669],[-78.45868,8.47905],[-78.45886,8.48885],[-78.4541,8.48945],[-78.44873,8.4956]]]}}]}