{"type":"FeatureCollection","features":[{"type":"Feature","properties":{"corregimiento":"Caimitillo","distrito":"Panamá","provincia":"Panamá","bbox":[-79.61506,9.12487,-79.24428,9.4997]},"geometry":{"type":"Polygon","coordinates":[[[-79.41394,9.4997],[-79.39754,9.49212],[-79.39754,9.48349],[-79.40673,9.47807],[-79.40966,9.47113],[-79.39618,9.46018],[-79.40105,9.45239],[-79.39568,9.44219],[-79.3946,9.42499],[-79.40863,9.41462],[-79.41885,9.41146],[-79.41796,9.40121],[-79.40608,9.40862],[-79.38448,9.40722],[-79.37823,9.41736],[-79.36981,9.42152],[-79.36006,9.41999],[-79.35782,9.41192],[-79.34871,9.40944],[-79.3389,9.41618],[-79.33639,9.42423],[-79.33068,9.42404],[-79.32562,9.42766],[-79.32393,9.43895],[-79.31939,9.44179],[-79.30527,9.44137],[-79.30027,9.43669],[-79.29911,9.43035],[-79.28797,9.42726],[-79.28614,9.42121],[-79.28106,9.418],[-79.27282,9.424],[-79.26364,9.423],[-79.26475,9.41619],[-79.27412,9.40236],[-79.26786,9.39894],[-79.26635,9.39364],[-79.25496,9.39276],[-79.24805,9.38096],[-79.24428,9.37991],[-79.24785,9.35962],[-79.25502,9.35095],[-79.25652,9.34326],[-79.26388,9.33954],[-79.26548,9.33332],[-79.27012,9.33453],[-79.27066,9.32785],[-79.27715,9.32119],[-79.27905,9.31],[-79.2756,9.30641],[-79.27554,9.30032],[-79.2945,9.29011],[-79.33549,9.27779],[-79.35207,9.25917],[-79.35148,9.24303],[-79.35797,9.23959],[-79.3583,9.23376],[-79.36296,9.22808],[-79.37061,9.22591],[-79.37132,9.22069],[-79.37517,9.22006],[-79.38615,9.23342],[-79.39798,9.23245],[-79.40631,9.22309],[-79.40075,9.21293],[-79.40876,9.19495],[-79.44377,9.19274],[-79.4481,9.19019],[-79.45316,9.19936],[-79.45986,9.19897],[-79.46012,9.20598],[-79.46625,9.20832],[-79.46792,9.21361],[-79.47447,9.21359],[-79.47828,9.21668],[-79.47706,9.21085],[-79.47249,9.20901],[-79.46908,9.20327],[-79.4624,9.1844],[-79.46503,9.18441],[-79.47117,9.17501],[-79.46968,9.16641],[-79.47403,9.16399],[-79.4803,9.15256],[-79.48232,9.15501],[-79.4894,9.15511],[-79.49276,9.16102],[-79.50141,9.15603],[-79.50606,9.15808],[-79.51232,9.151],[-79.51599,9.14104],[-79.52206,9.13916],[-79.52347,9.13418],[-79.5346,9.144],[-79.53351,9.12834],[-79.53648,9.12487],[-79.54177,9.12933],[-79.54539,9.12777],[-79.54692,9.13457],[-79.55084,9.13574],[-79.55654,9.14572],[-79.56281,9.15054],[-79.56878,9.16404],[-79.58377,9.16817],[-79.60009,9.17755],[-79.60239,9.18761],[-79.61169,9.20375],[-79.60367,9.20788],[-79.60811,9.21351],[-79.61046,9.21109],[-79.60976,9.21645],[-79.61506,9.22026],[-79.61282,9.22295],[-79.61024,9.21944],[-79.6064,9.22026],[-79.59507,9.21489],[-79.5912,9.21055],[-79.59226,9.20496],[-79.59013,9.20294],[-79.59391,9.19861],[-79.59231,9.19754],[-79.5918,9.19763],[-79.5934,9.19899],[-79.59073,9.20053],[-79.58753,9.19772],[-79.58725,9.20147],[-79.58421,9.20134],[-79.59191,9.18948],[-79.58728,9.19302],[-79.58506,9.19151],[-79.58631,9.19364],[-79.58324,9.19555],[-79.5818,9.1912],[-79.58639,9.18909],[-79.58208,9.1864],[-79.58257,9.18412],[-79.58179,9.18194],[-79.58058,9.18617],[-79.58245,9.19005],[-79.57638,9.19003],[-79.58114,9.19134],[-79.57914,9.19634],[-79.57314,9.19766],[-79.57869,9.19902],[-79.57823,9.20103],[-79.57045,9.19661],[-79.57029,9.20017],[-79.56858,9.19585],[-79.56401,9.19748],[-79.56448,9.19152],[-79.56245,9.19038],[-79.56156,9.19674],[-79.55721,9.1983],[-79.55633,9.19623],[-79.55533,9.19688],[-79.55537,9.19532],[-79.55471,9.19423],[-79.55371,9.19361],[-79.55669,9.20049],[-79.56551,9.19737],[-79.56353,9.20461],[-79.56565,9.21036],[-79.55878,9.21751],[-79.56043,9.22023],[-79.56765,9.21659],[-79.56159,9.22331],[-79.5647,9.22254],[-79.56282,9.22511],[-79.56482,9.22633],[-79.55745,9.22398],[-79.55526,9.22751],[-79.54921,9.22842],[-79.55042,9.22582],[-79.54818,9.22682],[-79.54422,9.22064],[-79.53784,9.22276],[-79.53537,9.22058],[-79.5368,9.2193],[-79.53471,9.21735],[-79.53581,9.21881],[-79.53169,9.21768],[-79.5305,9.22059],[-79.52962,9.22081],[-79.53005,9.22048],[-79.52917,9.22031],[-79.52916,9.21933],[-79.52801,9.21524],[-79.52726,9.21309],[-79.52612,9.21123],[-79.5289,9.22072],[-79.53045,9.22137],[-79.53193,9.21817],[-79.53395,9.21926],[-79.53394,9.22519],[-79.53813,9.22613],[-79.53818,9.22886],[-79.53373,9.23122],[-79.52953,9.22751],[-79.52709,9.22806],[-79.52542,9.23103],[-79.53108,9.23598],[-79.52943,9.23952],[-79.53253,9.24177],[-79.53058,9.24509],[-79.52836,9.24452],[-79.51726,9.24824],[-79.52214,9.25552],[-79.51676,9.25674],[-79.51692,9.25816],[-79.51932,9.26054],[-79.51749,9.26103],[-79.51971,9.2609],[-79.51706,9.25702],[-79.52284,9.25571],[-79.5202,9.24828],[-79.53054,9.24589],[-79.53303,9.24234],[-79.53258,9.24078],[-79.52996,9.23933],[-79.53175,9.23654],[-79.52747,9.2287],[-79.53389,9.23234],[-79.53907,9.22938],[-79.54197,9.22289],[-79.54719,9.22985],[-79.54268,9.23211],[-79.54799,9.23321],[-79.54802,9.23035],[-79.55102,9.23397],[-79.55095,9.23485],[-79.54973,9.2355],[-79.54949,9.23622],[-79.55184,9.23781],[-79.55124,9.23488],[-79.55399,9.23364],[-79.55472,9.24023],[-79.5576,9.23864],[-79.5565,9.24358],[-79.54728,9.24251],[-79.55105,9.24621],[-79.54945,9.24889],[-79.55357,9.24427],[-79.55565,9.24512],[-79.55414,9.2462],[-79.55315,9.24825],[-79.55708,9.2452],[-79.55617,9.24821],[-79.55858,9.24922],[-79.56048,9.24111],[-79.56374,9.24353],[-79.56129,9.24811],[-79.56498,9.24472],[-79.56282,9.24926],[-79.56879,9.24703],[-79.56511,9.2514],[-79.56869,9.25056],[-79.56729,9.25256],[-79.57117,9.25429],[-79.56835,9.25624],[-79.57522,9.26151],[-79.5717,9.2636],[-79.57698,9.2659],[-79.57225,9.26631],[-79.57287,9.26915],[-79.56819,9.27056],[-79.56915,9.27424],[-79.57653,9.26951],[-79.57914,9.27076],[-79.576,9.27694],[-79.5713,9.27579],[-79.56931,9.27861],[-79.57283,9.27812],[-79.57212,9.28077],[-79.57511,9.27773],[-79.57613,9.28226],[-79.56707,9.28446],[-79.57101,9.28625],[-79.57621,9.28596],[-79.57423,9.28503],[-79.57837,9.28287],[-79.58208,9.29117],[-79.5785,9.29105],[-79.57726,9.2939],[-79.5812,9.29369],[-79.57771,9.29731],[-79.57508,9.29529],[-79.57413,9.295],[-79.57668,9.29779],[-79.57427,9.30083],[-79.57799,9.29859],[-79.58296,9.30124],[-79.57941,9.30409],[-79.58083,9.30838],[-79.56777,9.32285],[-79.56512,9.3232],[-79.56223,9.3139],[-79.56201,9.31695],[-79.55874,9.31408],[-79.55698,9.31531],[-79.56436,9.32175],[-79.56315,9.32471],[-79.5686,9.32504],[-79.5601,9.3263],[-79.56605,9.32727],[-79.55791,9.33808],[-79.55407,9.33697],[-79.55226,9.34248],[-79.55068,9.34084],[-79.54919,9.3424],[-79.55221,9.34455],[-79.54757,9.34791],[-79.55124,9.34701],[-79.54996,9.3552],[-79.54429,9.34973],[-79.54345,9.35488],[-79.53992,9.35348],[-79.53732,9.35365],[-79.53699,9.35562],[-79.53951,9.35742],[-79.53689,9.35839],[-79.5338,9.36249],[-79.53348,9.36826],[-79.53113,9.36714],[-79.52824,9.36932],[-79.52768,9.37101],[-79.52822,9.37479],[-79.52532,9.37654],[-79.52877,9.37459],[-79.52876,9.3692],[-79.53406,9.36832],[-79.53405,9.3626],[-79.54001,9.35797],[-79.53817,9.35369],[-79.5425,9.35552],[-79.54557,9.35376],[-79.5487,9.35668],[-79.55488,9.355],[-79.55606,9.36178],[-79.56599,9.36077],[-79.5657,9.36581],[-79.56923,9.36771],[-79.56633,9.36984],[-79.56977,9.37285],[-79.56308,9.37784],[-79.56482,9.38092],[-79.55926,9.38327],[-79.56422,9.38623],[-79.55993,9.38987],[-79.55931,9.39557],[-79.55241,9.39807],[-79.55661,9.39959],[-79.55599,9.40901],[-79.55013,9.41098],[-79.54783,9.41667],[-79.54484,9.41455],[-79.54159,9.4196],[-79.54484,9.42092],[-79.54685,9.43295],[-79.54061,9.43602],[-79.54153,9.4421],[-79.53739,9.44197],[-79.53898,9.44574],[-79.53692,9.44726],[-79.53957,9.4501],[-79.53657,9.45271],[-79.53915,9.45252],[-79.53808,9.45747],[-79.54159,9.46001],[-79.53613,9.46132],[-79.53661,9.47466],[-79.53284,9.47738],[-79.527,9.47492],[-79.52198,9.47846],[-79.51472,9.47864],[-79.51236,9.48641],[-79.50135,9.48375],[-79.4993,9.48749],[-79.49835,9.48054],[-79.48538,9.47696],[-79.48235,9.48375],[-79.46958,9.49176],[-79.46576,9.48999],[-79.46416,9.49539],[-79.45324,9.49945],[-79.44377,9.49439],[-79.43846,9.49751],[-79.43131,9.49167],[-79.42759,9.49783],[-79.41954,9.49697],[-79.41394,9.4997]]]}},{"type":"Feature","properties":{"corregimiento":"Pacora","distrito":"Panamá","provincia":"Panamá","bbox":[-79.40058,9.01837,-79.27415,9.28119]},"geometry":{"type":"Polygon","coordinates":[[[-79.28127,9.11189],[-79.27415,9.09299],[-79.2841,9.08608],[-79.28346,9.08267],[-79.29226,9.06999],[-79.28637,9.06532],[-79.29459,9.06168],[-79.29739,9.05192],[-79.28664,9.03059],[-79.28984,9.0257],[-79.34644,9.02203],[-79.35355,9.02673],[-79.3585,9.02096],[-79.39098,9.01837],[-79.39762,9.02261],[-79.40058,9.02935],[-79.39242,9.02999],[-79.39165,9.03277],[-79.38462,9.02815],[-79.38032,9.03332],[-79.37457,9.03195],[-79.36633,9.03622],[-79.3639,9.04122],[-79.32802,9.05978],[-79.31143,9.08424],[-79.31467,9.09665],[-79.3192,9.10239],[-79.32627,9.10462],[-79.32926,9.11025],[-79.33529,9.10968],[-79.33929,9.11447],[-79.34653,9.11622],[-79.34603,9.12017],[-79.34965,9.12122],[-79.34627,9.1249],[-79.3537,9.12829],[-79.35221,9.13347],[-79.35641,9.13333],[-79.35787,9.12992],[-79.36922,9.13228],[-79.37109,9.13024],[-79.38546,9.13509],[-79.38627,9.14246],[-79.3832,9.14665],[-79.38982,9.15532],[-79.38858,9.15972],[-79.39169,9.1655],[-79.38976,9.16934],[-79.3916,9.17356],[-79.38495,9.18341],[-79.38661,9.19257],[-79.39176,9.19768],[-79.39103,9.2026],[-79.37653,9.20714],[-79.37853,9.21547],[-79.37119,9.22082],[-79.37053,9.226],[-79.35962,9.23181],[-79.3564,9.24153],[-79.35148,9.24303],[-79.35207,9.25917],[-79.33327,9.27912],[-79.32303,9.28119],[-79.32729,9.26712],[-79.31932,9.26493],[-79.32036,9.25288],[-79.31155,9.24486],[-79.3008,9.24121],[-79.29967,9.23334],[-79.28379,9.22488],[-79.27641,9.21708],[-79.27965,9.20441],[-79.29002,9.19544],[-79.27936,9.18921],[-79.2791,9.17635],[-79.28406,9.17165],[-79.29016,9.17148],[-79.29397,9.15333],[-79.28823,9.14891],[-79.28861,9.14258],[-79.29156,9.14102],[-79.29028,9.13713],[-79.28593,9.13101],[-79.28333,9.1321],[-79.28443,9.12721],[-79.279,9.12222],[-79.28372,9.11202],[-79.28127,9.11189]]]}},{"type":"Feature","properties":{"corregimiento":"San Martín","distrito":"Panamá","provincia":"Panamá","bbox":[-79.32706,9.10288,-79.15734,9.29982]},"geometry":{"type":"Polygon","coordinates":[[[-79.15734,9.21895],[-79.17058,9.22106],[-79.17729,9.21531],[-79.18808,9.21245],[-79.19416,9.20324],[-79.19796,9.20367],[-79.21093,9.19531],[-79.21319,9.19712],[-79.21876,9.19473],[-79.22665,9.18661],[-79.22439,9.17921],[-79.2346,9.17934],[-79.24392,9.16925],[-79.25012,9.16824],[-79.24734,9.15717],[-79.25307,9.14836],[-79.25651,9.14895],[-79.25889,9.1255],[-79.27519,9.11728],[-79.27838,9.10288],[-79.2796,9.10914],[-79.28373,9.11212],[-79.279,9.12222],[-79.28443,9.12721],[-79.28333,9.1321],[-79.28593,9.13101],[-79.29028,9.13713],[-79.29156,9.14102],[-79.28861,9.14258],[-79.28823,9.14891],[-79.29397,9.15333],[-79.29016,9.17148],[-79.28406,9.17165],[-79.2791,9.17635],[-79.27936,9.18921],[-79.29002,9.19544],[-79.27965,9.20441],[-79.27639,9.21699],[-79.28379,9.22488],[-79.29967,9.23334],[-79.3008,9.24121],[-79.31155,9.24486],[-79.32036,9.25288],[-79.31927,9.26481],[-79.32706,9.26665],[-79.32597,9.27292],[-79.32304,9.2751],[-79.32303,9.28119],[-79.2945,9.29011],[-79.27742,9.29982],[-79.28553,9.28676],[-79.27317,9.27442],[-79.27233,9.26889],[-79.26225,9.2635],[-79.23599,9.26282],[-79.22465,9.25404],[-79.21644,9.25383],[-79.21467,9.24725],[-79.20509,9.24685],[-79.19595,9.24278],[-79.18874,9.25252],[-79.18438,9.2515],[-79.17229,9.24357],[-79.16781,9.24373],[-79.1681,9.23341],[-79.16453,9.23293],[-79.15734,9.21895]]]}},{"type":"Feature","properties":{"corregimiento":"Tocumen","distrito":"Panamá","provincia":"Panamá","bbox":[-79.47871,9.02815,-79.35056,9.21616]},"geometry":{"type":"Polygon","coordinates":[[[-79.44444,9.19254],[-79.4534,9.18315],[-79.43725,9.15028],[-79.40436,9.14292],[-79.38322,9.12267],[-79.37644,9.11994],[-79.37634,9.11453],[-79.3677,9.10907],[-79.36961,9.09867],[-79.35915,9.08605],[-79.35056,9.08289],[-79.35225,9.04574],[-79.3639,9.04122],[-79.36633,9.03622],[-79.37457,9.03195],[-79.38032,9.03332],[-79.38462,9.02815],[-79.39165,9.03277],[-79.3973,9.02844],[-79.40379,9.03105],[-79.39847,9.04475],[-79.40137,9.04921],[-79.40381,9.0699],[-79.3932,9.09617],[-79.3862,9.10246],[-79.39329,9.11217],[-79.4042,9.11581],[-79.40653,9.12406],[-79.41565,9.12614],[-79.41897,9.13278],[-79.41629,9.13561],[-79.43637,9.13583],[-79.43988,9.14325],[-79.44744,9.14372],[-79.4528,9.14923],[-79.4597,9.14854],[-79.46292,9.14198],[-79.46569,9.14513],[-79.46629,9.15215],[-79.46128,9.15951],[-79.46188,9.16841],[-79.46759,9.17643],[-79.4624,9.1844],[-79.46908,9.20327],[-79.47249,9.20901],[-79.47706,9.21085],[-79.47871,9.21616],[-79.46792,9.21361],[-79.46625,9.20832],[-79.46012,9.20598],[-79.45986,9.19897],[-79.45316,9.19936],[-79.44837,9.19027],[-79.44444,9.19254]]]}},{"type":"Feature","properties":{"corregimiento":"24 de Diciembre","distrito":"Panamá","provincia":"Panamá","bbox":[-79.4534,9.04634,-79.31146,9.23336]},"geometry":{"type":"Polygon","coordinates":[[[-79.37517,9.22006],[-79.37858,9.21519],[-79.37653,9.20714],[-79.39103,9.2026],[-79.39177,9.19807],[-79.38661,9.19257],[-79.385,9.18445],[-79.39161,9.17351],[-79.38984,9.15537],[-79.3832,9.14665],[-79.38625,9.14254],[-79.38592,9.13577],[-79.37109,9.13024],[-79.36922,9.13228],[-79.35787,9.12992],[-79.35641,9.13333],[-79.35221,9.13347],[-79.3537,9.12829],[-79.34627,9.1249],[-79.34965,9.12122],[-79.34603,9.12017],[-79.34653,9.11622],[-79.33929,9.11447],[-79.33529,9.10968],[-79.32926,9.11025],[-79.32627,9.10462],[-79.3192,9.10239],[-79.31146,9.0863],[-79.3135,9.07918],[-79.32311,9.06985],[-79.32789,9.05988],[-79.35216,9.04634],[-79.35056,9.08289],[-79.35915,9.08605],[-79.36961,9.09867],[-79.36786,9.10936],[-79.37191,9.11009],[-79.37639,9.11461],[-79.37644,9.11994],[-79.38322,9.12267],[-79.40436,9.14292],[-79.43725,9.15028],[-79.4534,9.18315],[-79.44411,9.19267],[-79.40876,9.19495],[-79.40075,9.21293],[-79.40631,9.22309],[-79.39798,9.23245],[-79.38602,9.23336],[-79.37517,9.22006]]]}},{"type":"Feature","properties":{"corregimiento":"Alcalde Díaz","distrito":"Panamá","provincia":"Panamá","bbox":[-79.57574,9.10002,-79.45854,9.1844]},"geometry":{"type":"Polygon","coordinates":[[[-79.4624,9.1844],[-79.46759,9.17643],[-79.46188,9.16841],[-79.46128,9.15951],[-79.46668,9.14935],[-79.46293,9.13748],[-79.45854,9.13341],[-79.46481,9.131],[-79.47406,9.13694],[-79.47633,9.13524],[-79.47586,9.12073],[-79.48443,9.1119],[-79.49484,9.11679],[-79.5149,9.114],[-79.53285,9.10002],[-79.5378,9.10934],[-79.55463,9.10928],[-79.56663,9.11389],[-79.57574,9.12301],[-79.57313,9.12411],[-79.56956,9.13664],[-79.55721,9.13386],[-79.553,9.13872],[-79.54692,9.13457],[-79.54539,9.12777],[-79.54177,9.12933],[-79.53648,9.12487],[-79.53314,9.12901],[-79.5346,9.144],[-79.52347,9.13418],[-79.52206,9.13916],[-79.51599,9.14104],[-79.51232,9.151],[-79.50596,9.15812],[-79.50141,9.15603],[-79.49276,9.16102],[-79.4894,9.15511],[-79.48026,9.15258],[-79.47403,9.16399],[-79.46961,9.16655],[-79.46977,9.17829],[-79.4624,9.1844]]]}},{"type":"Feature","properties":{"corregimiento":"San Felipe","distrito":"Panamá","provincia":"Panamá","bbox":[-79.53889,8.94909,-79.53195,8.95452]},"geometry":{"type":"Polygon","coordinates":[[[-79.53843,8.95036],[-79.53889,8.95452],[-79.53219,8.95396],[-79.53195,8.94909],[-79.53843,8.95036]]]}},{"type":"Feature","properties":{"corregimiento":"El Chorrillo","distrito":"Panamá","provincia":"Panamá","bbox":[-79.54994,8.94625,-79.53843,8.95293]},"geometry":{"type":"Polygon","coordinates":[[[-79.53843,8.95036],[-79.54842,8.94625],[-79.54994,8.94673],[-79.54739,8.95224],[-79.53846,8.95293],[-79.53843,8.95036]]]}},{"type":"Feature","properties":{"corregimiento":"Santa Ana","distrito":"Panamá","provincia":"Panamá","bbox":[-79.54821,8.95197,-79.53638,8.96227]},"geometry":{"type":"Polygon","coordinates":[[[-79.53638,8.95902],[-79.53846,8.95293],[-79.54821,8.95197],[-79.5429,8.96227],[-79.53638,8.95902]]]}},{"type":"Feature","properties":{"corregimiento":"La Exposición o Calidonia","distrito":"Panamá","provincia":"Panamá","bbox":[-79.54381,8.95902,-79.52761,8.97862]},"geometry":{"type":"Polygon","coordinates":[[[-79.52761,8.97249],[-79.53638,8.95902],[-79.54249,8.9615],[-79.54381,8.96562],[-79.53912,8.97048],[-79.53718,8.97862],[-79.52761,8.97249]]]}},{"type":"Feature","properties":{"corregimiento":"Curundú","distrito":"Panamá","provincia":"Panamá","bbox":[-79.54743,8.96562,-79.53264,8.9933]},"geometry":{"type":"Polygon","coordinates":[[[-79.53264,8.98875],[-79.53912,8.97048],[-79.54381,8.96562],[-79.54743,8.96874],[-79.53773,8.97924],[-79.5389,8.98801],[-79.53648,8.9933],[-79.53264,8.98875]]]}},{"type":"Feature","properties":{"corregimiento":"Betania","distrito":"Panamá","provincia":"Panamá","bbox":[-79.54177,8.98875,-79.5096,9.0364]},"geometry":{"type":"Polygon","coordinates":[[[-79.51771,9.03497],[-79.5096,9.02524],[-79.51658,9.01996],[-79.51853,9.00893],[-79.53264,8.98875],[-79.53416,8.99313],[-79.53757,8.99062],[-79.54007,8.99347],[-79.54177,9.01069],[-79.53864,9.01701],[-79.52096,9.02633],[-79.52575,9.0364],[-79.52268,9.0333],[-79.51771,9.03497]]]}},{"type":"Feature","properties":{"corregimiento":"Bella Vista","distrito":"Panamá","provincia":"Panamá","bbox":[-79.53718,8.97249,-79.51281,8.99923]},"geometry":{"type":"Polygon","coordinates":[[[-79.52544,8.99923],[-79.51281,8.98678],[-79.5178,8.98134],[-79.51845,8.97477],[-79.52761,8.97249],[-79.53457,8.97529],[-79.53718,8.97862],[-79.53611,8.98298],[-79.52544,8.99923]]]}},{"type":"Feature","properties":{"corregimiento":"Pueblo Nuevo","distrito":"Panamá","provincia":"Panamá","bbox":[-79.52544,8.99396,-79.50458,9.02923]},"geometry":{"type":"Polygon","coordinates":[[[-79.50458,9.0254],[-79.5101,9.01993],[-79.50488,9.01052],[-79.5153,9.00385],[-79.51967,8.99396],[-79.52544,8.99923],[-79.51815,9.00974],[-79.51678,9.01958],[-79.50685,9.02923],[-79.50458,9.0254]]]}},{"type":"Feature","properties":{"corregimiento":"San Francisco","distrito":"Panamá","provincia":"Panamá","bbox":[-79.51967,8.96984,-79.49197,9.00857]},"geometry":{"type":"Polygon","coordinates":[[[-79.49469,9.003],[-79.4955,8.99943],[-79.49197,8.9987],[-79.49565,8.99437],[-79.49427,8.99289],[-79.50669,8.98117],[-79.50623,8.97405],[-79.51199,8.97512],[-79.51749,8.96984],[-79.51905,8.97818],[-79.51281,8.98678],[-79.51967,8.99396],[-79.51552,9.00358],[-79.50732,9.00857],[-79.50198,9.00166],[-79.49469,9.003]]]}},{"type":"Feature","properties":{"corregimiento":"Parque Lefevre","distrito":"Panamá","provincia":"Panamá","bbox":[-79.50732,9.00161,-79.46914,9.03134]},"geometry":{"type":"Polygon","coordinates":[[[-79.46914,9.0097],[-79.47515,9.00596],[-79.48209,9.00806],[-79.48377,9.00441],[-79.49131,9.00515],[-79.50164,9.00161],[-79.50732,9.00857],[-79.47542,9.03134],[-79.47551,9.02697],[-79.46957,9.02012],[-79.46914,9.0097]]]}},{"type":"Feature","properties":{"corregimiento":"Río Abajo","distrito":"Panamá","provincia":"Panamá","bbox":[-79.5101,9.01052,-79.47542,9.03633]},"geometry":{"type":"Polygon","coordinates":[[[-79.47542,9.03134],[-79.50488,9.01052],[-79.50667,9.01226],[-79.5101,9.01993],[-79.50458,9.0254],[-79.49583,9.02553],[-79.4845,9.03519],[-79.47854,9.03633],[-79.47542,9.03134]]]}},{"type":"Feature","properties":{"corregimiento":"Juan Díaz","distrito":"Panamá","provincia":"Panamá","bbox":[-79.4845,9.00882,-79.41863,9.05789]},"geometry":{"type":"Polygon","coordinates":[[[-79.43295,9.02213],[-79.4446,9.0112],[-79.46785,9.00882],[-79.46957,9.02012],[-79.47564,9.02727],[-79.47559,9.03314],[-79.47854,9.03633],[-79.4845,9.03519],[-79.46481,9.04716],[-79.44574,9.05153],[-79.43296,9.05789],[-79.43577,9.05214],[-79.42949,9.05139],[-79.41863,9.03768],[-79.44393,9.03234],[-79.44183,9.02817],[-79.43797,9.02761],[-79.43781,9.02233],[-79.43295,9.02213]]]}},{"type":"Feature","properties":{"corregimiento":"Pedregal","distrito":"Panamá","provincia":"Panamá","bbox":[-79.46323,9.05459,-79.41108,9.13743]},"geometry":{"type":"Polygon","coordinates":[[[-79.41598,9.06499],[-79.44004,9.05459],[-79.43595,9.06668],[-79.44369,9.0797],[-79.44679,9.08286],[-79.45179,9.0819],[-79.4632,9.09883],[-79.45907,9.10218],[-79.46323,9.10834],[-79.45776,9.1343],[-79.45156,9.13743],[-79.44875,9.13605],[-79.42589,9.10783],[-79.41889,9.11094],[-79.41788,9.10559],[-79.41347,9.10351],[-79.41108,9.08915],[-79.41506,9.0764],[-79.41934,9.07323],[-79.41571,9.06974],[-79.41598,9.06499]]]}},{"type":"Feature","properties":{"corregimiento":"Chilibre","distrito":"Panamá","provincia":"Panamá","bbox":[-79.65376,9.08479,-79.553,9.19961]},"geometry":{"type":"Polygon","coordinates":[[[-79.60259,9.18795],[-79.59775,9.17561],[-79.56878,9.16404],[-79.56281,9.15054],[-79.553,9.13872],[-79.55721,9.13386],[-79.56956,9.13664],[-79.5733,9.12393],[-79.58231,9.12631],[-79.58842,9.12443],[-79.58261,9.11095],[-79.57353,9.10301],[-79.57959,9.09193],[-79.5797,9.08479],[-79.59683,9.09884],[-79.61275,9.11847],[-79.62684,9.14257],[-79.65376,9.17062],[-79.64885,9.17656],[-79.64011,9.17473],[-79.64183,9.17286],[-79.63819,9.16995],[-79.63729,9.15455],[-79.63233,9.15103],[-79.63182,9.15309],[-79.62666,9.15158],[-79.62499,9.15308],[-79.63409,9.15472],[-79.63542,9.15961],[-79.63404,9.16606],[-79.62833,9.16134],[-79.62559,9.1631],[-79.62456,9.15751],[-79.6218,9.15739],[-79.62139,9.16015],[-79.61842,9.15861],[-79.62442,9.16281],[-79.61951,9.16478],[-79.62595,9.16472],[-79.62009,9.1693],[-79.62335,9.16916],[-79.6213,9.17267],[-79.62292,9.17678],[-79.62481,9.17645],[-79.62428,9.1807],[-79.62612,9.17821],[-79.62528,9.17555],[-79.62284,9.17563],[-79.62306,9.17166],[-79.62687,9.16489],[-79.63361,9.16728],[-79.63586,9.16555],[-79.63401,9.17552],[-79.63859,9.17187],[-79.63478,9.17815],[-79.6379,9.18132],[-79.63496,9.18133],[-79.63522,9.18489],[-79.64233,9.18307],[-79.64276,9.18674],[-79.65092,9.18439],[-79.65138,9.18688],[-79.64612,9.18826],[-79.64704,9.19185],[-79.63898,9.19412],[-79.64076,9.19551],[-79.63712,9.19912],[-79.63057,9.19961],[-79.61459,9.1956],[-79.61534,9.18755],[-79.61116,9.18491],[-79.60259,9.18795]]]}},{"type":"Feature","properties":{"corregimiento":"Las Cumbres","distrito":"Panamá","provincia":"Panamá","bbox":[-79.58858,9.05847,-79.52312,9.1263]},"geometry":{"type":"Polygon","coordinates":[[[-79.57616,9.12423],[-79.56511,9.11309],[-79.55431,9.1092],[-79.53698,9.10853],[-79.531,9.09707],[-79.53207,9.08887],[-79.52312,9.07218],[-79.52726,9.0634],[-79.53832,9.0616],[-79.54088,9.05847],[-79.54922,9.05942],[-79.5797,9.08479],[-79.57959,9.09193],[-79.57353,9.10301],[-79.58135,9.1092],[-79.58858,9.1229],[-79.58242,9.1263],[-79.57616,9.12423]]]}},{"type":"Feature","properties":{"corregimiento":"Las Mañanitas","distrito":"Panamá","provincia":"Panamá","bbox":[-79.46277,9.04914,-79.3862,9.14923]},"geometry":{"type":"Polygon","coordinates":[[[-79.40137,9.04921],[-79.4066,9.04914],[-79.4085,9.05437],[-79.40634,9.05588],[-79.41677,9.0658],[-79.41571,9.06974],[-79.41934,9.07323],[-79.41506,9.0764],[-79.41108,9.08915],[-79.41347,9.10351],[-79.41788,9.10559],[-79.41889,9.11094],[-79.42589,9.10783],[-79.44875,9.13605],[-79.45175,9.13739],[-79.45854,9.13341],[-79.46277,9.13725],[-79.4596,9.14861],[-79.4528,9.14923],[-79.44744,9.14372],[-79.43995,9.1433],[-79.43631,9.13581],[-79.41629,9.13561],[-79.41897,9.13278],[-79.41565,9.12614],[-79.40653,9.12406],[-79.4042,9.11581],[-79.39329,9.11217],[-79.3862,9.10246],[-79.3932,9.09617],[-79.40371,9.07027],[-79.40137,9.04921]]]}},{"type":"Feature","properties":{"corregimiento":"Ernesto Córdoba Campos","distrito":"Panamá","provincia":"Panamá","bbox":[-79.53285,9.07241,-79.45179,9.13694]},"geometry":{"type":"Polygon","coordinates":[[[-79.45854,9.13341],[-79.46323,9.10834],[-79.45907,9.10218],[-79.4632,9.09883],[-79.45179,9.0819],[-79.45871,9.08051],[-79.45684,9.08258],[-79.47038,9.08647],[-79.47017,9.08894],[-79.48379,9.09128],[-79.48356,9.08869],[-79.49049,9.08963],[-79.49558,9.08524],[-79.49475,9.08251],[-79.49949,9.07591],[-79.50679,9.0749],[-79.51252,9.08041],[-79.52331,9.07241],[-79.53207,9.08887],[-79.53285,9.10002],[-79.5149,9.114],[-79.49484,9.11679],[-79.48443,9.1119],[-79.47586,9.12073],[-79.47454,9.12913],[-79.47689,9.13332],[-79.47406,9.13694],[-79.46503,9.13103],[-79.45854,9.13341]]]}},{"type":"Feature","properties":{"corregimiento":"Don Bosco","distrito":"Panamá","provincia":"Panamá","bbox":[-79.44393,9.01306,-79.39847,9.06499]},"geometry":{"type":"Polygon","coordinates":[[[-79.40137,9.04921],[-79.39847,9.04475],[-79.40383,9.03122],[-79.39864,9.02681],[-79.4005,9.01806],[-79.40611,9.01937],[-79.40987,9.0159],[-79.43506,9.01306],[-79.43667,9.01912],[-79.43295,9.02213],[-79.43781,9.02233],[-79.43797,9.02761],[-79.44183,9.02817],[-79.44393,9.03234],[-79.41863,9.03768],[-79.42949,9.05139],[-79.43577,9.05214],[-79.43296,9.05789],[-79.41598,9.06499],[-79.40634,9.05588],[-79.4085,9.05437],[-79.4066,9.04914],[-79.40137,9.04921]]]}},{"type":"Feature","properties":{"corregimiento":"Ancón","distrito":"Panamá","provincia":"Panamá","bbox":[-79.69455,8.90685,-79.51931,9.2099]},"geometry":{"type":"MultiPolygon","coordinates":[[[[-79.6488,9.17691],[-79.64671,9.17512],[-79.64904,9.17647],[-79.65373,9.17056],[-79.62684,9.14257],[-79.61275,9.11847],[-79.59683,9.09884],[-79.52575,9.0364],[-79.52096,9.02633],[-79.53765,9.01811],[-79.54172,9.01145],[-79.53773,8.97924],[-79.54151,8.97343],[-79.5465,8.97166],[-79.54743,8.96874],[-79.54118,8.96248],[-79.54821,8.95197],[-79.54883,8.9449],[-79.55316,8.94637],[-79.55215,8.94393],[-79.5442,8.94306],[-79.54368,8.93024],[-79.53199,8.91636],[-79.52841,8.91534],[-79.5279,8.9184],[-79.51944,8.91589],[-79.5245,8.91265],[-79.51952,8.91164],[-79.51937,8.91493],[-79.51931,8.90685],[-79.52248,8.90721],[-79.52653,8.91486],[-79.52997,8.91466],[-79.5264,8.91242],[-79.52892,8.91051],[-79.52977,8.91369],[-79.53624,8.91594],[-79.53454,8.91567],[-79.53418,8.91785],[-79.54707,8.93373],[-79.56718,8.94774],[-79.5685,8.95423],[-79.56495,8.95716],[-79.57118,8.96449],[-79.56928,8.96514],[-79.57384,8.96677],[-79.58196,8.99193],[-79.58842,8.99867],[-79.59409,9.00044],[-79.59651,9.00712],[-79.60566,9.01536],[-79.61021,9.01538],[-79.61839,9.02373],[-79.64399,9.04058],[-79.65668,9.05829],[-79.67024,9.06962],[-79.68317,9.09672],[-79.69455,9.11137],[-79.69101,9.11364],[-79.68541,9.11158],[-79.68805,9.11448],[-79.68596,9.11308],[-79.68066,9.11898],[-79.68559,9.11956],[-79.68517,9.12169],[-79.6798,9.12304],[-79.68426,9.12461],[-79.68606,9.12897],[-79.68127,9.12886],[-79.67584,9.13327],[-79.67354,9.14025],[-79.66759,9.14517],[-79.6657,9.14974],[-79.67475,9.14076],[-79.67474,9.14403],[-79.65314,9.16562],[-79.65687,9.16334],[-79.65495,9.17082],[-79.65197,9.17297],[-79.65246,9.17438],[-79.65532,9.17154],[-79.6578,9.16296],[-79.65468,9.17487],[-79.65136,9.17447],[-79.6488,9.17691]]],[[[-79.61619,9.2099],[-79.6164,9.20275],[-79.61169,9.20375],[-79.60259,9.18795],[-79.61116,9.18491],[-79.61534,9.18755],[-79.61459,9.1956],[-79.63057,9.19961],[-79.63712,9.19912],[-79.64076,9.19551],[-79.63898,9.19412],[-79.64704,9.19185],[-79.64612,9.18826],[-79.65155,9.18652],[-79.65092,9.18439],[-79.64276,9.18674],[-79.64233,9.18307],[-79.63522,9.18489],[-79.63496,9.18133],[-79.6379,9.18132],[-79.63478,9.17815],[-79.63859,9.17187],[-79.63401,9.17552],[-79.63586,9.16555],[-79.63361,9.16728],[-79.62687,9.16489],[-79.62306,9.17166],[-79.6237,9.17446],[-79.62284,9.17563],[-79.62528,9.17555],[-79.62612,9.17821],[-79.62426,9.18066],[-79.62481,9.17645],[-79.62292,9.17678],[-79.6213,9.17267],[-79.62335,9.16916],[-79.62009,9.1693],[-79.62595,9.16472],[-79.61956,9.16481],[-79.62442,9.16281],[-79.61839,9.15869],[-79.62139,9.16015],[-79.62431,9.15739],[-79.62559,9.1631],[-79.62833,9.16134],[-79.62885,9.16405],[-79.63121,9.16242],[-79.63431,9.16599],[-79.63412,9.15474],[-79.62493,9.1529],[-79.63187,9.15308],[-79.63233,9.15103],[-79.6373,9.15458],[-79.63819,9.16995],[-79.64183,9.17286],[-79.64001,9.17462],[-79.64332,9.17438],[-79.64443,9.17705],[-79.64902,9.18013],[-79.63993,9.17652],[-79.64648,9.18144],[-79.64917,9.18021],[-79.64782,9.17716],[-79.6542,9.17557],[-79.655,9.17467],[-79.65547,9.17332],[-79.65381,9.18055],[-79.65225,9.18112],[-79.65256,9.19194],[-79.64365,9.19981],[-79.64553,9.20533],[-79.62033,9.20293],[-79.619,9.20923],[-79.61619,9.2099]]]]}},{"type":"Feature","properties":{"corregimiento":"Las Garzas","distrito":"Panamá","provincia":"Panamá","bbox":[-79.29596,9.01368,-79.12498,9.17924]},"geometry":{"type":"Polygon","coordinates":[[[-79.22884,9.17924],[-79.23877,9.17103],[-79.24098,9.16078],[-79.23171,9.13388],[-79.23176,9.12565],[-79.21659,9.11521],[-79.20069,9.11544],[-79.19116,9.10653],[-79.18879,9.10074],[-79.16759,9.0966],[-79.15741,9.10132],[-79.15187,9.10058],[-79.13794,9.09324],[-79.13768,9.08914],[-79.14133,9.08638],[-79.13449,9.08231],[-79.13729,9.07952],[-79.13924,9.08082],[-79.14049,9.07707],[-79.13729,9.07222],[-79.13233,9.07246],[-79.13716,9.06651],[-79.13162,9.06326],[-79.13989,9.05738],[-79.13715,9.05372],[-79.12866,9.05665],[-79.12498,9.0523],[-79.12864,9.04796],[-79.13688,9.04735],[-79.13153,9.03566],[-79.13892,9.02861],[-79.14202,9.03061],[-79.13733,9.03875],[-79.15346,9.04272],[-79.15118,9.02968],[-79.15801,9.01862],[-79.16244,9.02163],[-79.15816,9.03257],[-79.161,9.03839],[-79.17439,9.03293],[-79.17128,9.01789],[-79.18396,9.01388],[-79.20205,9.01368],[-79.28651,9.02603],[-79.28716,9.03197],[-79.29551,9.04594],[-79.29596,9.05927],[-79.2863,9.06571],[-79.29222,9.07013],[-79.28346,9.08267],[-79.28402,9.08619],[-79.27415,9.09299],[-79.27846,9.10657],[-79.27537,9.11699],[-79.25883,9.12566],[-79.25651,9.14895],[-79.25307,9.14836],[-79.24734,9.15717],[-79.25012,9.16824],[-79.24392,9.16925],[-79.23485,9.17921],[-79.22884,9.17924]]]}}]}