{"type":"FeatureCollection","features":[{"type":"Feature","properties":{"corregimiento":"Amelia Denis de Icaza","distrito":"San Miguelito","provincia":"Panamá","bbox":[-79.53509,9.03166,-79.49683,9.04906]},"geometry":{"type":"Polygon","coordinates":[[[-79.50283,9.04906],[-79.49683,9.03761],[-79.50393,9.03873],[-79.50628,9.03619],[-79.51258,9.03943],[-79.51482,9.03166],[-79.51788,9.03502],[-79.52303,9.03343],[-79.53509,9.04565],[-79.51362,9.04451],[-79.50921,9.0475],[-79.5075,9.04427],[-79.50283,9.04906]]]}},{"type":"Feature","properties":{"corregimiento":"Belisario Porras","distrito":"San Miguelito","provincia":"Panamá","bbox":[-79.50904,9.04192,-79.48738,9.066]},"geometry":{"type":"Polygon","coordinates":[[[-79.49292,9.06311],[-79.49038,9.05403],[-79.48738,9.05434],[-79.48897,9.0451],[-79.49681,9.04192],[-79.50283,9.04906],[-79.5075,9.04427],[-79.50904,9.05945],[-79.5027,9.066],[-79.49292,9.06311]]]}},{"type":"Feature","properties":{"corregimiento":"José Domingo Espinar","distrito":"San Miguelito","provincia":"Panamá","bbox":[-79.49865,9.03062,-79.46006,9.06284]},"geometry":{"type":"Polygon","coordinates":[[[-79.46006,9.04884],[-79.49141,9.03062],[-79.49107,9.03917],[-79.49683,9.03761],[-79.49828,9.04145],[-79.49865,9.04391],[-79.4961,9.04197],[-79.48897,9.0451],[-79.48519,9.0612],[-79.47491,9.06107],[-79.47128,9.05758],[-79.46659,9.06284],[-79.46212,9.06025],[-79.46006,9.04884]]]}},{"type":"Feature","properties":{"corregimiento":"Arnulfo Arias","distrito":"San Miguelito","provincia":"Panamá","bbox":[-79.49374,9.05381,-79.46988,9.07942]},"geometry":{"type":"Polygon","coordinates":[[[-79.46988,9.07062],[-79.47128,9.05758],[-79.47491,9.06107],[-79.48519,9.0612],[-79.4865,9.05487],[-79.48999,9.05381],[-79.49374,9.06146],[-79.49144,9.06874],[-79.48237,9.07271],[-79.47714,9.07942],[-79.47641,9.07079],[-79.46988,9.07062]]]}},{"type":"Feature","properties":{"corregimiento":"Belisario Frías","distrito":"San Miguelito","provincia":"Panamá","bbox":[-79.50515,9.06256,-79.47564,9.09128]},"geometry":{"type":"Polygon","coordinates":[[[-79.47564,9.08904],[-79.48346,9.08635],[-79.47713,9.07944],[-79.48237,9.07271],[-79.49144,9.06874],[-79.49251,9.06345],[-79.49659,9.06256],[-79.5027,9.066],[-79.50515,9.07154],[-79.50343,9.07294],[-79.50235,9.07044],[-79.50173,9.07588],[-79.49068,9.08953],[-79.48363,9.08867],[-79.48365,9.09128],[-79.47564,9.08904]]]}},{"type":"Feature","properties":{"corregimiento":"Omar Torrijos","distrito":"San Miguelito","provincia":"Panamá","bbox":[-79.55212,9.04451,-79.50173,9.08041]},"geometry":{"type":"Polygon","coordinates":[[[-79.50173,9.07588],[-79.50235,9.07044],[-79.50343,9.07294],[-79.50515,9.07154],[-79.50193,9.06731],[-79.50955,9.05825],[-79.50709,9.04543],[-79.50921,9.0475],[-79.51362,9.04451],[-79.53509,9.04565],[-79.55212,9.06077],[-79.54088,9.05847],[-79.53832,9.0616],[-79.52739,9.06331],[-79.5216,9.07503],[-79.51252,9.08041],[-79.50679,9.0749],[-79.50173,9.07588]]]}},{"type":"Feature","properties":{"corregimiento":"Rufina Alfaro","distrito":"San Miguelito","provincia":"Panamá","bbox":[-79.48346,9.04884,-79.43595,9.08922]},"geometry":{"type":"Polygon","coordinates":[[[-79.45871,9.08051],[-79.44679,9.08286],[-79.44344,9.07937],[-79.43595,9.06668],[-79.43722,9.06047],[-79.44113,9.05348],[-79.46006,9.04884],[-79.46212,9.06025],[-79.46701,9.06297],[-79.47126,9.06023],[-79.46992,9.07073],[-79.47641,9.07079],[-79.47713,9.07944],[-79.48346,9.08635],[-79.47141,9.08922],[-79.46426,9.08366],[-79.45684,9.08258],[-79.45871,9.08051]]]}},{"type":"Feature","properties":{"corregimiento":"Mateo Iturralde","distrito":"San Miguelito","provincia":"Panamá","bbox":[-79.50239,9.02876,-79.49107,9.03917]},"geometry":{"type":"Polygon","coordinates":[[[-79.49141,9.03062],[-79.49482,9.02876],[-79.50239,9.03066],[-79.50036,9.0379],[-79.49107,9.03917],[-79.49141,9.03062]]]}},{"type":"Feature","properties":{"corregimiento":"Victoriano Lorenzo","distrito":"San Miguelito","provincia":"Panamá","bbox":[-79.51465,9.02532,-79.49428,9.03943]},"geometry":{"type":"Polygon","coordinates":[[[-79.5004,9.03784],[-79.50239,9.03066],[-79.49428,9.02885],[-79.49583,9.02553],[-79.50458,9.0254],[-79.50685,9.02923],[-79.51093,9.02532],[-79.51465,9.02966],[-79.51258,9.03943],[-79.50628,9.03619],[-79.50393,9.03873],[-79.5004,9.03784]]]}}]}