{"type":"FeatureCollection","features":[{"type":"Feature","properties":{"corregimiento":"Taboga (Cabecera)","distrito":"Taboga","provincia":"Panamá","bbox":[-79.57076,8.77521,-79.54053,8.80433]},"geometry":{"type":"Polygon","coordinates":[[[-79.56412,8.80433],[-79.55507,8.80065],[-79.5552,8.79608],[-79.54908,8.78765],[-79.5456,8.78927],[-79.54158,8.78625],[-79.54053,8.77928],[-79.54369,8.77522],[-79.54937,8.77521],[-79.55245,8.7825],[-79.56459,8.78349],[-79.56609,8.78139],[-79.56974,8.78387],[-79.57076,8.79897],[-79.56412,8.80433]]]}},{"type":"Feature","properties":{"corregimiento":"Otoque Occidente","distrito":"Taboga","provincia":"Panamá","bbox":[-79.61173,8.5924,-79.59919,8.61249]},"geometry":{"type":"Polygon","coordinates":[[[-79.60111,8.61142],[-79.59919,8.60047],[-79.60971,8.5924],[-79.61173,8.60287],[-79.6064,8.60338],[-79.60624,8.61249],[-79.60111,8.61142]]]}},{"type":"Feature","properties":{"corregimiento":"Otoque Oriente","distrito":"Taboga","provincia":"Panamá","bbox":[-79.60111,8.59199,-79.59164,8.61142]},"geometry":{"type":"Polygon","coordinates":[[[-79.60099,8.59818],[-79.5991,8.601],[-79.60111,8.61142],[-79.59216,8.60103],[-79.5937,8.59545],[-79.59164,8.59199],[-79.60099,8.59818]]]}}]}