{"type":"FeatureCollection","features":[{"type":"Feature","properties":{"corregimiento":"El Barrito","distrito":"Atalaya","provincia":"Veraguas","bbox":[-80.97104,7.95315,-80.92061,8.01048]},"geometry":{"type":"Polygon","coordinates":[[[-80.93679,8.00963],[-80.92763,7.99737],[-80.92462,7.99924],[-80.92061,7.98348],[-80.92158,7.95544],[-80.94656,7.95315],[-80.95743,7.96439],[-80.95852,7.98025],[-80.96397,7.98622],[-80.96368,7.98965],[-80.97104,7.99424],[-80.96221,8.00315],[-80.94519,8.01048],[-80.93679,8.00963]]]}},{"type":"Feature","properties":{"corregimiento":"La Montañuela","distrito":"Atalaya","provincia":"Veraguas","bbox":[-80.89407,7.98153,-80.8399,8.06992]},"geometry":{"type":"Polygon","coordinates":[[[-80.86908,8.06992],[-80.85437,8.06779],[-80.85076,8.06469],[-80.85414,8.06123],[-80.86276,8.06302],[-80.86231,8.05941],[-80.86957,8.05319],[-80.86348,8.04405],[-80.86574,8.04228],[-80.86061,8.03744],[-80.86337,8.03032],[-80.85472,8.02955],[-80.85097,8.02274],[-80.84574,8.02209],[-80.8471,8.01919],[-80.8399,8.00486],[-80.85351,8.00104],[-80.85778,7.98353],[-80.87908,7.98153],[-80.87675,7.99432],[-80.87854,7.99961],[-80.87258,8.00795],[-80.88187,8.01149],[-80.8789,8.02134],[-80.8807,8.02642],[-80.89407,8.03993],[-80.88939,8.04764],[-80.89038,8.05385],[-80.88402,8.05962],[-80.86908,8.06992]]]}},{"type":"Feature","properties":{"corregimiento":"La Carrillo","distrito":"Atalaya","provincia":"Veraguas","bbox":[-80.92846,7.94411,-80.86333,8.02608]},"geometry":{"type":"Polygon","coordinates":[[[-80.89193,8.02608],[-80.88053,8.00971],[-80.87258,8.00795],[-80.87854,7.99961],[-80.87675,7.99432],[-80.8796,7.98229],[-80.86333,7.9846],[-80.86518,7.96872],[-80.88137,7.96279],[-80.88254,7.95729],[-80.89431,7.94411],[-80.89432,7.94966],[-80.89912,7.9533],[-80.90171,7.95349],[-80.90311,7.9494],[-80.90984,7.94923],[-80.91663,7.95599],[-80.9219,7.95467],[-80.92061,7.98348],[-80.92462,7.99924],[-80.92763,7.99737],[-80.92846,8.00055],[-80.90949,8.02448],[-80.89193,8.02608]]]}},{"type":"Feature","properties":{"corregimiento":"Atalaya (Cabecera)","distrito":"Atalaya","provincia":"Veraguas","bbox":[-80.97327,8.00055,-80.8789,8.0752]},"geometry":{"type":"Polygon","coordinates":[[[-80.89095,8.06093],[-80.88939,8.04764],[-80.8924,8.04584],[-80.89404,8.03891],[-80.8807,8.02642],[-80.8789,8.02134],[-80.88106,8.0139],[-80.89193,8.02608],[-80.90949,8.02448],[-80.92846,8.00055],[-80.92943,8.00381],[-80.94122,8.01085],[-80.96547,8.00191],[-80.97129,8.01556],[-80.97048,8.02314],[-80.96487,8.0289],[-80.97155,8.03028],[-80.97327,8.03788],[-80.96845,8.03747],[-80.96646,8.04253],[-80.96035,8.04213],[-80.95843,8.05351],[-80.95515,8.05649],[-80.9587,8.06447],[-80.95171,8.06663],[-80.94758,8.07411],[-80.94402,8.0752],[-80.93454,8.07039],[-80.93371,8.05832],[-80.91355,8.06013],[-80.90581,8.05731],[-80.89095,8.06093]]]}},{"type":"Feature","properties":{"corregimiento":"San Antonio","distrito":"Atalaya","provincia":"Veraguas","bbox":[-80.9486,8.05385,-80.86155,8.0941]},"geometry":{"type":"Polygon","coordinates":[[[-80.92838,8.07233],[-80.88166,8.08461],[-80.86362,8.0776],[-80.86155,8.06868],[-80.86908,8.06992],[-80.89038,8.05385],[-80.89095,8.06093],[-80.90581,8.05731],[-80.91355,8.06013],[-80.93371,8.05832],[-80.93454,8.07039],[-80.94402,8.0752],[-80.94758,8.07411],[-80.9486,8.0941],[-80.92838,8.07233]]]}}]}