{"type":"FeatureCollection","features":[{"type":"Feature","properties":{"corregimiento":"Calobre (Cabecera)","distrito":"Calobre","provincia":"Veraguas","bbox":[-80.86802,8.24095,-80.77152,8.35786]},"geometry":{"type":"Polygon","coordinates":[[[-80.79251,8.34711],[-80.79233,8.34276],[-80.79733,8.33616],[-80.79134,8.32244],[-80.79637,8.32283],[-80.7962,8.31962],[-80.80697,8.30841],[-80.80423,8.30383],[-80.79581,8.3077],[-80.79797,8.30131],[-80.79094,8.30235],[-80.78609,8.29693],[-80.78519,8.29023],[-80.77962,8.2889],[-80.77692,8.27639],[-80.77869,8.27415],[-80.77215,8.26099],[-80.77552,8.25755],[-80.77152,8.25281],[-80.77543,8.25181],[-80.79037,8.26011],[-80.80335,8.26205],[-80.81622,8.25195],[-80.82021,8.24095],[-80.8238,8.25618],[-80.82814,8.24782],[-80.83639,8.2447],[-80.8378,8.24119],[-80.84782,8.24225],[-80.84531,8.24924],[-80.85121,8.25265],[-80.84833,8.25591],[-80.8488,8.26735],[-80.85627,8.28814],[-80.85309,8.28919],[-80.85305,8.29279],[-80.86711,8.30496],[-80.85816,8.30628],[-80.8538,8.31483],[-80.85026,8.31546],[-80.85109,8.31908],[-80.84605,8.32125],[-80.84932,8.32105],[-80.85051,8.32629],[-80.85508,8.32945],[-80.8664,8.33277],[-80.86802,8.35169],[-80.85947,8.35477],[-80.85447,8.34912],[-80.83641,8.35786],[-80.82169,8.34421],[-80.82271,8.33994],[-80.81827,8.33939],[-80.81684,8.33082],[-80.80204,8.3432],[-80.79857,8.34242],[-80.79251,8.34711]]]}},{"type":"Feature","properties":{"corregimiento":"La Laguna","distrito":"Calobre","provincia":"Veraguas","bbox":[-80.80697,8.26885,-80.70218,8.39181]},"geometry":{"type":"Polygon","coordinates":[[[-80.72529,8.37602],[-80.7257,8.35219],[-80.7174,8.34165],[-80.70531,8.33559],[-80.70218,8.32765],[-80.70505,8.30976],[-80.7036,8.29859],[-80.70904,8.29168],[-80.71052,8.27881],[-80.71635,8.27456],[-80.71621,8.27114],[-80.7139,8.27164],[-80.71517,8.26885],[-80.7199,8.27065],[-80.72147,8.27841],[-80.72782,8.28146],[-80.72875,8.29447],[-80.73922,8.30193],[-80.75732,8.30609],[-80.77313,8.30442],[-80.77948,8.28856],[-80.78519,8.29023],[-80.78609,8.29693],[-80.79094,8.30235],[-80.79797,8.30131],[-80.79581,8.3077],[-80.80423,8.30383],[-80.80697,8.30841],[-80.7962,8.31962],[-80.79637,8.32283],[-80.79134,8.32244],[-80.79732,8.33629],[-80.79233,8.34276],[-80.79284,8.35043],[-80.78651,8.35946],[-80.78676,8.36823],[-80.77946,8.37332],[-80.77961,8.3781],[-80.76864,8.38306],[-80.7647,8.38942],[-80.7416,8.38291],[-80.73418,8.39181],[-80.72529,8.37602]]]}},{"type":"Feature","properties":{"corregimiento":"La Raya de Calobre","distrito":"Calobre","provincia":"Veraguas","bbox":[-80.84496,8.17973,-80.77341,8.26202]},"geometry":{"type":"Polygon","coordinates":[[[-80.77543,8.25181],[-80.77393,8.24716],[-80.77828,8.24055],[-80.77341,8.23442],[-80.77782,8.23236],[-80.77768,8.22854],[-80.79805,8.2474],[-80.80492,8.23909],[-80.80477,8.23393],[-80.79989,8.22942],[-80.80378,8.22229],[-80.80169,8.21194],[-80.79917,8.2106],[-80.79998,8.20248],[-80.79487,8.19666],[-80.798,8.1956],[-80.79777,8.19191],[-80.80308,8.18567],[-80.79726,8.17973],[-80.80763,8.18083],[-80.81981,8.19085],[-80.82645,8.20266],[-80.83836,8.20124],[-80.84004,8.20663],[-80.84496,8.21026],[-80.83753,8.21824],[-80.84279,8.22344],[-80.84162,8.22608],[-80.83498,8.22928],[-80.8317,8.22731],[-80.83175,8.2338],[-80.838,8.2397],[-80.8373,8.24352],[-80.82814,8.24782],[-80.82511,8.25605],[-80.8216,8.25207],[-80.82021,8.24095],[-80.81622,8.25195],[-80.80349,8.26202],[-80.79037,8.26011],[-80.77543,8.25181]]]}},{"type":"Feature","properties":{"corregimiento":"La Tetilla","distrito":"Calobre","provincia":"Veraguas","bbox":[-80.92217,8.21257,-80.83138,8.30441]},"geometry":{"type":"Polygon","coordinates":[[[-80.8378,8.24119],[-80.8323,8.23504],[-80.83138,8.22951],[-80.83199,8.22684],[-80.83498,8.22928],[-80.84217,8.2253],[-80.83752,8.21837],[-80.84147,8.21257],[-80.84705,8.21373],[-80.84742,8.21718],[-80.8543,8.2174],[-80.86372,8.213],[-80.86477,8.21917],[-80.87312,8.22737],[-80.87873,8.2286],[-80.88187,8.22446],[-80.89558,8.2261],[-80.90044,8.23116],[-80.90286,8.23799],[-80.90115,8.24327],[-80.90538,8.24511],[-80.90517,8.24805],[-80.91785,8.25101],[-80.9184,8.26487],[-80.92217,8.27058],[-80.90957,8.27523],[-80.89649,8.28817],[-80.87908,8.29136],[-80.86523,8.30441],[-80.85305,8.29279],[-80.85309,8.28919],[-80.85627,8.28814],[-80.8488,8.26735],[-80.84833,8.25591],[-80.85121,8.25265],[-80.84531,8.24924],[-80.84801,8.24245],[-80.8378,8.24119]]]}},{"type":"Feature","properties":{"corregimiento":"Las Guías","distrito":"Calobre","provincia":"Veraguas","bbox":[-80.80483,8.17631,-80.71173,8.30609]},"geometry":{"type":"Polygon","coordinates":[[[-80.71642,8.26918],[-80.71721,8.25658],[-80.71173,8.25037],[-80.71727,8.24455],[-80.71655,8.23803],[-80.72417,8.22117],[-80.7232,8.21196],[-80.73377,8.20384],[-80.73443,8.19829],[-80.74159,8.19784],[-80.74124,8.19439],[-80.74413,8.19415],[-80.74319,8.19191],[-80.74659,8.18902],[-80.74171,8.18236],[-80.74697,8.18609],[-80.76855,8.17734],[-80.77114,8.18256],[-80.77508,8.18361],[-80.78553,8.17631],[-80.79461,8.17786],[-80.80009,8.18175],[-80.80033,8.18538],[-80.80243,8.18383],[-80.798,8.1956],[-80.79487,8.19666],[-80.7999,8.20226],[-80.79917,8.2106],[-80.80169,8.21194],[-80.80377,8.2221],[-80.79987,8.22923],[-80.80483,8.23409],[-80.80334,8.24329],[-80.79805,8.2474],[-80.78065,8.23331],[-80.77897,8.2284],[-80.77774,8.23244],[-80.77345,8.23422],[-80.7783,8.24065],[-80.77393,8.24716],[-80.77539,8.2519],[-80.77147,8.2529],[-80.77553,8.25763],[-80.77215,8.26099],[-80.77869,8.27415],[-80.77692,8.27639],[-80.77954,8.28777],[-80.77341,8.30427],[-80.75732,8.30609],[-80.73922,8.30193],[-80.72875,8.29447],[-80.72782,8.28146],[-80.72147,8.27841],[-80.7199,8.27065],[-80.71642,8.26918]]]}},{"type":"Feature","properties":{"corregimiento":"Barnizal","distrito":"Calobre","provincia":"Veraguas","bbox":[-80.80205,8.36978,-80.73451,8.43765]},"geometry":{"type":"Polygon","coordinates":[[[-80.75486,8.42857],[-80.73451,8.39124],[-80.7416,8.38291],[-80.7647,8.38942],[-80.76864,8.38306],[-80.77968,8.37804],[-80.77968,8.3731],[-80.78568,8.36978],[-80.78929,8.37128],[-80.78304,8.38168],[-80.78475,8.38817],[-80.78923,8.39145],[-80.78282,8.40808],[-80.78972,8.42277],[-80.80205,8.41928],[-80.79189,8.43765],[-80.75486,8.42857]]]}},{"type":"Feature","properties":{"corregimiento":"El Cocla","distrito":"Calobre","provincia":"Veraguas","bbox":[-80.93885,8.272,-80.84604,8.38925]},"geometry":{"type":"Polygon","coordinates":[[[-80.90273,8.38467],[-80.88693,8.35511],[-80.87991,8.35156],[-80.86808,8.35112],[-80.8664,8.33277],[-80.85508,8.32945],[-80.85051,8.32629],[-80.84932,8.32105],[-80.84604,8.32117],[-80.85109,8.31908],[-80.85026,8.31546],[-80.8538,8.31483],[-80.85798,8.30645],[-80.867,8.30504],[-80.87908,8.29136],[-80.89649,8.28817],[-80.90957,8.27523],[-80.91991,8.272],[-80.92136,8.28051],[-80.91832,8.28535],[-80.92052,8.28846],[-80.91376,8.29435],[-80.9137,8.29869],[-80.91565,8.30601],[-80.92369,8.30854],[-80.92549,8.30523],[-80.93085,8.30439],[-80.93806,8.32152],[-80.93885,8.3785],[-80.93069,8.37416],[-80.92918,8.38352],[-80.92365,8.38347],[-80.92181,8.38925],[-80.90971,8.38235],[-80.90273,8.38467]]]}},{"type":"Feature","properties":{"corregimiento":"El Potrero","distrito":"Calobre","provincia":"Veraguas","bbox":[-80.83641,8.33082,-80.78282,8.44263]},"geometry":{"type":"Polygon","coordinates":[[[-80.80205,8.41928],[-80.78972,8.42277],[-80.78282,8.40808],[-80.789,8.39442],[-80.78911,8.3903],[-80.78475,8.38817],[-80.78303,8.38179],[-80.78936,8.37144],[-80.78569,8.36984],[-80.78648,8.3596],[-80.79251,8.34711],[-80.79857,8.34242],[-80.80204,8.3432],[-80.81684,8.33082],[-80.81827,8.33939],[-80.82271,8.33994],[-80.82169,8.34421],[-80.83641,8.35786],[-80.82712,8.3641],[-80.82393,8.38317],[-80.82552,8.38986],[-80.82289,8.39029],[-80.82707,8.39737],[-80.8282,8.41667],[-80.82453,8.43085],[-80.81786,8.44263],[-80.81296,8.43609],[-80.80623,8.433],[-80.80205,8.41928]]]}},{"type":"Feature","properties":{"corregimiento":"La Yeguada","distrito":"Calobre","provincia":"Veraguas","bbox":[-80.9411,8.37426,-80.78307,8.54872]},"geometry":{"type":"Polygon","coordinates":[[[-80.83608,8.54872],[-80.82516,8.54416],[-80.81978,8.53384],[-80.80651,8.52794],[-80.80571,8.52312],[-80.80106,8.52161],[-80.79351,8.50911],[-80.78307,8.50011],[-80.81319,8.4924],[-80.82148,8.46675],[-80.81786,8.44263],[-80.82453,8.43081],[-80.84794,8.41728],[-80.84493,8.41347],[-80.84742,8.3932],[-80.85704,8.40141],[-80.87188,8.40782],[-80.87763,8.39555],[-80.88996,8.39536],[-80.89957,8.38064],[-80.90273,8.38467],[-80.90971,8.38235],[-80.92181,8.38925],[-80.92365,8.38347],[-80.92918,8.38352],[-80.93197,8.37426],[-80.93885,8.3785],[-80.9411,8.4238],[-80.93171,8.42467],[-80.92524,8.42916],[-80.92699,8.43795],[-80.92998,8.43651],[-80.93429,8.43893],[-80.93334,8.44436],[-80.92853,8.44801],[-80.92899,8.4517],[-80.91948,8.45388],[-80.91692,8.4492],[-80.91543,8.45134],[-80.90498,8.44503],[-80.90346,8.45074],[-80.8957,8.45356],[-80.89629,8.45581],[-80.88884,8.4544],[-80.88791,8.45915],[-80.87671,8.46195],[-80.86707,8.48273],[-80.85775,8.49202],[-80.84963,8.49169],[-80.84788,8.49516],[-80.84678,8.50648],[-80.85001,8.51507],[-80.84816,8.51832],[-80.8547,8.53679],[-80.8492,8.53538],[-80.84679,8.53849],[-80.84354,8.53797],[-80.83608,8.54872]],[[-80.85345,8.46267],[-80.85843,8.46352],[-80.86207,8.46017],[-80.85652,8.44715],[-80.85144,8.45434],[-80.85345,8.46267]]]}},{"type":"Feature","properties":{"corregimiento":"Monjarás","distrito":"Calobre","provincia":"Veraguas","bbox":[-80.89957,8.34912,-80.82291,8.43081]},"geometry":{"type":"Polygon","coordinates":[[[-80.82715,8.36399],[-80.85447,8.34912],[-80.85947,8.35477],[-80.86351,8.35176],[-80.87991,8.35156],[-80.88693,8.35511],[-80.89957,8.38064],[-80.88996,8.39536],[-80.87763,8.39555],[-80.87188,8.40782],[-80.85704,8.40141],[-80.84742,8.3932],[-80.84493,8.41347],[-80.84794,8.41728],[-80.82453,8.43081],[-80.82868,8.40707],[-80.82291,8.39042],[-80.82552,8.38986],[-80.82393,8.38317],[-80.82715,8.36399]]]}},{"type":"Feature","properties":{"corregimiento":"San José","distrito":"Calobre","provincia":"Veraguas","bbox":[-80.82148,8.41962,-80.75241,8.50011]},"geometry":{"type":"Polygon","coordinates":[[[-80.75486,8.42857],[-80.79057,8.43806],[-80.79815,8.42293],[-80.80244,8.41962],[-80.80403,8.42898],[-80.81786,8.44263],[-80.82122,8.45476],[-80.82148,8.46675],[-80.81319,8.4924],[-80.78307,8.50011],[-80.78688,8.47597],[-80.77805,8.4747],[-80.76837,8.46844],[-80.76959,8.46502],[-80.76134,8.45963],[-80.75551,8.45148],[-80.75743,8.44684],[-80.75576,8.44153],[-80.75866,8.43813],[-80.75241,8.43048],[-80.75486,8.42857]]]}},{"type":"Feature","properties":{"corregimiento":"Chitra","distrito":"Calobre","provincia":"Veraguas","bbox":[-80.95202,8.44506,-80.84678,8.59651]},"geometry":{"type":"Polygon","coordinates":[[[-80.8547,8.53679],[-80.84678,8.50648],[-80.84956,8.49174],[-80.85921,8.49086],[-80.86707,8.48273],[-80.87671,8.46195],[-80.88791,8.45915],[-80.88884,8.4544],[-80.89629,8.45581],[-80.8957,8.45356],[-80.90346,8.45074],[-80.9049,8.44506],[-80.91543,8.45134],[-80.91692,8.4492],[-80.91922,8.45381],[-80.9236,8.45363],[-80.9285,8.48385],[-80.9238,8.4889],[-80.92742,8.48856],[-80.93903,8.50725],[-80.94975,8.51522],[-80.94876,8.51977],[-80.95202,8.52311],[-80.94876,8.53339],[-80.94437,8.53354],[-80.9401,8.54707],[-80.93054,8.55227],[-80.91872,8.56614],[-80.91404,8.56713],[-80.90986,8.58015],[-80.89298,8.59651],[-80.88046,8.5932],[-80.87612,8.57861],[-80.87725,8.56743],[-80.87091,8.54858],[-80.8547,8.53679]]]}}]}