{"type":"FeatureCollection","features":[{"type":"Feature","properties":{"corregimiento":"Cañazas (Cabecera)","distrito":"Cañazas","provincia":"Veraguas","bbox":[-81.27294,8.25769,-81.16461,8.38146]},"geometry":{"type":"Polygon","coordinates":[[[-81.16461,8.31641],[-81.18347,8.30614],[-81.19077,8.30562],[-81.19418,8.3005],[-81.19844,8.30078],[-81.19864,8.28865],[-81.20584,8.2761],[-81.22765,8.27872],[-81.23098,8.26155],[-81.27294,8.25769],[-81.26394,8.26429],[-81.26805,8.28366],[-81.26034,8.28955],[-81.26938,8.29842],[-81.26548,8.30564],[-81.27232,8.32001],[-81.26684,8.3284],[-81.27071,8.33115],[-81.27092,8.33617],[-81.25926,8.33954],[-81.25783,8.3454],[-81.24973,8.34602],[-81.24783,8.34226],[-81.24381,8.3441],[-81.23729,8.33999],[-81.2379,8.34632],[-81.22791,8.3464],[-81.2287,8.35273],[-81.2225,8.35388],[-81.22051,8.35982],[-81.21476,8.36081],[-81.20641,8.37134],[-81.20534,8.37452],[-81.20893,8.38005],[-81.1956,8.38146],[-81.19509,8.37677],[-81.1888,8.37052],[-81.1895,8.36688],[-81.18012,8.36668],[-81.18263,8.35772],[-81.17441,8.35323],[-81.17778,8.34995],[-81.17522,8.34945],[-81.17816,8.34347],[-81.17308,8.33193],[-81.17656,8.32606],[-81.16461,8.31641]]]}},{"type":"Feature","properties":{"corregimiento":"Cerro Plata","distrito":"Cañazas","provincia":"Veraguas","bbox":[-81.44802,8.2522,-81.27023,8.34801]},"geometry":{"type":"Polygon","coordinates":[[[-81.35061,8.32569],[-81.33913,8.32237],[-81.33546,8.31403],[-81.33018,8.31892],[-81.317,8.3093],[-81.31346,8.31253],[-81.3021,8.3107],[-81.30117,8.30425],[-81.29842,8.3047],[-81.29178,8.29412],[-81.28396,8.28922],[-81.28198,8.28403],[-81.28652,8.2791],[-81.28578,8.27244],[-81.28189,8.27459],[-81.27969,8.26997],[-81.27089,8.26888],[-81.27023,8.26116],[-81.27294,8.25769],[-81.37303,8.2522],[-81.3758,8.25795],[-81.38076,8.25847],[-81.38204,8.27095],[-81.39048,8.27496],[-81.39573,8.27263],[-81.40372,8.2784],[-81.41948,8.27379],[-81.42338,8.27073],[-81.42079,8.26682],[-81.42387,8.26468],[-81.42926,8.26678],[-81.44248,8.25713],[-81.44747,8.25754],[-81.44744,8.26625],[-81.43751,8.26817],[-81.44802,8.27493],[-81.44792,8.27922],[-81.44127,8.28679],[-81.42201,8.28216],[-81.42353,8.29025],[-81.42814,8.28599],[-81.43551,8.28746],[-81.43673,8.29202],[-81.43461,8.29804],[-81.42252,8.30456],[-81.42158,8.3091],[-81.41475,8.30855],[-81.4153,8.30662],[-81.40686,8.30383],[-81.40544,8.30021],[-81.39945,8.30688],[-81.39481,8.30466],[-81.38328,8.30931],[-81.38696,8.31753],[-81.38317,8.32326],[-81.3785,8.31543],[-81.36813,8.31763],[-81.37366,8.3283],[-81.36766,8.33123],[-81.36267,8.34077],[-81.36459,8.34465],[-81.36041,8.34801],[-81.35971,8.34334],[-81.36247,8.34088],[-81.35981,8.33457],[-81.36486,8.3328],[-81.35818,8.32169],[-81.35817,8.31708],[-81.35206,8.31636],[-81.35061,8.32569]]]}},{"type":"Feature","properties":{"corregimiento":"El Picador","distrito":"Cañazas","provincia":"Veraguas","bbox":[-81.36365,8.33654,-81.20556,8.52106]},"geometry":{"type":"Polygon","coordinates":[[[-81.32346,8.48814],[-81.30829,8.49241],[-81.31177,8.49746],[-81.3114,8.50468],[-81.30602,8.50859],[-81.30277,8.50775],[-81.30141,8.51221],[-81.29912,8.50793],[-81.28188,8.50238],[-81.29107,8.49041],[-81.30027,8.48686],[-81.29904,8.47599],[-81.30164,8.47446],[-81.30065,8.46615],[-81.30522,8.46117],[-81.30452,8.45585],[-81.29934,8.45021],[-81.28352,8.47079],[-81.27714,8.46691],[-81.27589,8.46186],[-81.27025,8.45704],[-81.25215,8.4517],[-81.24975,8.44802],[-81.26145,8.44143],[-81.25459,8.41748],[-81.24237,8.41144],[-81.23588,8.41485],[-81.23341,8.40898],[-81.23468,8.39991],[-81.22934,8.3906],[-81.23029,8.38376],[-81.22557,8.38382],[-81.21415,8.37556],[-81.20878,8.38],[-81.20556,8.37503],[-81.21476,8.36081],[-81.21886,8.36121],[-81.2225,8.35388],[-81.22882,8.35259],[-81.22791,8.3464],[-81.23798,8.34625],[-81.23641,8.34406],[-81.23729,8.33999],[-81.24381,8.3441],[-81.24783,8.34226],[-81.25013,8.34611],[-81.25808,8.34529],[-81.25926,8.33954],[-81.26677,8.33654],[-81.27174,8.34065],[-81.27806,8.33887],[-81.28502,8.34416],[-81.278,8.35319],[-81.27935,8.35628],[-81.29512,8.36736],[-81.30242,8.36343],[-81.30913,8.37566],[-81.31685,8.37615],[-81.33612,8.40117],[-81.3467,8.40592],[-81.34635,8.41352],[-81.35124,8.42199],[-81.34701,8.42379],[-81.34297,8.42157],[-81.34373,8.43805],[-81.33348,8.43579],[-81.33231,8.43898],[-81.35081,8.44715],[-81.34861,8.43963],[-81.35334,8.43694],[-81.35647,8.44016],[-81.35592,8.45425],[-81.33715,8.45624],[-81.33408,8.45422],[-81.32481,8.45765],[-81.31427,8.45331],[-81.313,8.46145],[-81.31665,8.46719],[-81.32384,8.46298],[-81.33427,8.46532],[-81.33355,8.46851],[-81.34351,8.47533],[-81.35881,8.46761],[-81.36365,8.47955],[-81.36133,8.48117],[-81.36067,8.49575],[-81.35668,8.49535],[-81.35439,8.50128],[-81.34338,8.50673],[-81.34144,8.51941],[-81.33542,8.52106],[-81.33121,8.51755],[-81.33005,8.50976],[-81.32186,8.50552],[-81.3373,8.48699],[-81.34387,8.48639],[-81.34483,8.48164],[-81.33445,8.4799],[-81.32346,8.48814]]]}},{"type":"Feature","properties":{"corregimiento":"Los Valles","distrito":"Cañazas","provincia":"Veraguas","bbox":[-81.26256,8.37576,-81.13456,8.50404]},"geometry":{"type":"Polygon","coordinates":[[[-81.14872,8.41911],[-81.14111,8.41521],[-81.14444,8.41032],[-81.13456,8.40476],[-81.14588,8.40156],[-81.1631,8.40456],[-81.16473,8.40241],[-81.16151,8.3886],[-81.16366,8.38734],[-81.1796,8.39654],[-81.18693,8.38861],[-81.1935,8.38609],[-81.1956,8.38146],[-81.20893,8.38005],[-81.21241,8.37576],[-81.21665,8.3761],[-81.22607,8.38406],[-81.23029,8.38376],[-81.22934,8.3906],[-81.23468,8.39991],[-81.23341,8.40898],[-81.23557,8.4144],[-81.24237,8.41144],[-81.25449,8.41736],[-81.26145,8.44143],[-81.24971,8.44813],[-81.25345,8.45841],[-81.25114,8.46555],[-81.26256,8.48565],[-81.24841,8.48877],[-81.2552,8.49942],[-81.25397,8.50324],[-81.24865,8.50404],[-81.24689,8.49833],[-81.24474,8.50047],[-81.23298,8.49919],[-81.23426,8.48724],[-81.24079,8.48286],[-81.23892,8.47736],[-81.24087,8.47067],[-81.23643,8.4667],[-81.23801,8.45811],[-81.23559,8.45136],[-81.22918,8.44962],[-81.22941,8.45281],[-81.22403,8.45492],[-81.22243,8.44966],[-81.22238,8.44479],[-81.23121,8.44208],[-81.22151,8.44163],[-81.21527,8.44742],[-81.21033,8.44727],[-81.2172,8.45358],[-81.21002,8.44913],[-81.20651,8.45274],[-81.2026,8.44835],[-81.20043,8.45215],[-81.19359,8.45236],[-81.19237,8.44928],[-81.18956,8.45358],[-81.18375,8.4506],[-81.17879,8.45537],[-81.16951,8.45518],[-81.16893,8.43671],[-81.16573,8.4395],[-81.16037,8.43326],[-81.15301,8.43443],[-81.14872,8.41911]]]}},{"type":"Feature","properties":{"corregimiento":"San Marcelo","distrito":"Cañazas","provincia":"Veraguas","bbox":[-81.23171,8.24296,-81.09021,8.31641]},"geometry":{"type":"Polygon","coordinates":[[[-81.12062,8.30683],[-81.11891,8.3031],[-81.11183,8.30481],[-81.10859,8.30014],[-81.10681,8.30146],[-81.09899,8.28059],[-81.10205,8.27534],[-81.09909,8.2721],[-81.0906,8.27222],[-81.09386,8.26802],[-81.09021,8.26477],[-81.09453,8.26419],[-81.09307,8.25742],[-81.09783,8.25317],[-81.10731,8.25651],[-81.11705,8.24796],[-81.12672,8.2451],[-81.13129,8.24742],[-81.13617,8.24296],[-81.1422,8.24636],[-81.14742,8.25587],[-81.15483,8.24504],[-81.20079,8.25032],[-81.21263,8.26344],[-81.23171,8.26318],[-81.22765,8.27872],[-81.20584,8.2761],[-81.19864,8.28865],[-81.19844,8.30078],[-81.19418,8.3005],[-81.19077,8.30562],[-81.18347,8.30614],[-81.16461,8.31641],[-81.16309,8.30817],[-81.15659,8.30659],[-81.15623,8.30198],[-81.15261,8.30288],[-81.15135,8.29979],[-81.14699,8.3063],[-81.14687,8.31261],[-81.14207,8.31531],[-81.13571,8.30555],[-81.12778,8.30974],[-81.12062,8.30683]]]}},{"type":"Feature","properties":{"corregimiento":"El Aromillo","distrito":"Cañazas","provincia":"Veraguas","bbox":[-81.19553,8.29973,-81.11583,8.40471]},"geometry":{"type":"Polygon","coordinates":[[[-81.13597,8.40343],[-81.12831,8.39962],[-81.12098,8.3837],[-81.12168,8.36525],[-81.11583,8.35673],[-81.11859,8.35039],[-81.11739,8.34181],[-81.12182,8.33838],[-81.12131,8.33229],[-81.12541,8.33292],[-81.12595,8.32947],[-81.12323,8.31864],[-81.11723,8.31884],[-81.11896,8.31512],[-81.11654,8.31244],[-81.12062,8.30683],[-81.12778,8.30974],[-81.13571,8.30555],[-81.14207,8.31531],[-81.14687,8.31261],[-81.14696,8.3064],[-81.15101,8.29973],[-81.15261,8.30288],[-81.15623,8.30198],[-81.15659,8.30659],[-81.16258,8.30758],[-81.16523,8.31806],[-81.17654,8.32601],[-81.17308,8.33193],[-81.17816,8.34347],[-81.17522,8.34945],[-81.17778,8.34983],[-81.17443,8.35334],[-81.18263,8.35772],[-81.18018,8.36676],[-81.18966,8.36708],[-81.1888,8.37052],[-81.19509,8.37677],[-81.19553,8.38311],[-81.18108,8.39632],[-81.16158,8.38836],[-81.16473,8.40241],[-81.16276,8.40471],[-81.15448,8.40189],[-81.13597,8.40343]]]}},{"type":"Feature","properties":{"corregimiento":"Las Cruces","distrito":"Cañazas","provincia":"Veraguas","bbox":[-81.36918,8.26079,-81.26036,8.40996]},"geometry":{"type":"Polygon","coordinates":[[[-81.34676,8.40618],[-81.33612,8.40117],[-81.31685,8.37615],[-81.30913,8.37566],[-81.30242,8.36343],[-81.29512,8.36736],[-81.27935,8.35628],[-81.27794,8.35331],[-81.28436,8.34298],[-81.27723,8.33857],[-81.27193,8.34069],[-81.26735,8.33795],[-81.27105,8.33511],[-81.27066,8.33106],[-81.26685,8.32836],[-81.27232,8.32001],[-81.26548,8.30564],[-81.2693,8.29816],[-81.26036,8.28967],[-81.26801,8.28393],[-81.26344,8.27011],[-81.26594,8.26821],[-81.26442,8.26359],[-81.27048,8.26079],[-81.27164,8.26951],[-81.27969,8.26997],[-81.28189,8.27459],[-81.28578,8.27244],[-81.28652,8.2791],[-81.28198,8.28403],[-81.28396,8.28922],[-81.29178,8.29412],[-81.29842,8.3047],[-81.30117,8.30425],[-81.3021,8.3107],[-81.31346,8.31253],[-81.317,8.3093],[-81.33018,8.31892],[-81.33546,8.31403],[-81.33913,8.32237],[-81.35298,8.32644],[-81.33948,8.32731],[-81.33553,8.33252],[-81.33869,8.33346],[-81.33783,8.33691],[-81.33336,8.34065],[-81.33649,8.34584],[-81.33372,8.34959],[-81.32727,8.34313],[-81.32085,8.3528],[-81.31083,8.34931],[-81.31912,8.35687],[-81.31978,8.3672],[-81.31596,8.37154],[-81.31655,8.3745],[-81.32581,8.3604],[-81.33264,8.36275],[-81.3454,8.36023],[-81.35065,8.36925],[-81.35662,8.37035],[-81.35918,8.38157],[-81.3637,8.38513],[-81.36211,8.38861],[-81.36868,8.39427],[-81.36918,8.40996],[-81.36215,8.40623],[-81.34676,8.40618]]]}},{"type":"Feature","properties":{"corregimiento":"San José","distrito":"Cañazas","provincia":"Veraguas","bbox":[-81.48683,8.27651,-81.34635,8.474]},"geometry":{"type":"Polygon","coordinates":[[[-81.35765,8.42771],[-81.34635,8.41352],[-81.34676,8.40618],[-81.36215,8.40623],[-81.36918,8.40996],[-81.36881,8.39673],[-81.36211,8.38861],[-81.3637,8.38513],[-81.35918,8.38157],[-81.35662,8.37035],[-81.35465,8.37143],[-81.35287,8.3711],[-81.34915,8.3671],[-81.35448,8.37132],[-81.35759,8.3691],[-81.37111,8.36897],[-81.37629,8.36051],[-81.38082,8.37114],[-81.37685,8.37448],[-81.38278,8.38449],[-81.38357,8.37989],[-81.39378,8.37473],[-81.38856,8.37422],[-81.38727,8.37052],[-81.39289,8.37186],[-81.39435,8.36594],[-81.40094,8.36954],[-81.39655,8.3637],[-81.40057,8.34899],[-81.40944,8.3476],[-81.4155,8.34336],[-81.4214,8.34548],[-81.41674,8.35044],[-81.42827,8.35542],[-81.42732,8.3579],[-81.41109,8.35767],[-81.40993,8.36038],[-81.42375,8.36269],[-81.42781,8.36004],[-81.43672,8.36437],[-81.44216,8.36121],[-81.43589,8.3424],[-81.43265,8.34327],[-81.43352,8.34868],[-81.43058,8.34886],[-81.43053,8.34461],[-81.41755,8.33914],[-81.42027,8.33564],[-81.42568,8.33936],[-81.42876,8.33821],[-81.42944,8.32478],[-81.42589,8.32163],[-81.41881,8.32473],[-81.41947,8.32772],[-81.4145,8.32809],[-81.41589,8.32498],[-81.41271,8.32345],[-81.40436,8.32738],[-81.39718,8.34992],[-81.3924,8.34999],[-81.38853,8.34332],[-81.38581,8.34329],[-81.38419,8.33925],[-81.38795,8.32779],[-81.39049,8.32502],[-81.39265,8.32912],[-81.39879,8.32699],[-81.39869,8.32448],[-81.3941,8.32588],[-81.399,8.31994],[-81.39303,8.31507],[-81.39808,8.31269],[-81.4002,8.30486],[-81.40544,8.30021],[-81.40686,8.30383],[-81.4153,8.30662],[-81.41475,8.30855],[-81.4214,8.30919],[-81.42252,8.30456],[-81.43461,8.29804],[-81.43673,8.29202],[-81.44038,8.29349],[-81.4455,8.29095],[-81.45278,8.27907],[-81.4651,8.28165],[-81.46992,8.27651],[-81.47687,8.27958],[-81.4788,8.28579],[-81.47679,8.28733],[-81.48099,8.2906],[-81.48411,8.28799],[-81.48683,8.3017],[-81.48496,8.30417],[-81.48161,8.30174],[-81.48124,8.30857],[-81.47417,8.31016],[-81.47557,8.31296],[-81.47249,8.31239],[-81.47311,8.31635],[-81.47052,8.31512],[-81.46807,8.32236],[-81.47244,8.33078],[-81.46812,8.33192],[-81.48596,8.3471],[-81.48031,8.35534],[-81.4817,8.35847],[-81.47893,8.36378],[-81.48517,8.36957],[-81.48112,8.3767],[-81.48398,8.38241],[-81.47955,8.38683],[-81.47952,8.3948],[-81.47199,8.3977],[-81.4737,8.39582],[-81.46721,8.387],[-81.45629,8.38824],[-81.45732,8.39479],[-81.45235,8.40098],[-81.4485,8.40017],[-81.44821,8.40448],[-81.44922,8.40858],[-81.45521,8.40653],[-81.45886,8.41094],[-81.45877,8.41722],[-81.4489,8.41441],[-81.44634,8.4192],[-81.44342,8.41624],[-81.43237,8.41628],[-81.43553,8.41305],[-81.42963,8.41056],[-81.43138,8.40105],[-81.42953,8.3947],[-81.43257,8.39054],[-81.43879,8.39173],[-81.44043,8.39795],[-81.44721,8.39333],[-81.44793,8.38692],[-81.44284,8.38287],[-81.44224,8.37866],[-81.43029,8.38094],[-81.42483,8.38654],[-81.41687,8.38931],[-81.41987,8.41095],[-81.4288,8.41666],[-81.41485,8.41556],[-81.41295,8.40992],[-81.40642,8.40712],[-81.40477,8.41229],[-81.41789,8.44096],[-81.40381,8.44648],[-81.40133,8.46473],[-81.39502,8.46926],[-81.38913,8.46967],[-81.38815,8.474],[-81.38157,8.46931],[-81.37867,8.46142],[-81.37107,8.45521],[-81.37233,8.45184],[-81.36884,8.45147],[-81.36408,8.44432],[-81.36667,8.43924],[-81.36341,8.43621],[-81.36497,8.43221],[-81.3717,8.42728],[-81.36051,8.42529],[-81.35765,8.42771]]]}}]}