{"type":"FeatureCollection","features":[{"type":"Feature","properties":{"corregimiento":"La Mesa (Cabecera)","distrito":"La Mesa","provincia":"Veraguas","bbox":[-81.2766,8.04104,-81.11022,8.25026]},"geometry":{"type":"Polygon","coordinates":[[[-81.11859,8.19874],[-81.12333,8.19924],[-81.13208,8.19057],[-81.1388,8.18967],[-81.14206,8.18337],[-81.15017,8.18213],[-81.14912,8.17788],[-81.14123,8.17121],[-81.13757,8.17519],[-81.13238,8.17556],[-81.12889,8.17244],[-81.12544,8.17483],[-81.11852,8.16564],[-81.11734,8.15766],[-81.11022,8.15472],[-81.12933,8.13963],[-81.12828,8.1332],[-81.13284,8.12742],[-81.13253,8.11612],[-81.14084,8.11771],[-81.14099,8.12076],[-81.16572,8.12296],[-81.16722,8.11613],[-81.17893,8.10353],[-81.18794,8.10553],[-81.19357,8.10276],[-81.18763,8.09406],[-81.19133,8.07965],[-81.18796,8.07382],[-81.18928,8.06739],[-81.18309,8.06328],[-81.18538,8.05993],[-81.1789,8.0547],[-81.17468,8.05877],[-81.16821,8.05452],[-81.17248,8.04751],[-81.18741,8.04795],[-81.19329,8.04608],[-81.19694,8.04114],[-81.20268,8.04104],[-81.22778,8.07908],[-81.26457,8.12342],[-81.26662,8.13033],[-81.2766,8.13745],[-81.26833,8.13801],[-81.26802,8.14345],[-81.25841,8.15609],[-81.2408,8.15375],[-81.2345,8.15848],[-81.23181,8.15578],[-81.221,8.15963],[-81.21217,8.15514],[-81.20594,8.16841],[-81.1957,8.16962],[-81.19427,8.17883],[-81.19836,8.19505],[-81.19467,8.20256],[-81.18341,8.20118],[-81.18156,8.20381],[-81.18075,8.23614],[-81.17461,8.2385],[-81.17294,8.24712],[-81.15483,8.24504],[-81.1518,8.25026],[-81.15249,8.24694],[-81.14697,8.24223],[-81.14978,8.23726],[-81.14224,8.2303],[-81.14486,8.22658],[-81.13523,8.20562],[-81.1323,8.20276],[-81.12635,8.20449],[-81.11859,8.19874]]]}},{"type":"Feature","properties":{"corregimiento":"Llano Grande","distrito":"La Mesa","provincia":"Veraguas","bbox":[-81.19354,8.05451,-81.08989,8.12296]},"geometry":{"type":"Polygon","coordinates":[[[-81.14084,8.11771],[-81.12815,8.11249],[-81.12342,8.11387],[-81.125,8.11932],[-81.10875,8.11749],[-81.10661,8.11363],[-81.10146,8.11635],[-81.09604,8.10016],[-81.08989,8.09804],[-81.09335,8.09628],[-81.09473,8.08922],[-81.09122,8.08413],[-81.09458,8.07809],[-81.09552,8.06612],[-81.09219,8.06442],[-81.09557,8.06081],[-81.09811,8.06276],[-81.10002,8.06088],[-81.09637,8.05785],[-81.09772,8.05628],[-81.10939,8.05451],[-81.11319,8.07359],[-81.1206,8.07731],[-81.12205,8.07441],[-81.12929,8.07453],[-81.13833,8.06851],[-81.14138,8.07051],[-81.15329,8.06905],[-81.15522,8.06662],[-81.15793,8.06918],[-81.16364,8.0675],[-81.16949,8.05592],[-81.17468,8.05877],[-81.1788,8.05469],[-81.18391,8.05757],[-81.18545,8.06073],[-81.18309,8.06328],[-81.18928,8.06739],[-81.18796,8.07382],[-81.19133,8.07965],[-81.18763,8.09406],[-81.19354,8.1028],[-81.18794,8.10553],[-81.17893,8.10353],[-81.16722,8.11613],[-81.16572,8.12296],[-81.14099,8.12076],[-81.14084,8.11771]]]}},{"type":"Feature","properties":{"corregimiento":"Los Milagros","distrito":"La Mesa","provincia":"Veraguas","bbox":[-81.15004,8.11029,-81.08457,8.19958]},"geometry":{"type":"Polygon","coordinates":[[[-81.08457,8.16729],[-81.09257,8.15204],[-81.0962,8.15383],[-81.09951,8.14711],[-81.09432,8.13814],[-81.09891,8.13092],[-81.09644,8.11153],[-81.09972,8.11029],[-81.10161,8.11641],[-81.10661,8.11363],[-81.10875,8.11749],[-81.125,8.11932],[-81.12342,8.11387],[-81.12982,8.11307],[-81.13299,8.12371],[-81.12828,8.1332],[-81.12933,8.13963],[-81.11022,8.15472],[-81.11734,8.15766],[-81.11852,8.16564],[-81.12544,8.17483],[-81.12889,8.17244],[-81.13238,8.17556],[-81.13757,8.17519],[-81.14123,8.17121],[-81.14912,8.17788],[-81.15004,8.18336],[-81.14193,8.18344],[-81.1388,8.18967],[-81.13208,8.19057],[-81.12333,8.19924],[-81.11431,8.19906],[-81.11031,8.19609],[-81.10776,8.19958],[-81.09884,8.19376],[-81.10018,8.18909],[-81.09158,8.18493],[-81.09014,8.18077],[-81.08709,8.18152],[-81.08824,8.17296],[-81.08457,8.16729]]]}},{"type":"Feature","properties":{"corregimiento":"Bisvalles","distrito":"La Mesa","provincia":"Veraguas","bbox":[-81.27294,8.15375,-81.17294,8.26344]},"geometry":{"type":"Polygon","coordinates":[[[-81.17294,8.24712],[-81.17461,8.2385],[-81.18075,8.23614],[-81.18156,8.20381],[-81.18341,8.20118],[-81.19467,8.20256],[-81.19836,8.19505],[-81.19427,8.17883],[-81.1957,8.16962],[-81.20594,8.16841],[-81.21217,8.15514],[-81.221,8.15963],[-81.23181,8.15578],[-81.2345,8.15848],[-81.2408,8.15375],[-81.25668,8.15597],[-81.25196,8.15991],[-81.25432,8.16779],[-81.24928,8.19159],[-81.25238,8.1988],[-81.25011,8.21038],[-81.25757,8.21852],[-81.24967,8.22649],[-81.2623,8.23344],[-81.26512,8.24193],[-81.26304,8.24568],[-81.27036,8.24835],[-81.27294,8.25769],[-81.21263,8.26344],[-81.20079,8.25032],[-81.17294,8.24712]]]}},{"type":"Feature","properties":{"corregimiento":"Boró","distrito":"La Mesa","provincia":"Veraguas","bbox":[-81.36979,8.13106,-81.24928,8.205]},"geometry":{"type":"Polygon","coordinates":[[[-81.25188,8.19732],[-81.24928,8.19159],[-81.25432,8.16779],[-81.25196,8.15991],[-81.25912,8.1555],[-81.26413,8.14561],[-81.26802,8.14345],[-81.26854,8.13785],[-81.3098,8.13106],[-81.32527,8.13792],[-81.32922,8.143],[-81.34186,8.14688],[-81.35288,8.14166],[-81.36541,8.14549],[-81.36759,8.15604],[-81.36245,8.15928],[-81.36939,8.16613],[-81.36979,8.17246],[-81.35324,8.17937],[-81.34006,8.19578],[-81.33709,8.19286],[-81.33277,8.19489],[-81.32459,8.19332],[-81.31568,8.20029],[-81.31019,8.19961],[-81.29785,8.205],[-81.28956,8.2049],[-81.29742,8.19267],[-81.2944,8.18967],[-81.28344,8.19492],[-81.2763,8.1911],[-81.26805,8.19209],[-81.26963,8.1905],[-81.26647,8.18923],[-81.25188,8.19732]]]}},{"type":"Feature","properties":{"corregimiento":"San Bartolo","distrito":"La Mesa","provincia":"Veraguas","bbox":[-81.31837,8.18923,-81.24972,8.25769]},"geometry":{"type":"Polygon","coordinates":[[[-81.25188,8.19732],[-81.26647,8.18923],[-81.26963,8.1905],[-81.26805,8.19209],[-81.2763,8.1911],[-81.28344,8.19492],[-81.29004,8.19052],[-81.29624,8.19081],[-81.2973,8.19295],[-81.28956,8.2049],[-81.30561,8.20592],[-81.31435,8.20997],[-81.31288,8.21674],[-81.31702,8.22578],[-81.31441,8.22831],[-81.31837,8.23572],[-81.31522,8.24252],[-81.29884,8.24589],[-81.29728,8.25081],[-81.30084,8.25633],[-81.27294,8.25769],[-81.27036,8.24835],[-81.26304,8.24568],[-81.26512,8.24193],[-81.2623,8.23344],[-81.25404,8.22687],[-81.24972,8.22665],[-81.25757,8.21852],[-81.25006,8.21021],[-81.25188,8.19732]]]}},{"type":"Feature","properties":{"corregimiento":"El Higo","distrito":"La Mesa","provincia":"Veraguas","bbox":[-81.39124,8.17347,-81.29728,8.25633]},"geometry":{"type":"Polygon","coordinates":[[[-81.29785,8.205],[-81.31019,8.19961],[-81.31568,8.20029],[-81.32459,8.19332],[-81.33277,8.19489],[-81.33709,8.19286],[-81.34006,8.19578],[-81.35324,8.17937],[-81.36685,8.17347],[-81.38079,8.17905],[-81.37586,8.18963],[-81.37108,8.19273],[-81.37305,8.19692],[-81.37054,8.19795],[-81.37055,8.20707],[-81.37701,8.20883],[-81.38122,8.21813],[-81.38787,8.22123],[-81.39124,8.23379],[-81.38669,8.23532],[-81.38294,8.24643],[-81.37591,8.25167],[-81.30084,8.25633],[-81.29728,8.25081],[-81.29884,8.24589],[-81.31502,8.24271],[-81.31837,8.23572],[-81.31441,8.22831],[-81.31702,8.22578],[-81.31288,8.21674],[-81.31435,8.20997],[-81.29785,8.205]]]}}]}