{"type":"FeatureCollection","features":[{"type":"Feature","properties":{"corregimiento":"El María","distrito":"Las Palmas","provincia":"Veraguas","bbox":[-81.51371,7.91178,-81.4043,8.07648]},"geometry":{"type":"Polygon","coordinates":[[[-81.41089,8.04533],[-81.40909,8.04395],[-81.41255,8.02914],[-81.40702,8.02233],[-81.40519,8.02374],[-81.4043,8.0182],[-81.41151,8.0178],[-81.41362,8.00939],[-81.41894,8.00785],[-81.42277,8.00163],[-81.4212,7.99115],[-81.43317,7.96547],[-81.44564,7.96207],[-81.45184,7.96335],[-81.46482,7.92032],[-81.47382,7.91178],[-81.48001,7.9163],[-81.4822,7.91482],[-81.48685,7.92236],[-81.48438,7.93245],[-81.49133,7.95069],[-81.49858,7.95205],[-81.49995,7.95763],[-81.51371,7.96049],[-81.51255,7.96667],[-81.50704,7.96235],[-81.49839,7.97091],[-81.48086,7.97377],[-81.47907,7.98567],[-81.48244,7.99477],[-81.4885,7.99129],[-81.49615,7.99746],[-81.49824,7.995],[-81.50306,7.99843],[-81.50387,8.00618],[-81.49423,8.00911],[-81.49347,8.01329],[-81.48668,8.01546],[-81.47229,8.03348],[-81.47578,8.04462],[-81.48827,8.06002],[-81.48419,8.0644],[-81.47667,8.06336],[-81.47453,8.06541],[-81.46724,8.06119],[-81.46839,8.06967],[-81.4528,8.07648],[-81.44614,8.06667],[-81.4454,8.05748],[-81.44084,8.05582],[-81.43544,8.04357],[-81.43,8.03884],[-81.42575,8.04473],[-81.41986,8.03863],[-81.41089,8.04533]]]}},{"type":"Feature","properties":{"corregimiento":"Pixvae","distrito":"Las Palmas","provincia":"Veraguas","bbox":[-81.76877,7.79791,-81.50504,7.94583]},"geometry":{"type":"MultiPolygon","coordinates":[[[[-81.58055,7.83076],[-81.57643,7.83871],[-81.58195,7.84054],[-81.581,7.8479],[-81.58584,7.85167],[-81.58081,7.85148],[-81.57692,7.85476],[-81.57746,7.8502],[-81.57551,7.84874],[-81.57598,7.85088],[-81.56592,7.85536],[-81.56324,7.86133],[-81.57258,7.86139],[-81.57917,7.86584],[-81.58009,7.87132],[-81.58672,7.87232],[-81.60159,7.86453],[-81.60586,7.86866],[-81.61085,7.86362],[-81.61007,7.87717],[-81.60363,7.87174],[-81.59992,7.87219],[-81.59892,7.87561],[-81.60464,7.88012],[-81.59633,7.88345],[-81.593,7.8919],[-81.59463,7.89557],[-81.60073,7.8966],[-81.60414,7.90037],[-81.60559,7.89825],[-81.60869,7.90037],[-81.61219,7.89575],[-81.618,7.90276],[-81.62446,7.90243],[-81.62294,7.90663],[-81.61665,7.90721],[-81.62394,7.92447],[-81.62325,7.93695],[-81.62653,7.94006],[-81.62149,7.94583],[-81.60353,7.93391],[-81.59009,7.93577],[-81.58254,7.92453],[-81.57712,7.92287],[-81.57738,7.91849],[-81.57474,7.92051],[-81.57456,7.9181],[-81.57025,7.91883],[-81.5698,7.91354],[-81.56595,7.9139],[-81.56131,7.90683],[-81.5484,7.90085],[-81.54706,7.89508],[-81.53819,7.89327],[-81.53714,7.89028],[-81.52435,7.88883],[-81.52389,7.88634],[-81.50881,7.87892],[-81.5104,7.87564],[-81.50504,7.859],[-81.52099,7.84185],[-81.53323,7.83793],[-81.5456,7.84399],[-81.55638,7.84136],[-81.5663,7.84406],[-81.57401,7.84224],[-81.57667,7.83043],[-81.58055,7.83076]]],[[[-81.75835,7.82317],[-81.75431,7.8242],[-81.75478,7.80422],[-81.756,7.80246],[-81.75751,7.80706],[-81.76092,7.80514],[-81.76175,7.79791],[-81.76877,7.79961],[-81.76508,7.80609],[-81.76841,7.80985],[-81.76718,7.81482],[-81.75849,7.81266],[-81.75868,7.82574],[-81.75835,7.82317]]]]}},{"type":"Feature","properties":{"corregimiento":"Zapotillo","distrito":"Las Palmas","provincia":"Veraguas","bbox":[-81.62881,7.859,-81.47229,8.08634]},"geometry":{"type":"Polygon","coordinates":[[[-81.48827,8.06002],[-81.47578,8.04462],[-81.47229,8.03348],[-81.48668,8.01546],[-81.49347,8.01329],[-81.49423,8.00911],[-81.50387,8.00618],[-81.50306,7.99843],[-81.49824,7.995],[-81.49615,7.99746],[-81.4885,7.99129],[-81.48244,7.99477],[-81.47907,7.98567],[-81.48086,7.97377],[-81.49839,7.97091],[-81.50704,7.96235],[-81.51255,7.96667],[-81.5137,7.96041],[-81.49995,7.95763],[-81.49858,7.95205],[-81.49151,7.95092],[-81.48441,7.9326],[-81.48685,7.92236],[-81.48461,7.91667],[-81.47382,7.91178],[-81.49089,7.89557],[-81.49194,7.87256],[-81.50504,7.859],[-81.51005,7.88049],[-81.52389,7.88634],[-81.52435,7.88883],[-81.54604,7.89438],[-81.5484,7.90085],[-81.56131,7.90683],[-81.56595,7.9139],[-81.5698,7.91354],[-81.57025,7.91883],[-81.57456,7.9181],[-81.57474,7.92051],[-81.57738,7.91849],[-81.57712,7.92287],[-81.58254,7.92453],[-81.59009,7.93577],[-81.60353,7.93391],[-81.62149,7.94583],[-81.61967,7.95272],[-81.6279,7.96254],[-81.62881,7.96898],[-81.62695,7.97898],[-81.60735,7.99097],[-81.60114,8.00456],[-81.59707,8.00501],[-81.59451,8.00888],[-81.58984,8.00583],[-81.58697,8.00727],[-81.58332,7.99895],[-81.58451,7.99584],[-81.57985,7.9962],[-81.57662,8.00042],[-81.57541,7.99707],[-81.57356,8.00014],[-81.5717,7.99768],[-81.57117,8.00079],[-81.56503,7.99582],[-81.5609,7.99836],[-81.55768,7.99432],[-81.55434,7.9993],[-81.55113,7.99796],[-81.55313,8.00024],[-81.55128,8.00256],[-81.54736,8.00115],[-81.54376,8.00529],[-81.53737,8.0056],[-81.52544,8.03634],[-81.52604,8.06893],[-81.51874,8.06778],[-81.50729,8.07186],[-81.50062,8.0823],[-81.49774,8.07917],[-81.49329,8.08016],[-81.48698,8.08634],[-81.4792,8.08352],[-81.48827,8.06002]]]}},{"type":"Feature","properties":{"corregimiento":"Las Palmas (Cabecera)","distrito":"Las Palmas","provincia":"Veraguas","bbox":[-81.53388,8.09561,-81.37407,8.20172]},"geometry":{"type":"Polygon","coordinates":[[[-81.49272,8.2012],[-81.48583,8.19648],[-81.48336,8.19057],[-81.48499,8.17474],[-81.48825,8.16899],[-81.48334,8.16285],[-81.48397,8.15873],[-81.47697,8.15365],[-81.47436,8.14714],[-81.47035,8.14803],[-81.46797,8.15545],[-81.45652,8.15415],[-81.45567,8.15669],[-81.44418,8.1577],[-81.44108,8.15684],[-81.44097,8.15268],[-81.43018,8.15447],[-81.42182,8.14856],[-81.42361,8.14505],[-81.41871,8.13688],[-81.40382,8.1348],[-81.40045,8.13154],[-81.40202,8.12742],[-81.39195,8.12785],[-81.39123,8.12381],[-81.3864,8.1247],[-81.38523,8.12003],[-81.3788,8.12009],[-81.38345,8.11327],[-81.37539,8.10762],[-81.37407,8.10307],[-81.377,8.09824],[-81.38764,8.10355],[-81.38865,8.10676],[-81.39521,8.10611],[-81.40085,8.09855],[-81.40561,8.0976],[-81.41178,8.10227],[-81.42169,8.09561],[-81.42132,8.1031],[-81.42697,8.10492],[-81.4683,8.11141],[-81.4981,8.11047],[-81.5047,8.12585],[-81.50371,8.13271],[-81.50959,8.12873],[-81.51403,8.13126],[-81.52344,8.1297],[-81.53295,8.12004],[-81.53388,8.14038],[-81.53079,8.13674],[-81.5234,8.1418],[-81.51962,8.13993],[-81.51476,8.14769],[-81.49696,8.1529],[-81.50221,8.16001],[-81.49751,8.16501],[-81.50286,8.16559],[-81.50434,8.16946],[-81.49864,8.16995],[-81.49839,8.17364],[-81.50708,8.17493],[-81.51019,8.18069],[-81.50769,8.18475],[-81.5069,8.18177],[-81.50093,8.18226],[-81.49219,8.18777],[-81.50466,8.20172],[-81.49272,8.2012]]]}},{"type":"Feature","properties":{"corregimiento":"Cerro de Casa","distrito":"Las Palmas","provincia":"Veraguas","bbox":[-81.63653,8.06999,-81.50371,8.18381]},"geometry":{"type":"Polygon","coordinates":[[[-81.56764,8.1828],[-81.56536,8.16575],[-81.56705,8.16355],[-81.56447,8.1628],[-81.56831,8.15713],[-81.57816,8.16835],[-81.57023,8.17197],[-81.57036,8.17465],[-81.57484,8.17554],[-81.58407,8.17288],[-81.5798,8.17166],[-81.58327,8.16843],[-81.58227,8.16209],[-81.57618,8.15762],[-81.57495,8.15392],[-81.57822,8.15172],[-81.57468,8.14866],[-81.57495,8.14439],[-81.57072,8.14776],[-81.55205,8.14683],[-81.5456,8.15196],[-81.54399,8.14857],[-81.54229,8.15148],[-81.5428,8.1475],[-81.53601,8.1474],[-81.53348,8.14457],[-81.53295,8.12004],[-81.52344,8.1297],[-81.51403,8.13126],[-81.50959,8.12873],[-81.50371,8.13271],[-81.50475,8.12593],[-81.50899,8.1232],[-81.5151,8.10934],[-81.51037,8.09576],[-81.52695,8.08538],[-81.53219,8.08908],[-81.54165,8.08733],[-81.54875,8.08241],[-81.55029,8.07451],[-81.55894,8.0717],[-81.56406,8.07442],[-81.56496,8.0831],[-81.56002,8.09299],[-81.57345,8.08901],[-81.57393,8.08315],[-81.57851,8.07936],[-81.59682,8.09223],[-81.60295,8.09203],[-81.61353,8.08107],[-81.61751,8.08363],[-81.62286,8.08126],[-81.63313,8.06999],[-81.63267,8.07709],[-81.63653,8.07807],[-81.63078,8.09362],[-81.63211,8.09732],[-81.62314,8.09969],[-81.61888,8.10684],[-81.62408,8.11331],[-81.62083,8.12554],[-81.62463,8.13076],[-81.61648,8.1372],[-81.61786,8.14352],[-81.61396,8.15302],[-81.59755,8.15647],[-81.60443,8.16599],[-81.59046,8.16863],[-81.58108,8.18354],[-81.57349,8.17986],[-81.57079,8.18381],[-81.56764,8.1828]]]}},{"type":"Feature","properties":{"corregimiento":"Corozal","distrito":"Las Palmas","provincia":"Veraguas","bbox":[-81.45259,8.03865,-81.37813,8.10671]},"geometry":{"type":"Polygon","coordinates":[[[-81.37813,8.09781],[-81.38227,8.09134],[-81.38104,8.087],[-81.38576,8.08647],[-81.38808,8.08316],[-81.38272,8.07757],[-81.38278,8.0695],[-81.39682,8.06425],[-81.39893,8.05448],[-81.40611,8.05358],[-81.40588,8.04956],[-81.41567,8.04047],[-81.41754,8.04174],[-81.41996,8.03865],[-81.42575,8.04473],[-81.4296,8.03866],[-81.43538,8.04349],[-81.44084,8.05582],[-81.4454,8.05748],[-81.44614,8.06667],[-81.45259,8.0753],[-81.44804,8.094],[-81.43299,8.10555],[-81.42135,8.10313],[-81.42169,8.09561],[-81.41178,8.10227],[-81.40561,8.0976],[-81.40085,8.09855],[-81.3927,8.10671],[-81.38056,8.10202],[-81.37813,8.09781]]]}},{"type":"Feature","properties":{"corregimiento":"El Prado","distrito":"Las Palmas","provincia":"Veraguas","bbox":[-81.53987,8.19225,-81.42465,8.26526]},"geometry":{"type":"Polygon","coordinates":[[[-81.45503,8.24506],[-81.46206,8.23801],[-81.46367,8.22857],[-81.44671,8.22653],[-81.44108,8.23024],[-81.4426,8.23244],[-81.44036,8.23474],[-81.43217,8.23376],[-81.42995,8.23677],[-81.42465,8.23447],[-81.42547,8.22881],[-81.44104,8.21525],[-81.4518,8.21454],[-81.45566,8.21143],[-81.46047,8.21411],[-81.46828,8.19225],[-81.48596,8.20142],[-81.49937,8.19998],[-81.51037,8.20394],[-81.514,8.21392],[-81.5267,8.21374],[-81.5268,8.21828],[-81.51271,8.22421],[-81.50948,8.23066],[-81.50886,8.24314],[-81.51237,8.24192],[-81.51258,8.23701],[-81.51445,8.24024],[-81.51089,8.24865],[-81.51531,8.25011],[-81.5154,8.25769],[-81.5187,8.25806],[-81.5178,8.25405],[-81.52177,8.25105],[-81.51725,8.24442],[-81.51355,8.24548],[-81.5201,8.23247],[-81.51872,8.22398],[-81.5242,8.22833],[-81.53154,8.22703],[-81.53625,8.23274],[-81.53987,8.2327],[-81.53767,8.23967],[-81.52974,8.24838],[-81.53402,8.25],[-81.52873,8.25403],[-81.52968,8.25828],[-81.51938,8.25604],[-81.51911,8.25927],[-81.51612,8.26505],[-81.51344,8.26308],[-81.51143,8.26526],[-81.50861,8.26195],[-81.50982,8.25862],[-81.50464,8.25646],[-81.51127,8.25031],[-81.50789,8.25244],[-81.50532,8.2505],[-81.50089,8.25415],[-81.49888,8.25015],[-81.50279,8.25122],[-81.50261,8.24829],[-81.49282,8.24434],[-81.49732,8.23844],[-81.49297,8.23356],[-81.48575,8.24254],[-81.47993,8.24412],[-81.48467,8.25008],[-81.48376,8.25278],[-81.47627,8.25232],[-81.47969,8.24661],[-81.47885,8.23752],[-81.47279,8.23366],[-81.46942,8.2373],[-81.46853,8.24446],[-81.46492,8.24087],[-81.45503,8.24506]]]}},{"type":"Feature","properties":{"corregimiento":"El Rincón","distrito":"Las Palmas","provincia":"Veraguas","bbox":[-81.46828,8.168,-81.3677,8.2784]},"geometry":{"type":"Polygon","coordinates":[[[-81.37303,8.2522],[-81.38168,8.24778],[-81.38424,8.23847],[-81.39125,8.23369],[-81.38787,8.22123],[-81.38122,8.21813],[-81.37701,8.20883],[-81.37055,8.20707],[-81.37054,8.19795],[-81.37305,8.19692],[-81.37108,8.19273],[-81.38108,8.18058],[-81.3677,8.17477],[-81.36991,8.168],[-81.37409,8.17159],[-81.37656,8.16984],[-81.38713,8.1728],[-81.39575,8.1698],[-81.40586,8.17096],[-81.40853,8.18173],[-81.42758,8.1687],[-81.43398,8.1724],[-81.43596,8.18734],[-81.44094,8.19419],[-81.44818,8.19147],[-81.45322,8.19463],[-81.46828,8.19225],[-81.46047,8.21411],[-81.45566,8.21143],[-81.4518,8.21454],[-81.44104,8.21525],[-81.42547,8.22881],[-81.42465,8.23447],[-81.42995,8.23677],[-81.43217,8.23376],[-81.44036,8.23474],[-81.4426,8.23244],[-81.44108,8.23024],[-81.44671,8.22653],[-81.46367,8.22857],[-81.46198,8.23816],[-81.45497,8.24309],[-81.45302,8.2551],[-81.44248,8.25713],[-81.42945,8.26672],[-81.42387,8.26468],[-81.42079,8.26682],[-81.42338,8.27073],[-81.41948,8.27379],[-81.40372,8.2784],[-81.39573,8.27263],[-81.39048,8.27496],[-81.38204,8.27095],[-81.38076,8.25847],[-81.3758,8.25795],[-81.37303,8.2522]]]}},{"type":"Feature","properties":{"corregimiento":"Lolá","distrito":"Las Palmas","provincia":"Veraguas","bbox":[-81.5505,8.04722,-81.43352,8.12602]},"geometry":{"type":"Polygon","coordinates":[[[-81.43352,8.1055],[-81.44804,8.094],[-81.45254,8.07669],[-81.46839,8.06967],[-81.46775,8.06101],[-81.47453,8.06541],[-81.47667,8.06336],[-81.48419,8.0644],[-81.48827,8.06002],[-81.4792,8.08352],[-81.48736,8.08634],[-81.49329,8.08016],[-81.49774,8.07917],[-81.50062,8.0823],[-81.50729,8.07186],[-81.51874,8.06778],[-81.52604,8.06893],[-81.52664,8.04722],[-81.53479,8.0755],[-81.5505,8.07719],[-81.54866,8.08252],[-81.54165,8.08733],[-81.53219,8.08908],[-81.52695,8.08538],[-81.51037,8.09576],[-81.5151,8.10934],[-81.50899,8.1232],[-81.50472,8.12602],[-81.4981,8.11047],[-81.4683,8.11141],[-81.43352,8.1055]]]}},{"type":"Feature","properties":{"corregimiento":"Puerto Vidal","distrito":"Las Palmas","provincia":"Veraguas","bbox":[-81.68192,7.94006,-81.5254,8.09299]},"geometry":{"type":"Polygon","coordinates":[[[-81.54955,8.07558],[-81.53479,8.0755],[-81.5254,8.04114],[-81.5371,8.00596],[-81.54376,8.00529],[-81.54736,8.00115],[-81.55128,8.00256],[-81.55313,8.00024],[-81.55113,7.99796],[-81.55434,7.9993],[-81.55768,7.99432],[-81.5609,7.99836],[-81.56503,7.99582],[-81.57117,8.00079],[-81.5717,7.99768],[-81.57356,8.00014],[-81.57541,7.99707],[-81.57662,8.00042],[-81.57985,7.9962],[-81.58451,7.99584],[-81.58336,7.99913],[-81.58737,8.00755],[-81.58984,8.00583],[-81.59451,8.00888],[-81.59707,8.00501],[-81.60082,8.00485],[-81.60715,7.99116],[-81.62732,7.97844],[-81.6285,7.96399],[-81.61943,7.94993],[-81.62653,7.94006],[-81.63403,7.94072],[-81.63799,7.94469],[-81.65557,7.98649],[-81.68192,8.0174],[-81.68005,8.0193],[-81.66243,8.01118],[-81.65888,8.00194],[-81.65474,8.00164],[-81.6479,8.01862],[-81.6401,8.02524],[-81.64597,8.0318],[-81.63344,8.03922],[-81.64749,8.05196],[-81.64831,8.05916],[-81.63862,8.05805],[-81.62882,8.07684],[-81.6179,8.08357],[-81.61353,8.08107],[-81.60302,8.09201],[-81.59682,8.09223],[-81.57851,8.07936],[-81.57393,8.08315],[-81.57345,8.08901],[-81.56002,8.09299],[-81.56496,8.08334],[-81.56406,8.07442],[-81.55873,8.07172],[-81.54955,8.07558]]]}},{"type":"Feature","properties":{"corregimiento":"San Martín de Porres","distrito":"Las Palmas","provincia":"Veraguas","bbox":[-81.57444,8.17083,-81.49219,8.23247]},"geometry":{"type":"Polygon","coordinates":[[[-81.5413,8.23021],[-81.54041,8.22393],[-81.53347,8.22487],[-81.53137,8.22263],[-81.5304,8.21559],[-81.53399,8.21512],[-81.53132,8.21065],[-81.53398,8.21078],[-81.53334,8.20892],[-81.52859,8.20907],[-81.53136,8.21127],[-81.52688,8.21806],[-81.52644,8.21353],[-81.51387,8.21386],[-81.51052,8.20405],[-81.50466,8.20172],[-81.49219,8.18777],[-81.50262,8.18291],[-81.51155,8.18886],[-81.51105,8.20149],[-81.51665,8.19978],[-81.51201,8.19373],[-81.51618,8.19196],[-81.50931,8.18704],[-81.51319,8.18323],[-81.51001,8.17981],[-81.51388,8.17818],[-81.51804,8.18899],[-81.52209,8.19137],[-81.52495,8.18891],[-81.52885,8.19011],[-81.52723,8.19426],[-81.52977,8.19275],[-81.52996,8.19673],[-81.5354,8.19801],[-81.53617,8.19226],[-81.54038,8.18959],[-81.53957,8.18568],[-81.53503,8.18225],[-81.52884,8.1894],[-81.52391,8.18669],[-81.52932,8.17718],[-81.53337,8.1771],[-81.53605,8.17192],[-81.54323,8.17083],[-81.54487,8.1819],[-81.54972,8.17871],[-81.56207,8.17943],[-81.56312,8.17473],[-81.55995,8.17496],[-81.5636,8.17151],[-81.56788,8.1738],[-81.56649,8.18122],[-81.56989,8.18395],[-81.57233,8.18186],[-81.57444,8.18697],[-81.55603,8.19313],[-81.55541,8.20038],[-81.56134,8.20288],[-81.55852,8.20651],[-81.56042,8.21195],[-81.55515,8.21388],[-81.55877,8.21714],[-81.5584,8.22244],[-81.5547,8.22557],[-81.55061,8.22413],[-81.54664,8.23247],[-81.5413,8.23021]]]}},{"type":"Feature","properties":{"corregimiento":"Manuel E. Amador Terrero","distrito":"Las Palmas","provincia":"Veraguas","bbox":[-81.49316,8.11936,-81.36223,8.20142]},"geometry":{"type":"Polygon","coordinates":[[[-81.46828,8.19225],[-81.45322,8.19463],[-81.44818,8.19147],[-81.44094,8.19419],[-81.43596,8.18734],[-81.43398,8.1724],[-81.42758,8.1687],[-81.40853,8.18173],[-81.40586,8.17096],[-81.39575,8.1698],[-81.38978,8.17298],[-81.37106,8.17005],[-81.367,8.16193],[-81.36244,8.15922],[-81.36759,8.15604],[-81.36319,8.14216],[-81.36531,8.13843],[-81.36223,8.1366],[-81.3697,8.1269],[-81.36896,8.12059],[-81.37582,8.12362],[-81.37837,8.11936],[-81.38506,8.11997],[-81.38692,8.12515],[-81.39137,8.12391],[-81.39195,8.12785],[-81.40202,8.12742],[-81.40045,8.13154],[-81.40367,8.13472],[-81.41881,8.13695],[-81.42361,8.14505],[-81.42182,8.14856],[-81.43096,8.15484],[-81.44097,8.15268],[-81.44108,8.15684],[-81.44418,8.1577],[-81.45567,8.15669],[-81.45652,8.15415],[-81.46797,8.15545],[-81.47035,8.14803],[-81.47415,8.14696],[-81.47697,8.15365],[-81.48397,8.15873],[-81.48334,8.16285],[-81.48834,8.16933],[-81.48499,8.17474],[-81.48443,8.19395],[-81.49316,8.20078],[-81.48596,8.20142],[-81.46828,8.19225]]]}},{"type":"Feature","properties":{"corregimiento":"Viguí","distrito":"Las Palmas","provincia":"Veraguas","bbox":[-81.53219,8.26264,-81.4681,8.39835]},"geometry":{"type":"Polygon","coordinates":[[[-81.47814,8.39554],[-81.47955,8.38683],[-81.48397,8.38246],[-81.48095,8.37815],[-81.48517,8.36957],[-81.47893,8.36378],[-81.4817,8.35847],[-81.48031,8.35534],[-81.48596,8.3471],[-81.46821,8.33217],[-81.47244,8.33078],[-81.4681,8.32202],[-81.47059,8.31504],[-81.47317,8.31625],[-81.47249,8.31239],[-81.47552,8.31314],[-81.47417,8.31016],[-81.48129,8.3085],[-81.4815,8.30186],[-81.48496,8.30417],[-81.48675,8.30196],[-81.48482,8.29654],[-81.4906,8.29381],[-81.48829,8.28874],[-81.49283,8.27871],[-81.49235,8.27343],[-81.4955,8.2712],[-81.4929,8.26438],[-81.50099,8.26264],[-81.50598,8.26775],[-81.51119,8.26583],[-81.51754,8.26816],[-81.51507,8.27187],[-81.51889,8.2745],[-81.51692,8.27776],[-81.52187,8.28292],[-81.52102,8.28802],[-81.51289,8.28984],[-81.51476,8.30253],[-81.51169,8.30484],[-81.51163,8.3118],[-81.51612,8.31795],[-81.51148,8.33461],[-81.51475,8.34129],[-81.51785,8.33763],[-81.51806,8.34394],[-81.53219,8.35284],[-81.53079,8.35909],[-81.52814,8.36008],[-81.5294,8.36744],[-81.52099,8.36832],[-81.5232,8.37067],[-81.5221,8.3774],[-81.52755,8.38263],[-81.5257,8.38515],[-81.52807,8.38936],[-81.51893,8.39189],[-81.51864,8.39622],[-81.51172,8.39767],[-81.50198,8.3957],[-81.48163,8.39835],[-81.47814,8.39554]]]}}]}