{"type":"FeatureCollection","features":[{"type":"Feature","properties":{"corregimiento":"La Garceana","distrito":"Montijo","provincia":"Veraguas","bbox":[-81.07085,7.88157,-81.00407,7.95865]},"geometry":{"type":"Polygon","coordinates":[[[-81.02145,7.95865],[-81.01703,7.95524],[-81.0058,7.95639],[-81.00407,7.95274],[-81.01424,7.92697],[-81.00883,7.9166],[-81.06714,7.88157],[-81.07085,7.88241],[-81.0684,7.89124],[-81.0562,7.90559],[-81.05435,7.92687],[-81.04909,7.93132],[-81.04791,7.93672],[-81.03852,7.94042],[-81.03999,7.94937],[-81.03282,7.95574],[-81.02145,7.95865]]]}},{"type":"Feature","properties":{"corregimiento":"Montijo (Cabecera)","distrito":"Montijo","provincia":"Veraguas","bbox":[-81.08882,7.95767,-81.00607,8.02901]},"geometry":{"type":"Polygon","coordinates":[[[-81.02288,8.01665],[-81.01246,8.01542],[-81.00607,8.00368],[-81.01705,8.00757],[-81.0277,7.99979],[-81.0261,7.99759],[-81.02966,7.99294],[-81.02411,7.9897],[-81.0228,7.98123],[-81.02642,7.98038],[-81.02317,7.97232],[-81.03285,7.96036],[-81.03856,7.96444],[-81.04217,7.96245],[-81.04758,7.9646],[-81.0526,7.95767],[-81.05349,7.96669],[-81.07966,7.97229],[-81.07742,7.98214],[-81.08882,7.97991],[-81.08838,7.98628],[-81.08077,7.99778],[-81.07127,8.00231],[-81.05906,8.01735],[-81.04385,8.01863],[-81.03121,8.02901],[-81.02288,8.01665]]]}},{"type":"Feature","properties":{"corregimiento":"Pilón","distrito":"Montijo","provincia":"Veraguas","bbox":[-81.12027,7.92215,-81.06127,8.00075]},"geometry":{"type":"Polygon","coordinates":[[[-81.08813,7.98934],[-81.08787,7.97903],[-81.07998,7.98262],[-81.07677,7.98142],[-81.07954,7.97219],[-81.06127,7.96819],[-81.06791,7.95974],[-81.06938,7.94948],[-81.0811,7.93603],[-81.081,7.92971],[-81.07786,7.92899],[-81.08089,7.92215],[-81.08907,7.92672],[-81.09521,7.92539],[-81.09571,7.93472],[-81.09878,7.93531],[-81.09738,7.93721],[-81.10032,7.93766],[-81.10366,7.94422],[-81.10139,7.94867],[-81.11314,7.95146],[-81.11055,7.95581],[-81.12027,8.00075],[-81.10658,7.98749],[-81.10507,7.9911],[-81.09573,7.99507],[-81.09096,7.9884],[-81.08813,7.98934]]]}},{"type":"Feature","properties":{"corregimiento":"Costa Hermosa","distrito":"Montijo","provincia":"Veraguas","bbox":[-81.0811,7.89329,-81.03162,7.96824]},"geometry":{"type":"Polygon","coordinates":[[[-81.03856,7.96444],[-81.03162,7.95771],[-81.03498,7.95175],[-81.04013,7.94903],[-81.03856,7.94033],[-81.04791,7.93672],[-81.04909,7.93132],[-81.05435,7.92687],[-81.0562,7.90559],[-81.06664,7.89329],[-81.07359,7.90475],[-81.07071,7.90618],[-81.0704,7.9156],[-81.06518,7.9207],[-81.06769,7.9232],[-81.07951,7.91986],[-81.08094,7.92272],[-81.07787,7.92912],[-81.081,7.92971],[-81.0811,7.93603],[-81.06938,7.94948],[-81.06791,7.95974],[-81.06117,7.96824],[-81.05336,7.96655],[-81.05246,7.95763],[-81.04758,7.9646],[-81.04217,7.96245],[-81.03856,7.96444]]]}},{"type":"Feature","properties":{"corregimiento":"Unión del Norte","distrito":"Montijo","provincia":"Veraguas","bbox":[-81.12027,7.98593,-81.04216,8.06086]},"geometry":{"type":"Polygon","coordinates":[[[-81.05965,8.06086],[-81.04634,8.0564],[-81.04455,8.04639],[-81.04767,8.03348],[-81.04216,8.01954],[-81.04917,8.01679],[-81.05906,8.01735],[-81.07127,8.00231],[-81.08077,7.99778],[-81.0884,7.98593],[-81.08813,7.98934],[-81.09096,7.9884],[-81.09573,7.99507],[-81.10507,7.9911],[-81.10658,7.98749],[-81.12027,8.00075],[-81.1069,8.01605],[-81.10582,8.02391],[-81.09206,8.02448],[-81.08985,8.02974],[-81.09611,8.03223],[-81.09088,8.03692],[-81.09363,8.03979],[-81.09002,8.04404],[-81.06628,8.05442],[-81.05965,8.06086]]]}},{"type":"Feature","properties":{"corregimiento":"Leones","distrito":"Montijo","provincia":"Veraguas","bbox":[-81.15257,7.71807,-81.07414,7.83881]},"geometry":{"type":"MultiPolygon","coordinates":[[[[-81.09136,7.83881],[-81.07723,7.83672],[-81.07414,7.82407],[-81.09022,7.81894],[-81.0981,7.82881],[-81.09136,7.83881]]],[[[-81.13156,7.76398],[-81.12341,7.76185],[-81.1056,7.74703],[-81.10158,7.72765],[-81.10644,7.71807],[-81.12279,7.72049],[-81.1344,7.72944],[-81.14467,7.73245],[-81.14598,7.73774],[-81.15257,7.74368],[-81.12845,7.74048],[-81.13242,7.75981],[-81.13156,7.76398]]]]}},{"type":"Feature","properties":{"corregimiento":"Gobernadora","distrito":"Montijo","provincia":"Veraguas","bbox":[-81.89199,7.22822,-81.18435,7.65061]},"geometry":{"type":"MultiPolygon","coordinates":[[[[-81.20985,7.57598],[-81.19687,7.56999],[-81.18435,7.55877],[-81.19486,7.55653],[-81.20303,7.55091],[-81.22236,7.54951],[-81.2243,7.55633],[-81.22067,7.55817],[-81.22175,7.56758],[-81.20985,7.57598]]],[[[-81.7491,7.6485],[-81.74605,7.63884],[-81.73609,7.63598],[-81.74158,7.63209],[-81.74087,7.62689],[-81.73051,7.63194],[-81.7271,7.62638],[-81.73041,7.62268],[-81.73443,7.62323],[-81.73483,7.62068],[-81.72757,7.61398],[-81.72346,7.59817],[-81.72058,7.59899],[-81.72534,7.59598],[-81.72291,7.59251],[-81.72729,7.58875],[-81.72359,7.58544],[-81.72482,7.57415],[-81.71374,7.55315],[-81.71345,7.54674],[-81.7073,7.53908],[-81.69744,7.54358],[-81.68119,7.54375],[-81.67658,7.52592],[-81.67618,7.51295],[-81.68128,7.50418],[-81.69347,7.5032],[-81.70095,7.49791],[-81.71315,7.49469],[-81.71931,7.48707],[-81.71807,7.46558],[-81.72041,7.45823],[-81.72305,7.46122],[-81.72469,7.45887],[-81.72266,7.45227],[-81.7284,7.44733],[-81.728,7.44019],[-81.71082,7.42813],[-81.69909,7.42436],[-81.69755,7.42105],[-81.70248,7.41884],[-81.69901,7.40076],[-81.6877,7.38708],[-81.68202,7.38874],[-81.68072,7.392],[-81.66909,7.38629],[-81.66156,7.38606],[-81.65229,7.38923],[-81.65107,7.3951],[-81.64991,7.39273],[-81.64376,7.39252],[-81.63923,7.39639],[-81.62836,7.39148],[-81.62125,7.37833],[-81.61207,7.37528],[-81.6115,7.36501],[-81.60258,7.35916],[-81.60325,7.34083],[-81.60074,7.33633],[-81.59233,7.33394],[-81.59142,7.32659],[-81.6158,7.32786],[-81.63216,7.32198],[-81.63603,7.31785],[-81.64431,7.31711],[-81.66801,7.326],[-81.67138,7.33069],[-81.69325,7.3405],[-81.7057,7.34054],[-81.72275,7.34646],[-81.725,7.34982],[-81.73254,7.34752],[-81.75025,7.3493],[-81.75157,7.35175],[-81.75833,7.35061],[-81.77384,7.3613],[-81.77696,7.359],[-81.78992,7.3818],[-81.79941,7.39045],[-81.80277,7.3897],[-81.80255,7.39487],[-81.80625,7.40007],[-81.81276,7.40611],[-81.82062,7.40736],[-81.81951,7.41032],[-81.82648,7.41678],[-81.84683,7.4279],[-81.84915,7.43313],[-81.85924,7.43901],[-81.86156,7.44553],[-81.86549,7.44507],[-81.86344,7.44846],[-81.86583,7.4625],[-81.86342,7.46324],[-81.86745,7.47057],[-81.87031,7.46955],[-81.86828,7.47629],[-81.86948,7.47992],[-81.87239,7.48179],[-81.87389,7.47996],[-81.87537,7.48274],[-81.87306,7.48834],[-81.87533,7.4918],[-81.88808,7.48739],[-81.8863,7.48944],[-81.88821,7.49084],[-81.88166,7.49649],[-81.88392,7.50165],[-81.87973,7.50568],[-81.88428,7.51358],[-81.88854,7.51387],[-81.88694,7.51995],[-81.89199,7.52161],[-81.89152,7.52394],[-81.88157,7.52359],[-81.86911,7.51557],[-81.86262,7.5155],[-81.85533,7.53075],[-81.85843,7.53419],[-81.85866,7.54386],[-81.85269,7.54559],[-81.84696,7.54325],[-81.84415,7.54655],[-81.84048,7.55518],[-81.84162,7.57402],[-81.83149,7.58408],[-81.8342,7.58697],[-81.82778,7.58861],[-81.82774,7.59247],[-81.81825,7.59265],[-81.81417,7.58972],[-81.80433,7.59569],[-81.79075,7.61313],[-81.78718,7.61262],[-81.78623,7.61565],[-81.78894,7.6171],[-81.78415,7.62392],[-81.77399,7.62156],[-81.77534,7.62685],[-81.76525,7.61974],[-81.75825,7.61923],[-81.75647,7.62228],[-81.76209,7.62763],[-81.76209,7.63255],[-81.76825,7.6318],[-81.77,7.6344],[-81.7626,7.63833],[-81.76442,7.64321],[-81.76022,7.6467],[-81.75952,7.64176],[-81.75309,7.63959],[-81.75083,7.64304],[-81.75254,7.64892],[-81.7491,7.6485]]],[[[-81.69768,7.65029],[-81.69603,7.64668],[-81.69096,7.64579],[-81.69997,7.64122],[-81.69969,7.638],[-81.69691,7.63822],[-81.69786,7.63433],[-81.7001,7.63734],[-81.71046,7.63873],[-81.71719,7.64636],[-81.71397,7.6484],[-81.70622,7.64581],[-81.70395,7.65061],[-81.69768,7.65029]]],[[[-81.81506,7.2892],[-81.78924,7.29107],[-81.78368,7.2865],[-81.77114,7.29116],[-81.76814,7.28457],[-81.78572,7.27429],[-81.78536,7.26629],[-81.80192,7.24189],[-81.79888,7.23279],[-81.80245,7.22822],[-81.81093,7.24299],[-81.80993,7.24564],[-81.81928,7.26758],[-81.82402,7.27306],[-81.8197,7.28237],[-81.82042,7.29434],[-81.81506,7.2892]]]]}},{"type":"Feature","properties":{"corregimiento":"Cébaco","distrito":"Montijo","provincia":"Veraguas","bbox":[-81.25869,7.48119,-81.03859,7.58217]},"geometry":{"type":"Polygon","coordinates":[[[-81.09562,7.58217],[-81.07277,7.58096],[-81.07141,7.57799],[-81.05716,7.57828],[-81.05389,7.58067],[-81.03859,7.57141],[-81.04668,7.56758],[-81.05515,7.55476],[-81.05644,7.54621],[-81.07827,7.53563],[-81.07813,7.53218],[-81.08357,7.52809],[-81.10603,7.54307],[-81.12511,7.54793],[-81.13359,7.54529],[-81.13611,7.541],[-81.14369,7.54011],[-81.14727,7.53678],[-81.14751,7.5278],[-81.15822,7.52343],[-81.15957,7.5191],[-81.16622,7.51738],[-81.17287,7.50903],[-81.18482,7.50581],[-81.18845,7.50136],[-81.18587,7.49425],[-81.19198,7.49126],[-81.19638,7.49393],[-81.19826,7.49019],[-81.20401,7.49224],[-81.21689,7.48762],[-81.2162,7.48575],[-81.22634,7.4858],[-81.21944,7.49262],[-81.22503,7.49872],[-81.23847,7.49475],[-81.24404,7.48946],[-81.24145,7.48564],[-81.24711,7.48119],[-81.25869,7.48722],[-81.23038,7.51853],[-81.2188,7.52062],[-81.21258,7.52757],[-81.20241,7.52563],[-81.19237,7.53141],[-81.17104,7.53254],[-81.16343,7.54658],[-81.14695,7.56446],[-81.13952,7.5689],[-81.12322,7.56998],[-81.09562,7.58217]]]}}]}