{"type":"FeatureCollection","features":[{"type":"Feature","properties":{"corregimiento":"Río de Jesús (Cabecera)","distrito":"Río de Jesús","provincia":"Veraguas","bbox":[-81.21075,7.91303,-81.10935,8.0773]},"geometry":{"type":"Polygon","coordinates":[[[-81.10935,8.05449],[-81.12319,8.04624],[-81.1178,8.03108],[-81.13947,8.02837],[-81.13888,8.01398],[-81.14463,8.01526],[-81.15746,8.00351],[-81.14792,7.99818],[-81.14789,7.98621],[-81.14555,7.98603],[-81.14234,7.97731],[-81.15029,7.98],[-81.15619,7.97609],[-81.15023,7.97262],[-81.1458,7.96418],[-81.14242,7.96758],[-81.12904,7.96651],[-81.13471,7.95328],[-81.14136,7.95662],[-81.14059,7.94546],[-81.13571,7.93873],[-81.13974,7.93796],[-81.14721,7.94279],[-81.15046,7.93698],[-81.14868,7.93149],[-81.15471,7.93324],[-81.17636,7.91984],[-81.19365,7.91495],[-81.20002,7.91626],[-81.20566,7.91303],[-81.20876,7.91916],[-81.20327,7.92668],[-81.20534,7.92973],[-81.19922,7.93234],[-81.19901,7.94382],[-81.20887,7.95601],[-81.20092,7.96324],[-81.20292,7.96643],[-81.19935,7.97919],[-81.19475,7.98039],[-81.19665,7.9825],[-81.19312,7.99905],[-81.19391,8.01051],[-81.18636,8.02518],[-81.1953,8.03209],[-81.20547,8.03297],[-81.21075,8.03651],[-81.20532,8.03728],[-81.20236,8.0414],[-81.19694,8.04114],[-81.19329,8.04608],[-81.18741,8.04795],[-81.17228,8.04761],[-81.16364,8.0675],[-81.15793,8.06918],[-81.15522,8.06662],[-81.15329,8.06905],[-81.14138,8.07051],[-81.13833,8.06851],[-81.12929,8.07453],[-81.12205,8.07441],[-81.12085,8.0773],[-81.11319,8.07359],[-81.10935,8.05449]]]}},{"type":"Feature","properties":{"corregimiento":"Los Castillos","distrito":"Río de Jesús","provincia":"Veraguas","bbox":[-81.13947,8.00075,-81.08996,8.05785]},"geometry":{"type":"Polygon","coordinates":[[[-81.09637,8.05785],[-81.09379,8.05539],[-81.09528,8.05266],[-81.09178,8.05125],[-81.09484,8.04114],[-81.09085,8.03703],[-81.09605,8.03156],[-81.0913,8.03193],[-81.08996,8.02924],[-81.09571,8.02283],[-81.09993,8.02254],[-81.10109,8.02545],[-81.10582,8.02391],[-81.1069,8.01605],[-81.12027,8.00075],[-81.13888,8.01398],[-81.13947,8.02837],[-81.1178,8.03108],[-81.12319,8.04624],[-81.11333,8.05303],[-81.10154,8.0561],[-81.10112,8.05412],[-81.09637,8.05785]]]}},{"type":"Feature","properties":{"corregimiento":"Catorce de Noviembre","distrito":"Río de Jesús","provincia":"Veraguas","bbox":[-81.15746,7.85832,-81.06518,8.01526]},"geometry":{"type":"Polygon","coordinates":[[[-81.13888,8.01398],[-81.12027,8.00075],[-81.11055,7.95581],[-81.11314,7.95146],[-81.10139,7.94867],[-81.10366,7.94422],[-81.10032,7.93766],[-81.09738,7.93721],[-81.09878,7.93531],[-81.09571,7.93472],[-81.09532,7.92552],[-81.08878,7.92664],[-81.07858,7.9194],[-81.06769,7.9232],[-81.06518,7.9207],[-81.0704,7.9156],[-81.07071,7.90618],[-81.07359,7.90475],[-81.06664,7.89329],[-81.07085,7.88241],[-81.07655,7.88372],[-81.07666,7.87417],[-81.0802,7.87351],[-81.08857,7.85832],[-81.10243,7.86014],[-81.11215,7.86788],[-81.11325,7.88549],[-81.11905,7.89299],[-81.1187,7.91341],[-81.12856,7.91697],[-81.12881,7.92428],[-81.13236,7.92748],[-81.13132,7.93476],[-81.14063,7.94564],[-81.14136,7.95662],[-81.13471,7.95328],[-81.12912,7.96667],[-81.14242,7.96758],[-81.1458,7.96418],[-81.15023,7.97262],[-81.15619,7.97609],[-81.15029,7.98],[-81.14234,7.97731],[-81.14555,7.98603],[-81.14789,7.98621],[-81.14792,7.99818],[-81.15746,8.00351],[-81.14463,8.01526],[-81.13888,8.01398]]]}},{"type":"Feature","properties":{"corregimiento":"Las Huacas","distrito":"Río de Jesús","provincia":"Veraguas","bbox":[-81.21946,7.8437,-81.09092,7.94279]},"geometry":{"type":"Polygon","coordinates":[[[-81.13952,7.93791],[-81.13582,7.93881],[-81.13151,7.93514],[-81.13236,7.92748],[-81.12881,7.92428],[-81.12856,7.91697],[-81.1187,7.91341],[-81.11905,7.89299],[-81.11325,7.88549],[-81.11215,7.86788],[-81.09816,7.8587],[-81.09948,7.85615],[-81.09092,7.84908],[-81.09268,7.84565],[-81.11067,7.8437],[-81.11803,7.84549],[-81.11795,7.8511],[-81.12356,7.84763],[-81.14024,7.84516],[-81.14964,7.85355],[-81.15899,7.85389],[-81.17072,7.86112],[-81.1788,7.86169],[-81.18048,7.86857],[-81.19236,7.87814],[-81.20031,7.87358],[-81.20105,7.86453],[-81.2188,7.87097],[-81.21946,7.88121],[-81.2016,7.88406],[-81.19669,7.89138],[-81.2003,7.8987],[-81.21332,7.89942],[-81.21634,7.90704],[-81.21383,7.91347],[-81.2064,7.91084],[-81.20002,7.91626],[-81.19365,7.91495],[-81.17636,7.91984],[-81.15471,7.93324],[-81.14868,7.93149],[-81.15046,7.93698],[-81.14721,7.94279],[-81.13952,7.93791]]]}},{"type":"Feature","properties":{"corregimiento":"Utirá","distrito":"Río de Jesús","provincia":"Veraguas","bbox":[-81.24721,7.89942,-81.18636,8.0356]},"geometry":{"type":"Polygon","coordinates":[[[-81.20876,7.91916],[-81.20657,7.91081],[-81.21166,7.91409],[-81.21473,7.91228],[-81.21632,7.90677],[-81.21332,7.89942],[-81.22153,7.90398],[-81.23039,7.91538],[-81.23539,7.9303],[-81.23418,7.9339],[-81.23959,7.93697],[-81.23448,7.94497],[-81.23445,7.94921],[-81.23706,7.95021],[-81.23474,7.95304],[-81.23863,7.95866],[-81.23605,7.96021],[-81.23639,7.96733],[-81.24721,7.97438],[-81.24638,7.98931],[-81.22976,7.99113],[-81.20994,7.99941],[-81.22376,8.01036],[-81.22067,8.01296],[-81.22387,8.01671],[-81.21626,8.0271],[-81.2188,8.03131],[-81.21116,8.0356],[-81.1953,8.03209],[-81.18636,8.02518],[-81.19391,8.01051],[-81.19312,7.99905],[-81.19665,7.9825],[-81.19475,7.98039],[-81.19935,7.97919],[-81.20292,7.96643],[-81.20092,7.96324],[-81.20887,7.95601],[-81.19901,7.94382],[-81.19922,7.93234],[-81.20534,7.92973],[-81.20327,7.92668],[-81.20876,7.91916]]]}}]}