{"type":"FeatureCollection","features":[{"type":"Feature","properties":{"corregimiento":"San Francisco (Cabecera)","distrito":"San Francisco","provincia":"Veraguas","bbox":[-81.04413,8.20096,-80.91951,8.29116]},"geometry":{"type":"Polygon","coordinates":[[[-80.93259,8.2619],[-80.93965,8.24638],[-80.9343,8.24343],[-80.93194,8.237],[-80.92187,8.22603],[-80.92418,8.21752],[-80.91951,8.21211],[-80.92793,8.21341],[-80.93386,8.21789],[-80.9454,8.20656],[-80.95085,8.21727],[-80.95413,8.2124],[-80.95935,8.21336],[-80.96142,8.21079],[-80.9664,8.2152],[-80.97454,8.21525],[-80.97843,8.21146],[-80.98604,8.21159],[-80.99313,8.20353],[-81.00192,8.20096],[-81.04413,8.21442],[-81.02952,8.22391],[-81.01923,8.22473],[-81.01628,8.23445],[-81.00129,8.24716],[-81.0023,8.25171],[-81.01048,8.25574],[-81.01134,8.25989],[-81.00117,8.26073],[-80.99888,8.26403],[-80.99792,8.27095],[-81.00491,8.28362],[-81.00103,8.289],[-80.99559,8.28221],[-80.98936,8.28423],[-80.99105,8.27915],[-80.98797,8.27708],[-80.98762,8.28092],[-80.97323,8.2784],[-80.96763,8.28929],[-80.96398,8.29116],[-80.95955,8.28574],[-80.93382,8.27324],[-80.93259,8.2619]]]}},{"type":"Feature","properties":{"corregimiento":"Corral Falso","distrito":"San Francisco","provincia":"Veraguas","bbox":[-80.93965,8.17783,-80.82271,8.2619]},"geometry":{"type":"Polygon","coordinates":[[[-80.92476,8.25243],[-80.90655,8.24889],[-80.9053,8.24503],[-80.90137,8.24369],[-80.90283,8.23779],[-80.89554,8.22607],[-80.88187,8.22446],[-80.87873,8.2286],[-80.87312,8.22737],[-80.86477,8.21917],[-80.86388,8.21305],[-80.86075,8.21312],[-80.86071,8.21617],[-80.8475,8.21721],[-80.84705,8.21373],[-80.84304,8.21407],[-80.845,8.21036],[-80.84004,8.20663],[-80.83847,8.20129],[-80.82611,8.20239],[-80.82271,8.19623],[-80.82944,8.17847],[-80.83242,8.17808],[-80.83112,8.18697],[-80.83425,8.18893],[-80.8407,8.17896],[-80.84914,8.17783],[-80.84997,8.18552],[-80.86361,8.18897],[-80.86348,8.19687],[-80.87037,8.20495],[-80.88074,8.19798],[-80.88927,8.20096],[-80.89363,8.2077],[-80.90818,8.19874],[-80.91202,8.20936],[-80.91758,8.20899],[-80.92566,8.2135],[-80.91938,8.21227],[-80.92418,8.21752],[-80.92183,8.22595],[-80.93194,8.237],[-80.9343,8.24343],[-80.93965,8.24638],[-80.93259,8.2619],[-80.92476,8.25243]]]}},{"type":"Feature","properties":{"corregimiento":"Los Hatillos","distrito":"San Francisco","provincia":"Veraguas","bbox":[-81.01901,8.25154,-80.91342,8.42348]},"geometry":{"type":"Polygon","coordinates":[[[-80.94107,8.42348],[-80.93806,8.32152],[-80.93085,8.30439],[-80.92549,8.30523],[-80.92369,8.30854],[-80.91565,8.30601],[-80.91342,8.29716],[-80.92047,8.28858],[-80.91832,8.28535],[-80.9215,8.27922],[-80.92218,8.26969],[-80.9184,8.26487],[-80.91756,8.25154],[-80.92476,8.25243],[-80.93106,8.25836],[-80.93378,8.26299],[-80.93196,8.26751],[-80.93382,8.27324],[-80.95955,8.28574],[-80.96398,8.29116],[-80.96763,8.28929],[-80.97323,8.2784],[-80.98762,8.28092],[-80.98819,8.27712],[-80.99105,8.27915],[-80.98936,8.28423],[-80.99559,8.28221],[-81.00576,8.29156],[-81.00889,8.3026],[-81.01462,8.30798],[-81.01142,8.31139],[-81.01478,8.31999],[-81.00651,8.32214],[-81.00655,8.32739],[-80.99357,8.32688],[-80.99124,8.33559],[-80.99574,8.34809],[-80.99121,8.35505],[-80.99663,8.3573],[-80.99637,8.36189],[-81.00563,8.36216],[-81.01901,8.38009],[-81.01549,8.38262],[-81.01359,8.39084],[-80.9641,8.39828],[-80.94107,8.42348]]]}},{"type":"Feature","properties":{"corregimiento":"Remance","distrito":"San Francisco","provincia":"Veraguas","bbox":[-81.12596,8.21442,-81.00686,8.3907]},"geometry":{"type":"Polygon","coordinates":[[[-81.07641,8.3152],[-81.07163,8.31073],[-81.07024,8.30485],[-81.06353,8.29956],[-81.06537,8.28002],[-81.06125,8.27782],[-81.05841,8.26931],[-81.06908,8.26509],[-81.07014,8.25748],[-81.04335,8.26241],[-81.00686,8.24274],[-81.01628,8.23445],[-81.01991,8.22423],[-81.02952,8.22391],[-81.04413,8.21442],[-81.08092,8.22649],[-81.09321,8.25099],[-81.09455,8.26411],[-81.09021,8.26477],[-81.09386,8.26802],[-81.09066,8.27236],[-81.09909,8.2721],[-81.10205,8.27534],[-81.09899,8.28059],[-81.10681,8.30146],[-81.10867,8.30019],[-81.11154,8.30476],[-81.12027,8.30479],[-81.11654,8.31762],[-81.12319,8.31857],[-81.12596,8.32966],[-81.12541,8.33292],[-81.12131,8.33229],[-81.12182,8.33838],[-81.11739,8.34181],[-81.11859,8.35039],[-81.11583,8.35673],[-81.12168,8.36525],[-81.12023,8.37822],[-81.1226,8.38891],[-81.1194,8.3907],[-81.11352,8.38787],[-81.11148,8.38073],[-81.10788,8.37902],[-81.10619,8.35833],[-81.08686,8.35587],[-81.0881,8.34803],[-81.09218,8.34819],[-81.09545,8.34405],[-81.09447,8.3386],[-81.09934,8.3357],[-81.09562,8.33316],[-81.09461,8.31888],[-81.07641,8.3152]]]}},{"type":"Feature","properties":{"corregimiento":"San Juan","distrito":"San Francisco","provincia":"Veraguas","bbox":[-81.07641,8.24274,-80.99792,8.35385]},"geometry":{"type":"Polygon","coordinates":[[[-81.01492,8.34635],[-81.00651,8.32214],[-81.01487,8.31981],[-81.01142,8.31139],[-81.01462,8.30798],[-81.00889,8.3026],[-81.00576,8.29156],[-81.00093,8.2894],[-81.00491,8.28362],[-80.99792,8.27095],[-80.99888,8.26403],[-81.00117,8.26073],[-81.01134,8.25989],[-81.01048,8.25574],[-81.0023,8.25171],[-81.00162,8.24668],[-81.00686,8.24274],[-81.04335,8.26241],[-81.07014,8.25748],[-81.06908,8.26509],[-81.05841,8.26931],[-81.06125,8.27782],[-81.06537,8.28002],[-81.06353,8.29956],[-81.07024,8.30485],[-81.07163,8.31073],[-81.07641,8.3152],[-81.02752,8.35385],[-81.01492,8.34635]]]}},{"type":"Feature","properties":{"corregimiento":"San José","distrito":"San Francisco","provincia":"Veraguas","bbox":[-81.1194,8.3152,-80.99113,8.40427]},"geometry":{"type":"Polygon","coordinates":[[[-81.09343,8.40427],[-81.0389,8.38715],[-81.01359,8.39084],[-81.01549,8.38262],[-81.01886,8.37979],[-81.00563,8.36216],[-80.99637,8.36189],[-80.99663,8.3573],[-80.99113,8.35487],[-80.99574,8.34809],[-80.99129,8.33669],[-80.99294,8.32746],[-81.00703,8.32678],[-81.01492,8.34635],[-81.02752,8.35385],[-81.07641,8.3152],[-81.09461,8.31888],[-81.09562,8.33316],[-81.09934,8.3357],[-81.09447,8.3386],[-81.09545,8.34405],[-81.09218,8.34819],[-81.0881,8.34803],[-81.08686,8.35587],[-81.10619,8.35833],[-81.10788,8.37902],[-81.11148,8.38073],[-81.11251,8.38696],[-81.1194,8.3907],[-81.09343,8.40427]]]}}]}