{"type":"FeatureCollection","features":[{"type":"Feature","properties":{"corregimiento":"Santa Fe (Cabecera)","distrito":"Santa Fe","provincia":"Veraguas","bbox":[-81.16272,8.38715,-81.01012,8.60634]},"geometry":{"type":"Polygon","coordinates":[[[-81.06877,8.52241],[-81.06548,8.51145],[-81.06925,8.49502],[-81.05875,8.49255],[-81.05815,8.48387],[-81.03871,8.48514],[-81.03046,8.47144],[-81.02069,8.46759],[-81.01012,8.44739],[-81.01427,8.42633],[-81.01024,8.41498],[-81.01646,8.40502],[-81.01359,8.39084],[-81.0389,8.38715],[-81.0561,8.3928],[-81.05352,8.4002],[-81.06164,8.4042],[-81.06382,8.40961],[-81.05272,8.41277],[-81.04639,8.41929],[-81.05836,8.42319],[-81.06483,8.43049],[-81.06463,8.43456],[-81.05795,8.44118],[-81.06263,8.44349],[-81.06708,8.45676],[-81.08969,8.4594],[-81.09255,8.46678],[-81.10244,8.47444],[-81.10369,8.48418],[-81.15528,8.5174],[-81.15592,8.53642],[-81.15179,8.55077],[-81.16272,8.56137],[-81.15965,8.56547],[-81.16045,8.57946],[-81.14343,8.57771],[-81.13948,8.58266],[-81.13806,8.591],[-81.12949,8.58804],[-81.11019,8.60266],[-81.10966,8.60634],[-81.10221,8.59402],[-81.10135,8.55872],[-81.08843,8.54422],[-81.09111,8.53751],[-81.09478,8.5383],[-81.0961,8.53104],[-81.09098,8.52881],[-81.08189,8.53148],[-81.08058,8.52565],[-81.07269,8.52547],[-81.06877,8.52241]]]}},{"type":"Feature","properties":{"corregimiento":"El Cuay","distrito":"Santa Fe","provincia":"Veraguas","bbox":[-81.15969,8.38891,-81.04639,8.5174]},"geometry":{"type":"Polygon","coordinates":[[[-81.0561,8.3928],[-81.09343,8.40427],[-81.1226,8.38891],[-81.12838,8.3997],[-81.13597,8.40343],[-81.13443,8.40623],[-81.13849,8.40529],[-81.14444,8.41032],[-81.14111,8.41521],[-81.14584,8.41945],[-81.13779,8.43358],[-81.14334,8.44384],[-81.14656,8.44218],[-81.15073,8.44426],[-81.1517,8.4551],[-81.15969,8.4655],[-81.15509,8.47312],[-81.15181,8.47375],[-81.15137,8.48354],[-81.14711,8.49303],[-81.14737,8.5],[-81.15528,8.5174],[-81.10369,8.48418],[-81.10244,8.47444],[-81.09255,8.46678],[-81.08969,8.4594],[-81.06708,8.45676],[-81.06263,8.44349],[-81.05795,8.44118],[-81.06463,8.43456],[-81.06483,8.43049],[-81.05836,8.42319],[-81.04639,8.41929],[-81.05272,8.41277],[-81.06382,8.40961],[-81.06164,8.4042],[-81.05352,8.4002],[-81.0561,8.3928]]]}},{"type":"Feature","properties":{"corregimiento":"Rubén Cantú","distrito":"Santa Fe","provincia":"Veraguas","bbox":[-81.0408,8.39084,-80.92354,8.50383]},"geometry":{"type":"Polygon","coordinates":[[[-80.98876,8.495],[-80.96364,8.48726],[-80.95743,8.492],[-80.95151,8.49048],[-80.94137,8.49697],[-80.93181,8.49594],[-80.92736,8.4885],[-80.92392,8.48909],[-80.9285,8.48385],[-80.92354,8.45388],[-80.9291,8.45159],[-80.92853,8.44801],[-80.932,8.4466],[-80.93445,8.44018],[-80.93147,8.43674],[-80.92699,8.43795],[-80.9252,8.42935],[-80.93192,8.4246],[-80.94078,8.42448],[-80.9641,8.39828],[-81.01359,8.39084],[-81.01646,8.40502],[-81.01024,8.41498],[-81.01427,8.42633],[-81.01012,8.44739],[-81.02069,8.46759],[-81.03046,8.47144],[-81.03536,8.48219],[-81.0408,8.48605],[-81.03135,8.49318],[-81.03018,8.5],[-81.0249,8.50383],[-81.02037,8.50151],[-80.99986,8.5029],[-80.98876,8.495]]]}},{"type":"Feature","properties":{"corregimiento":"Calovébora","distrito":"Santa Fe","provincia":"Veraguas","bbox":[-81.23324,8.53644,-80.72508,8.88716]},"geometry":{"type":"Polygon","coordinates":[[[-80.86996,8.88561],[-80.87519,8.85611],[-80.86475,8.84667],[-80.86777,8.84037],[-80.86118,8.83194],[-80.85248,8.83016],[-80.85182,8.82475],[-80.84496,8.8232],[-80.84297,8.8178],[-80.83603,8.81714],[-80.83104,8.82028],[-80.82539,8.81687],[-80.8315,8.81514],[-80.82992,8.8083],[-80.8215,8.80402],[-80.81775,8.80511],[-80.81284,8.79748],[-80.80689,8.80113],[-80.80279,8.79183],[-80.78572,8.79739],[-80.7795,8.79528],[-80.77637,8.79744],[-80.77387,8.79227],[-80.76647,8.78847],[-80.76864,8.78128],[-80.76584,8.77698],[-80.76192,8.77952],[-80.76017,8.77391],[-80.75547,8.77426],[-80.75589,8.76724],[-80.75264,8.76786],[-80.74912,8.75999],[-80.74424,8.7602],[-80.74284,8.75525],[-80.73976,8.75547],[-80.73828,8.74928],[-80.73263,8.74517],[-80.73425,8.74138],[-80.72806,8.73894],[-80.72914,8.73182],[-80.72508,8.73136],[-80.72989,8.72683],[-80.74898,8.72201],[-80.75123,8.71745],[-80.75513,8.7185],[-80.76048,8.708],[-80.75676,8.69358],[-80.74914,8.68362],[-80.74984,8.67506],[-80.73779,8.67458],[-80.73101,8.66383],[-80.72934,8.64575],[-80.73363,8.63882],[-80.74151,8.6358],[-80.74532,8.63096],[-80.7524,8.62944],[-80.75667,8.61919],[-80.74907,8.60395],[-80.74992,8.59845],[-80.75217,8.59414],[-80.76065,8.59322],[-80.77038,8.58496],[-80.77467,8.57638],[-80.77878,8.57411],[-80.77986,8.56488],[-80.78478,8.55678],[-80.79174,8.55491],[-80.81405,8.56468],[-80.82333,8.55729],[-80.82538,8.55209],[-80.83599,8.54881],[-80.83849,8.54401],[-80.84332,8.53811],[-80.85408,8.53644],[-80.87091,8.54858],[-80.87725,8.56743],[-80.87612,8.57861],[-80.88046,8.5932],[-80.89298,8.59651],[-80.89989,8.595],[-80.90517,8.59027],[-80.91674,8.59448],[-80.91858,8.58849],[-80.92327,8.58517],[-80.93247,8.5869],[-80.9421,8.58005],[-80.95322,8.57651],[-80.95939,8.57731],[-80.9666,8.5841],[-80.97774,8.5835],[-80.98629,8.5746],[-80.99911,8.57188],[-81.00056,8.57876],[-81.00598,8.58163],[-81.01171,8.60117],[-81.0222,8.6049],[-81.02269,8.61005],[-81.03145,8.61378],[-81.03237,8.61983],[-81.02697,8.63113],[-81.03461,8.63223],[-81.03784,8.63957],[-81.03608,8.64369],[-81.04703,8.64412],[-81.04917,8.65222],[-81.05865,8.65718],[-81.07321,8.65717],[-81.07919,8.66713],[-81.08618,8.66982],[-81.08339,8.67514],[-81.09302,8.69565],[-81.09219,8.706],[-81.1073,8.71668],[-81.10663,8.74117],[-81.11656,8.73229],[-81.12149,8.73473],[-81.12536,8.73017],[-81.13512,8.72974],[-81.14243,8.7189],[-81.14594,8.71845],[-81.15193,8.72458],[-81.18674,8.73399],[-81.19854,8.73031],[-81.20815,8.73246],[-81.21827,8.74022],[-81.22092,8.73878],[-81.22157,8.74839],[-81.22718,8.748],[-81.23035,8.75326],[-81.22131,8.7617],[-81.23029,8.77086],[-81.23324,8.78001],[-81.23099,8.78476],[-81.224,8.78774],[-81.21609,8.79016],[-81.20012,8.78664],[-81.19563,8.79087],[-81.17771,8.79672],[-81.16811,8.79465],[-81.15695,8.79715],[-81.1472,8.7959],[-81.14177,8.80034],[-81.12149,8.80447],[-81.11404,8.80898],[-81.0936,8.80804],[-81.09207,8.81115],[-81.08443,8.80804],[-81.07505,8.80903],[-81.06854,8.81125],[-81.05618,8.8235],[-81.04173,8.82169],[-81.03747,8.82747],[-81.03026,8.82723],[-81.02569,8.8329],[-80.99996,8.83356],[-80.99385,8.83487],[-80.98546,8.84403],[-80.9725,8.84281],[-80.9684,8.84917],[-80.95334,8.85512],[-80.95132,8.86116],[-80.94434,8.86306],[-80.94306,8.86627],[-80.90978,8.86609],[-80.90329,8.87335],[-80.90119,8.88049],[-80.89028,8.88716],[-80.86996,8.88561]]]}},{"type":"Feature","properties":{"corregimiento":"El Alto","distrito":"Santa Fe","provincia":"Veraguas","bbox":[-81.06939,8.48387,-80.9861,8.62675]},"geometry":{"type":"Polygon","coordinates":[[[-81.02957,8.62577],[-81.03241,8.61964],[-81.03126,8.61341],[-81.02269,8.61005],[-81.0222,8.6049],[-81.01171,8.60117],[-81.00594,8.58155],[-81.00097,8.57926],[-81.00036,8.57311],[-80.99621,8.57129],[-80.99487,8.5631],[-80.99861,8.54452],[-80.99737,8.54017],[-80.99194,8.53999],[-80.9878,8.53531],[-80.9861,8.49904],[-80.98876,8.495],[-80.99986,8.5029],[-81.02037,8.50151],[-81.0249,8.50383],[-81.03018,8.5],[-81.03135,8.49318],[-81.03956,8.48657],[-81.05815,8.48387],[-81.05875,8.49255],[-81.06939,8.49531],[-81.06548,8.51145],[-81.06911,8.51748],[-81.06893,8.52431],[-81.05799,8.54559],[-81.0513,8.5437],[-81.04599,8.5496],[-81.04759,8.55297],[-81.03655,8.58906],[-81.04109,8.60113],[-81.04625,8.6038],[-81.05305,8.60124],[-81.0591,8.60536],[-81.06097,8.62179],[-81.05632,8.62466],[-81.04795,8.62303],[-81.04164,8.62675],[-81.02957,8.62577]]]}},{"type":"Feature","properties":{"corregimiento":"El Pantano","distrito":"Santa Fe","provincia":"Veraguas","bbox":[-81.10966,8.52241,-81.03654,8.62179]},"geometry":{"type":"Polygon","coordinates":[[[-81.06877,8.52241],[-81.07269,8.52547],[-81.08058,8.52565],[-81.08189,8.53148],[-81.09098,8.52881],[-81.0961,8.53104],[-81.09478,8.5383],[-81.09111,8.53751],[-81.08843,8.54422],[-81.10135,8.55872],[-81.10221,8.59402],[-81.10966,8.60634],[-81.09442,8.6036],[-81.0861,8.61176],[-81.06787,8.61588],[-81.06097,8.62179],[-81.0591,8.60536],[-81.05305,8.60124],[-81.04625,8.6038],[-81.04109,8.60113],[-81.03654,8.58896],[-81.04759,8.55297],[-81.04599,8.5496],[-81.0513,8.5437],[-81.0581,8.54547],[-81.05825,8.54165],[-81.06423,8.53637],[-81.06318,8.53334],[-81.06655,8.53272],[-81.06877,8.52241]]]}},{"type":"Feature","properties":{"corregimiento":"Gatú o Gatucito","distrito":"Santa Fe","provincia":"Veraguas","bbox":[-80.99861,8.48726,-80.895,8.59609]},"geometry":{"type":"Polygon","coordinates":[[[-80.93181,8.49594],[-80.94143,8.49697],[-80.95151,8.49048],[-80.95743,8.492],[-80.96364,8.48726],[-80.98876,8.495],[-80.98541,8.51021],[-80.98828,8.51524],[-80.9856,8.51861],[-80.98889,8.52886],[-80.9878,8.53531],[-80.99194,8.53999],[-80.99737,8.54017],[-80.99861,8.54452],[-80.99487,8.5631],[-80.99621,8.57129],[-80.98581,8.57489],[-80.97774,8.5835],[-80.9666,8.5841],[-80.95939,8.57731],[-80.95322,8.57651],[-80.9421,8.58005],[-80.93247,8.5869],[-80.92327,8.58517],[-80.91858,8.58849],[-80.91674,8.59448],[-80.90517,8.59027],[-80.895,8.59609],[-80.90986,8.58015],[-80.91392,8.56726],[-80.9189,8.566],[-80.93247,8.55055],[-80.93949,8.54776],[-80.94437,8.53354],[-80.94876,8.53339],[-80.9517,8.52726],[-80.94975,8.51522],[-80.93903,8.50725],[-80.93181,8.49594]]]}},{"type":"Feature","properties":{"corregimiento":"Río Luis","distrito":"Santa Fe","provincia":"Veraguas","bbox":[-81.22388,8.5174,-81.02697,8.74117]},"geometry":{"type":"Polygon","coordinates":[[[-81.02957,8.62577],[-81.04164,8.62675],[-81.04869,8.62292],[-81.05632,8.62466],[-81.06787,8.61588],[-81.0861,8.61176],[-81.09472,8.60352],[-81.10966,8.60634],[-81.11019,8.60266],[-81.12949,8.58804],[-81.13806,8.591],[-81.13948,8.58266],[-81.14343,8.57771],[-81.16045,8.57946],[-81.15965,8.56547],[-81.16272,8.56137],[-81.15179,8.55077],[-81.15592,8.53642],[-81.15528,8.5174],[-81.16667,8.54963],[-81.17294,8.55276],[-81.18581,8.55203],[-81.1895,8.56103],[-81.19539,8.56531],[-81.19598,8.57011],[-81.21314,8.58384],[-81.21228,8.58813],[-81.21739,8.58947],[-81.21547,8.59336],[-81.21826,8.59905],[-81.21133,8.61619],[-81.22039,8.62887],[-81.21878,8.63489],[-81.22161,8.63787],[-81.2193,8.64369],[-81.22388,8.6549],[-81.2142,8.66278],[-81.2202,8.66717],[-81.217,8.67292],[-81.22176,8.67678],[-81.21862,8.68683],[-81.20652,8.68912],[-81.20934,8.6952],[-81.20634,8.7007],[-81.20944,8.7067],[-81.22,8.70922],[-81.21593,8.72043],[-81.22056,8.72267],[-81.223,8.73591],[-81.21984,8.74054],[-81.20815,8.73246],[-81.20037,8.7306],[-81.18674,8.73399],[-81.15193,8.72458],[-81.14541,8.71846],[-81.14243,8.7189],[-81.13512,8.72974],[-81.12536,8.73017],[-81.12149,8.73473],[-81.11656,8.73229],[-81.10663,8.74117],[-81.1073,8.71668],[-81.09219,8.706],[-81.09302,8.69565],[-81.08339,8.67514],[-81.08611,8.66971],[-81.07919,8.66713],[-81.07311,8.65711],[-81.05865,8.65718],[-81.04917,8.65222],[-81.04703,8.64412],[-81.03617,8.64379],[-81.03784,8.63957],[-81.03461,8.63223],[-81.02697,8.63113],[-81.02957,8.62577]]]}}]}