{"type":"FeatureCollection","features":[{"type":"Feature","properties":{"corregimiento":"Santiago Sur","distrito":"Santiago","provincia":"Veraguas","bbox":[-81.08965,7.72757,-80.94203,7.87887]},"geometry":{"type":"Polygon","coordinates":[[[-80.95169,7.87887],[-80.94497,7.85951],[-80.94999,7.83015],[-80.94203,7.82947],[-80.9511,7.81038],[-80.95317,7.8104],[-80.95502,7.80088],[-80.94622,7.79235],[-80.94964,7.78958],[-80.94619,7.78562],[-80.95148,7.78002],[-80.95544,7.78145],[-80.9624,7.77717],[-80.96309,7.77074],[-80.95941,7.76596],[-80.95446,7.76646],[-80.95632,7.76291],[-80.95327,7.76162],[-80.96022,7.75226],[-80.96429,7.7516],[-80.96235,7.74876],[-80.97037,7.74],[-80.97321,7.74041],[-80.97362,7.73777],[-80.98327,7.74343],[-80.98718,7.73919],[-80.98341,7.73292],[-80.99152,7.73008],[-80.99351,7.73195],[-80.99816,7.72757],[-81.00381,7.7316],[-81.01418,7.72875],[-81.01949,7.73605],[-81.01593,7.74424],[-81.02836,7.74253],[-81.0364,7.75243],[-81.04039,7.74998],[-81.05521,7.75094],[-81.06374,7.74738],[-81.06508,7.75733],[-81.07492,7.75696],[-81.07953,7.76641],[-81.08965,7.77319],[-81.08617,7.79459],[-81.07621,7.81146],[-81.06733,7.81755],[-81.05925,7.81824],[-81.05874,7.8209],[-81.03118,7.82087],[-81.02092,7.82926],[-81.02083,7.84101],[-81.02693,7.84621],[-81.02114,7.85037],[-81.02576,7.85608],[-81.02305,7.85722],[-81.02386,7.86055],[-81.02143,7.85951],[-81.01941,7.86279],[-81.01705,7.86074],[-81.01355,7.86555],[-81.01014,7.86205],[-81.00488,7.86315],[-81.00452,7.86581],[-80.99233,7.86836],[-80.99021,7.87312],[-80.9812,7.87495],[-80.97909,7.86767],[-80.95169,7.87887]]]}},{"type":"Feature","properties":{"corregimiento":"La Colorada","distrito":"Santiago","provincia":"Veraguas","bbox":[-81.03315,7.93645,-80.94314,8.06158]},"geometry":{"type":"Polygon","coordinates":[[[-80.97293,8.03801],[-80.97155,8.03028],[-80.96486,8.02886],[-80.97048,8.02314],[-80.97129,8.01541],[-80.96444,8.00084],[-80.97117,7.99365],[-80.96393,7.99001],[-80.9639,7.9861],[-80.95861,7.98047],[-80.95578,7.96173],[-80.94656,7.95315],[-80.94314,7.95351],[-80.94886,7.94162],[-80.95904,7.94575],[-80.96846,7.93645],[-80.97852,7.95352],[-80.98322,7.95535],[-80.99288,7.95361],[-81.01079,7.95729],[-81.01703,7.95524],[-81.02228,7.95959],[-81.03315,7.95545],[-81.03276,7.96063],[-81.02317,7.97232],[-81.02642,7.98038],[-81.0228,7.98123],[-81.02411,7.9897],[-81.02966,7.99294],[-81.0261,7.99759],[-81.0277,7.99979],[-81.01705,8.00757],[-81.00607,8.00368],[-81.01246,8.01542],[-81.02288,8.01665],[-81.01724,8.02247],[-81.0,8.02457],[-80.99748,8.02778],[-80.99271,8.02668],[-81.0018,8.03144],[-80.98541,8.06158],[-80.97667,8.05915],[-80.96662,8.04911],[-80.97293,8.03801]]]}},{"type":"Feature","properties":{"corregimiento":"Ponuga","distrito":"Santiago","provincia":"Veraguas","bbox":[-81.06714,7.82072,-80.8929,7.95639]},"geometry":{"type":"Polygon","coordinates":[[[-81.06714,7.88157],[-81.00883,7.9166],[-81.01424,7.92697],[-81.00457,7.94952],[-81.0058,7.95639],[-80.97936,7.95415],[-80.96846,7.93645],[-80.95904,7.94575],[-80.94886,7.94162],[-80.94314,7.95351],[-80.91676,7.95602],[-80.91031,7.94931],[-80.90301,7.94945],[-80.90113,7.95373],[-80.89432,7.94966],[-80.8929,7.93948],[-80.89649,7.93646],[-80.8962,7.92416],[-80.91186,7.92362],[-80.91777,7.92025],[-80.92555,7.92719],[-80.93109,7.92273],[-80.93164,7.91845],[-80.94093,7.9173],[-80.94555,7.91389],[-80.95129,7.91691],[-80.96257,7.91406],[-80.93668,7.90625],[-80.94353,7.89859],[-80.94184,7.88691],[-80.9472,7.87972],[-80.97916,7.86766],[-80.98048,7.87478],[-80.99006,7.87316],[-80.99233,7.86836],[-81.00452,7.86581],[-81.00482,7.86317],[-81.01014,7.86205],[-81.01355,7.86555],[-81.01705,7.86074],[-81.01941,7.86279],[-81.02143,7.85951],[-81.0239,7.86051],[-81.02305,7.85722],[-81.02576,7.85608],[-81.02114,7.85037],[-81.02693,7.84621],[-81.02083,7.84101],[-81.02022,7.83104],[-81.03084,7.82099],[-81.05772,7.82072],[-81.06186,7.82542],[-81.06531,7.85011],[-81.06136,7.86931],[-81.06551,7.87537],[-81.06475,7.88102],[-81.06714,7.88157]]]}},{"type":"Feature","properties":{"corregimiento":"La Raya de Santa María","distrito":"Santiago","provincia":"Veraguas","bbox":[-80.8637,8.11096,-80.74157,8.19623]},"geometry":{"type":"Polygon","coordinates":[[[-80.82271,8.19623],[-80.81981,8.19085],[-80.80522,8.17979],[-80.78524,8.17631],[-80.77412,8.18359],[-80.78287,8.16971],[-80.77917,8.16802],[-80.77678,8.15635],[-80.76791,8.15395],[-80.76185,8.15628],[-80.75474,8.14841],[-80.74226,8.14713],[-80.74157,8.14132],[-80.75477,8.14113],[-80.75197,8.13431],[-80.76505,8.1269],[-80.76382,8.12392],[-80.76781,8.12452],[-80.76976,8.12835],[-80.77333,8.12517],[-80.78445,8.12787],[-80.80501,8.11096],[-80.80746,8.11364],[-80.81674,8.11569],[-80.82184,8.11379],[-80.8252,8.117],[-80.83282,8.11783],[-80.84042,8.12487],[-80.84463,8.12505],[-80.84605,8.13062],[-80.85158,8.12972],[-80.85671,8.13311],[-80.85892,8.14209],[-80.85608,8.15307],[-80.8637,8.16195],[-80.84939,8.17829],[-80.8391,8.18032],[-80.83496,8.18874],[-80.83119,8.1872],[-80.83245,8.1782],[-80.82983,8.1781],[-80.82271,8.19623]]]}},{"type":"Feature","properties":{"corregimiento":"Canto del Llano","distrito":"Santiago","provincia":"Veraguas","bbox":[-80.99855,8.10834,-80.8806,8.21787]},"geometry":{"type":"Polygon","coordinates":[[[-80.93392,8.21787],[-80.91758,8.20899],[-80.91202,8.20936],[-80.90726,8.19834],[-80.89199,8.20718],[-80.88927,8.20096],[-80.8806,8.19798],[-80.88187,8.19346],[-80.90087,8.19109],[-80.90206,8.18432],[-80.89919,8.1787],[-80.90301,8.17462],[-80.91058,8.17358],[-80.9187,8.18107],[-80.91741,8.19127],[-80.92218,8.19473],[-80.92276,8.19885],[-80.93999,8.19553],[-80.94134,8.18401],[-80.94568,8.17781],[-80.94064,8.16348],[-80.93679,8.16023],[-80.93864,8.14978],[-80.93338,8.14884],[-80.9412,8.14225],[-80.9393,8.13065],[-80.95957,8.12045],[-80.96023,8.11603],[-80.9663,8.11889],[-80.9716,8.10834],[-80.97423,8.11391],[-80.97134,8.1201],[-80.97751,8.12936],[-80.98159,8.15048],[-80.99855,8.18369],[-80.99607,8.19078],[-80.99833,8.19632],[-80.98738,8.21082],[-80.97833,8.2115],[-80.97665,8.21488],[-80.9665,8.21524],[-80.96142,8.21079],[-80.95935,8.21336],[-80.95413,8.2124],[-80.95098,8.21731],[-80.94525,8.20655],[-80.93392,8.21787]]]}},{"type":"Feature","properties":{"corregimiento":"Carlos Santana Ávila","distrito":"Santiago","provincia":"Veraguas","bbox":[-80.91557,8.06405,-80.76197,8.14433]},"geometry":{"type":"Polygon","coordinates":[[[-80.85831,8.13514],[-80.85158,8.12972],[-80.84605,8.13062],[-80.84463,8.12505],[-80.84042,8.12487],[-80.83282,8.11783],[-80.8252,8.117],[-80.82184,8.11379],[-80.81674,8.11569],[-80.80746,8.11364],[-80.80515,8.11096],[-80.78445,8.12787],[-80.77333,8.12517],[-80.76976,8.12835],[-80.76197,8.1173],[-80.76544,8.11695],[-80.76213,8.11269],[-80.76233,8.10726],[-80.76682,8.10195],[-80.76747,8.10484],[-80.77828,8.1018],[-80.781,8.10404],[-80.78038,8.09888],[-80.78462,8.09481],[-80.7825,8.09359],[-80.78488,8.09234],[-80.7823,8.08898],[-80.78403,8.08781],[-80.79488,8.08719],[-80.7961,8.08977],[-80.8013,8.08481],[-80.81015,8.08344],[-80.8181,8.07636],[-80.82015,8.07833],[-80.81872,8.07161],[-80.82188,8.06941],[-80.82779,8.07089],[-80.83328,8.06694],[-80.83837,8.07207],[-80.84649,8.06405],[-80.85758,8.06842],[-80.86168,8.06668],[-80.86362,8.0776],[-80.88166,8.08461],[-80.91299,8.07721],[-80.91557,8.08146],[-80.90366,8.096],[-80.89347,8.10222],[-80.87159,8.10657],[-80.8624,8.11751],[-80.8664,8.12526],[-80.87109,8.12725],[-80.89166,8.12488],[-80.89123,8.13363],[-80.88083,8.14433],[-80.86607,8.13506],[-80.85831,8.13514]]]}},{"type":"Feature","properties":{"corregimiento":"Urracá","distrito":"Santiago","provincia":"Veraguas","bbox":[-80.94571,8.10243,-80.84939,8.20495]},"geometry":{"type":"Polygon","coordinates":[[[-80.84939,8.17829],[-80.8637,8.16195],[-80.85603,8.15284],[-80.85831,8.13514],[-80.86607,8.13506],[-80.88083,8.14433],[-80.89223,8.13088],[-80.89157,8.12485],[-80.87804,8.12805],[-80.87651,8.12546],[-80.87116,8.12725],[-80.8664,8.12526],[-80.86238,8.11756],[-80.87159,8.10657],[-80.87732,8.10365],[-80.88265,8.10571],[-80.88731,8.10243],[-80.90198,8.1115],[-80.91118,8.11018],[-80.91168,8.12295],[-80.92491,8.12392],[-80.93454,8.11882],[-80.93756,8.12119],[-80.9412,8.14225],[-80.93338,8.14884],[-80.93864,8.14978],[-80.93679,8.16023],[-80.94064,8.16348],[-80.94571,8.17801],[-80.94134,8.18401],[-80.93999,8.19553],[-80.92276,8.19885],[-80.92218,8.19473],[-80.91741,8.19127],[-80.91864,8.18097],[-80.91335,8.17436],[-80.90654,8.1735],[-80.89916,8.17876],[-80.90206,8.18432],[-80.90093,8.19104],[-80.89384,8.19033],[-80.88978,8.1939],[-80.88465,8.19203],[-80.87037,8.20495],[-80.86348,8.19687],[-80.86361,8.18897],[-80.84997,8.18552],[-80.84939,8.17829]]]}},{"type":"Feature","properties":{"corregimiento":"Santiago Este","distrito":"Santiago","provincia":"Veraguas","bbox":[-80.78287,8.13071,-80.68527,8.18609]},"geometry":{"type":"Polygon","coordinates":[[[-80.74697,8.18609],[-80.73589,8.179],[-80.73418,8.17461],[-80.715,8.16498],[-80.72064,8.16215],[-80.71963,8.15903],[-80.71065,8.15273],[-80.70265,8.15544],[-80.7004,8.15324],[-80.7022,8.14706],[-80.69428,8.13966],[-80.68527,8.13715],[-80.6923,8.1372],[-80.69094,8.13481],[-80.69409,8.1334],[-80.6951,8.13577],[-80.69968,8.1353],[-80.7037,8.13071],[-80.70534,8.13444],[-80.70691,8.1312],[-80.72254,8.14066],[-80.73056,8.13814],[-80.73236,8.14637],[-80.73491,8.1456],[-80.73246,8.14399],[-80.73413,8.14252],[-80.73693,8.1443],[-80.73878,8.14246],[-80.74244,8.14723],[-80.75501,8.14855],[-80.76185,8.15628],[-80.76791,8.15395],[-80.77678,8.15635],[-80.77917,8.16802],[-80.78287,8.16971],[-80.77412,8.18359],[-80.76855,8.17734],[-80.74697,8.18609]]]}},{"type":"Feature","properties":{"corregimiento":"Santiago (Cabecera)","distrito":"Santiago","provincia":"Veraguas","bbox":[-81.00644,8.03742,-80.94609,8.11389]},"geometry":{"type":"Polygon","coordinates":[[[-80.97422,8.11389],[-80.96704,8.10027],[-80.94856,8.09416],[-80.94609,8.07941],[-80.94907,8.06917],[-80.9587,8.06447],[-80.95515,8.05649],[-80.95843,8.05351],[-80.96035,8.04213],[-80.96646,8.04253],[-80.96859,8.03742],[-80.97293,8.03801],[-80.96662,8.04911],[-80.97667,8.05915],[-80.98541,8.06158],[-80.99151,8.07395],[-80.99266,8.08312],[-80.99944,8.08957],[-81.00644,8.08959],[-80.99919,8.11261],[-80.99068,8.1126],[-80.987,8.10833],[-80.98284,8.10802],[-80.97422,8.11389]]]}},{"type":"Feature","properties":{"corregimiento":"La Peña","distrito":"Santiago","provincia":"Veraguas","bbox":[-81.15238,8.11803,-80.9926,8.25654]},"geometry":{"type":"Polygon","coordinates":[[[-81.08092,8.22649],[-81.00192,8.20096],[-80.99313,8.20353],[-80.99838,8.19622],[-80.99609,8.19068],[-81.00032,8.18099],[-81.00309,8.18101],[-81.00679,8.16993],[-81.00658,8.1592],[-81.01112,8.15189],[-80.9926,8.12463],[-80.99382,8.11989],[-80.99673,8.12416],[-81.00428,8.12367],[-81.0128,8.12757],[-81.02551,8.11803],[-81.0303,8.12374],[-81.0405,8.12704],[-81.04587,8.12559],[-81.07104,8.13875],[-81.07538,8.15653],[-81.07277,8.16019],[-81.05363,8.15779],[-81.05814,8.1633],[-81.0593,8.17624],[-81.06183,8.17247],[-81.06852,8.17152],[-81.07041,8.17428],[-81.08366,8.16681],[-81.08823,8.1729],[-81.08705,8.18147],[-81.09014,8.18077],[-81.09158,8.18493],[-81.10025,8.18916],[-81.1003,8.19546],[-81.10607,8.19647],[-81.10793,8.19962],[-81.11031,8.19609],[-81.11876,8.19878],[-81.12655,8.20456],[-81.13249,8.20282],[-81.13837,8.21635],[-81.14127,8.21665],[-81.14501,8.22751],[-81.14222,8.23025],[-81.14864,8.23501],[-81.1502,8.23855],[-81.14702,8.24245],[-81.15238,8.24873],[-81.14742,8.25587],[-81.1422,8.24636],[-81.13609,8.24297],[-81.13129,8.24742],[-81.12672,8.2451],[-81.11705,8.24796],[-81.10731,8.25651],[-81.10091,8.25285],[-81.09383,8.25654],[-81.08092,8.22649]]]}},{"type":"Feature","properties":{"corregimiento":"San Pedro del Espino","distrito":"Santiago","provincia":"Veraguas","bbox":[-81.09972,8.09879,-81.04058,8.17693]},"geometry":{"type":"Polygon","coordinates":[[[-81.04058,8.12672],[-81.04291,8.11756],[-81.04867,8.1253],[-81.05577,8.12031],[-81.06141,8.12476],[-81.0609,8.10403],[-81.06943,8.11318],[-81.07956,8.11697],[-81.08666,8.11541],[-81.09095,8.09879],[-81.09581,8.09999],[-81.09972,8.11021],[-81.09628,8.11197],[-81.09891,8.13092],[-81.09432,8.13814],[-81.09951,8.14711],[-81.0962,8.15383],[-81.09257,8.15204],[-81.08614,8.16682],[-81.07428,8.17004],[-81.07041,8.17428],[-81.06852,8.17152],[-81.06183,8.17247],[-81.06001,8.17693],[-81.05814,8.1633],[-81.05363,8.15779],[-81.07277,8.16019],[-81.07538,8.15653],[-81.07104,8.13875],[-81.04587,8.12559],[-81.04058,8.12672]]]}},{"type":"Feature","properties":{"corregimiento":"Los Algarrobos","distrito":"Santiago","provincia":"Veraguas","bbox":[-81.10019,8.04078,-80.98856,8.12757]},"geometry":{"type":"Polygon","coordinates":[[[-80.99262,8.12116],[-80.98856,8.11287],[-80.9993,8.11253],[-81.00896,8.08126],[-81.02575,8.07428],[-81.04977,8.05872],[-81.05965,8.06086],[-81.06615,8.0545],[-81.09467,8.04078],[-81.0918,8.05139],[-81.10019,8.06043],[-81.09221,8.0643],[-81.09552,8.06612],[-81.09458,8.07809],[-81.09122,8.08413],[-81.09473,8.08922],[-81.09335,8.09628],[-81.08982,8.09775],[-81.09134,8.10327],[-81.08666,8.11541],[-81.07956,8.11697],[-81.06943,8.11318],[-81.0609,8.10403],[-81.06141,8.12476],[-81.05577,8.12031],[-81.04867,8.1253],[-81.04291,8.11756],[-81.04058,8.12672],[-81.0303,8.12374],[-81.02551,8.11803],[-81.0128,8.12757],[-80.99262,8.12116]]]}},{"type":"Feature","properties":{"corregimiento":"Edwin Fábrega","distrito":"Santiago","provincia":"Veraguas","bbox":[-81.04977,8.01665,-80.98541,8.08959]},"geometry":{"type":"Polygon","coordinates":[[[-80.98541,8.06158],[-81.0018,8.03144],[-80.99271,8.02668],[-80.99748,8.02778],[-81.0,8.02457],[-81.01724,8.02247],[-81.02288,8.01665],[-81.03121,8.02901],[-81.04196,8.02116],[-81.04463,8.02412],[-81.04788,8.03587],[-81.04455,8.04647],[-81.04646,8.05692],[-81.04977,8.05872],[-81.02575,8.07428],[-81.00896,8.08126],[-81.00644,8.08959],[-80.99944,8.08957],[-80.99266,8.08312],[-80.99151,8.07395],[-80.98541,8.06158]]]}},{"type":"Feature","properties":{"corregimiento":"San Martín de Porres","distrito":"Santiago","provincia":"Veraguas","bbox":[-80.97105,8.10448,-80.93939,8.12961]},"geometry":{"type":"Polygon","coordinates":[[[-80.93939,8.12614],[-80.94284,8.12073],[-80.94134,8.11075],[-80.94407,8.10763],[-80.94982,8.10789],[-80.95119,8.10448],[-80.97105,8.10722],[-80.9663,8.11889],[-80.96034,8.116],[-80.95909,8.12071],[-80.94058,8.12961],[-80.93939,8.12614]]]}},{"type":"Feature","properties":{"corregimiento":"Rodrigo Luque","distrito":"Santiago","provincia":"Veraguas","bbox":[-81.01097,8.10807,-80.9713,8.18369]},"geometry":{"type":"Polygon","coordinates":[[[-80.97422,8.11389],[-80.98265,8.10807],[-80.98708,8.10839],[-80.99045,8.11218],[-80.98861,8.11411],[-80.99191,8.11586],[-80.9926,8.12463],[-81.01097,8.15124],[-81.00658,8.1592],[-81.00679,8.16993],[-81.00309,8.18101],[-80.99855,8.18369],[-80.98159,8.15048],[-80.97751,8.12936],[-80.9713,8.11991],[-80.97422,8.11389]]]}},{"type":"Feature","properties":{"corregimiento":"Nuevo Santiago","distrito":"Santiago","provincia":"Veraguas","bbox":[-80.97105,8.07233,-80.88774,8.12614]},"geometry":{"type":"Polygon","coordinates":[[[-80.9348,8.11885],[-80.92491,8.12392],[-80.91168,8.12295],[-80.91118,8.11018],[-80.90198,8.1115],[-80.88774,8.10299],[-80.90366,8.096],[-80.91557,8.08146],[-80.91299,8.07721],[-80.92838,8.07233],[-80.93474,8.07728],[-80.94329,8.09077],[-80.96704,8.10027],[-80.97105,8.10722],[-80.95119,8.10448],[-80.94982,8.10789],[-80.94215,8.1089],[-80.94284,8.12073],[-80.93939,8.12614],[-80.9348,8.11885]]]}}]}