{"type":"FeatureCollection","features":[{"type":"Feature","properties":{"corregimiento":"Soná (Cabecera)","distrito":"Soná","provincia":"Veraguas","bbox":[-81.36945,7.92022,-81.27971,8.02552]},"geometry":{"type":"Polygon","coordinates":[[[-81.31742,8.02232],[-81.30533,8.01546],[-81.30678,8.00358],[-81.29059,7.99706],[-81.29566,7.99118],[-81.28924,7.98689],[-81.28849,7.97411],[-81.27971,7.95763],[-81.2815,7.94673],[-81.2849,7.9472],[-81.2894,7.95397],[-81.29851,7.94866],[-81.30942,7.94793],[-81.31721,7.9414],[-81.32138,7.9429],[-81.32066,7.93528],[-81.32525,7.92022],[-81.36789,7.94158],[-81.36945,7.956],[-81.36375,7.96468],[-81.36515,7.96756],[-81.35954,7.97141],[-81.36419,7.97734],[-81.36062,7.97924],[-81.36235,7.98256],[-81.35488,7.99056],[-81.36557,8.00106],[-81.35282,8.00437],[-81.3501,8.01386],[-81.33309,8.02256],[-81.33331,8.02552],[-81.32906,8.02278],[-81.31742,8.02232]]]}},{"type":"Feature","properties":{"corregimiento":"Bahía Honda","distrito":"Soná","provincia":"Veraguas","bbox":[-81.63967,7.67326,-81.40229,7.84498]},"geometry":{"type":"MultiPolygon","coordinates":[[[[-81.51866,7.84498],[-81.52087,7.83452],[-81.51404,7.829],[-81.51331,7.82401],[-81.50052,7.81983],[-81.4961,7.81409],[-81.48362,7.81524],[-81.47678,7.8069],[-81.46199,7.80317],[-81.45893,7.79591],[-81.45934,7.78504],[-81.45533,7.78139],[-81.45272,7.77022],[-81.4363,7.76737],[-81.43058,7.74596],[-81.41683,7.73795],[-81.422,7.73075],[-81.42024,7.72299],[-81.43024,7.7169],[-81.42398,7.70912],[-81.42136,7.69904],[-81.40826,7.68638],[-81.40229,7.67326],[-81.40801,7.67471],[-81.41013,7.67906],[-81.41526,7.67684],[-81.41617,7.68342],[-81.42439,7.6785],[-81.43879,7.68035],[-81.43594,7.68751],[-81.43808,7.68978],[-81.43299,7.68976],[-81.43263,7.69405],[-81.43621,7.69842],[-81.44037,7.69821],[-81.44078,7.70318],[-81.44682,7.69982],[-81.45144,7.70882],[-81.45519,7.70834],[-81.45536,7.7051],[-81.46451,7.70927],[-81.46386,7.70472],[-81.46769,7.70565],[-81.46798,7.70274],[-81.47119,7.70418],[-81.46936,7.70613],[-81.47565,7.70585],[-81.47789,7.70849],[-81.48016,7.70129],[-81.48154,7.70468],[-81.48704,7.70422],[-81.48317,7.7078],[-81.4845,7.71039],[-81.49116,7.7121],[-81.49246,7.70665],[-81.49577,7.705],[-81.49757,7.70881],[-81.5025,7.70463],[-81.50769,7.70507],[-81.50731,7.71068],[-81.51549,7.70795],[-81.51863,7.71274],[-81.53233,7.71531],[-81.53913,7.71966],[-81.53024,7.72525],[-81.53061,7.72884],[-81.52646,7.72734],[-81.5175,7.73316],[-81.50127,7.73282],[-81.49589,7.73561],[-81.49703,7.74177],[-81.50346,7.74535],[-81.49637,7.74608],[-81.50064,7.74955],[-81.49673,7.74894],[-81.49533,7.75395],[-81.49151,7.75421],[-81.49251,7.76067],[-81.49976,7.75849],[-81.50894,7.76842],[-81.51505,7.76399],[-81.51923,7.76748],[-81.51771,7.76324],[-81.52125,7.76086],[-81.5269,7.76247],[-81.52574,7.76461],[-81.52826,7.7661],[-81.53432,7.7642],[-81.5427,7.76744],[-81.55042,7.76192],[-81.54555,7.76085],[-81.55045,7.75582],[-81.54905,7.75152],[-81.54187,7.75064],[-81.54483,7.74389],[-81.54038,7.74151],[-81.54334,7.73958],[-81.55292,7.74777],[-81.55042,7.75076],[-81.55678,7.75451],[-81.5601,7.75311],[-81.5597,7.75037],[-81.56273,7.75217],[-81.56784,7.75822],[-81.566,7.76057],[-81.57124,7.76143],[-81.57367,7.76612],[-81.58142,7.76423],[-81.57995,7.76651],[-81.5844,7.76946],[-81.57149,7.77296],[-81.57145,7.77826],[-81.57439,7.77936],[-81.5707,7.784],[-81.57365,7.78828],[-81.58253,7.78318],[-81.58255,7.78628],[-81.57723,7.78904],[-81.57793,7.79497],[-81.58922,7.79652],[-81.59279,7.80175],[-81.59207,7.81054],[-81.58737,7.812],[-81.5884,7.81674],[-81.58432,7.82184],[-81.58715,7.82673],[-81.57671,7.83037],[-81.57408,7.84215],[-81.56669,7.84399],[-81.55638,7.84136],[-81.5456,7.84399],[-81.53323,7.83793],[-81.52111,7.84179],[-81.51866,7.84498]]],[[[-81.61605,7.6994],[-81.61299,7.6932],[-81.61291,7.68728],[-81.61722,7.68596],[-81.62555,7.68915],[-81.62974,7.68432],[-81.63209,7.69181],[-81.63967,7.69269],[-81.61605,7.6994]]]]}},{"type":"Feature","properties":{"corregimiento":"Calidonia","distrito":"Soná","provincia":"Veraguas","bbox":[-81.52087,7.80672,-81.35488,8.01178]},"geometry":{"type":"Polygon","coordinates":[[[-81.3747,8.0114],[-81.35488,7.99056],[-81.36231,7.98266],[-81.36135,7.9781],[-81.3642,7.97745],[-81.35952,7.97152],[-81.36519,7.9675],[-81.36375,7.96468],[-81.36945,7.956],[-81.36789,7.94158],[-81.38698,7.93416],[-81.38771,7.92915],[-81.39634,7.91786],[-81.4015,7.91587],[-81.40263,7.90999],[-81.41798,7.90954],[-81.41997,7.86584],[-81.43451,7.86196],[-81.43004,7.84363],[-81.47232,7.8381],[-81.46791,7.8255],[-81.47113,7.80672],[-81.47678,7.8069],[-81.48362,7.81524],[-81.4961,7.81409],[-81.50052,7.81983],[-81.51331,7.82401],[-81.51404,7.829],[-81.52087,7.83452],[-81.51866,7.84498],[-81.49194,7.87256],[-81.49089,7.89557],[-81.46482,7.92032],[-81.45184,7.96335],[-81.44564,7.96207],[-81.43317,7.96547],[-81.41762,7.99843],[-81.40597,7.9973],[-81.3986,7.99033],[-81.39317,7.99303],[-81.3913,8.00846],[-81.38129,8.01178],[-81.3747,8.0114]]]}},{"type":"Feature","properties":{"corregimiento":"Cativé","distrito":"Soná","provincia":"Veraguas","bbox":[-81.47232,7.75567,-81.32525,7.94158]},"geometry":{"type":"Polygon","coordinates":[[[-81.32525,7.92022],[-81.332,7.90726],[-81.33826,7.91552],[-81.35148,7.9125],[-81.3555,7.89372],[-81.34757,7.87683],[-81.36316,7.86459],[-81.36791,7.84922],[-81.36637,7.8432],[-81.35309,7.83153],[-81.3555,7.82201],[-81.36078,7.81706],[-81.35948,7.81508],[-81.36806,7.81789],[-81.37053,7.81607],[-81.36873,7.82173],[-81.37241,7.82588],[-81.38435,7.82733],[-81.38863,7.83138],[-81.39784,7.83152],[-81.39664,7.80895],[-81.39368,7.80097],[-81.3982,7.79949],[-81.39734,7.79504],[-81.4024,7.79485],[-81.40361,7.79107],[-81.41778,7.78587],[-81.43311,7.75567],[-81.4363,7.76737],[-81.44236,7.77013],[-81.44467,7.76751],[-81.45208,7.76948],[-81.45533,7.78139],[-81.45934,7.78504],[-81.46026,7.80134],[-81.47102,7.80613],[-81.46791,7.8255],[-81.47232,7.8381],[-81.43004,7.84363],[-81.43451,7.86196],[-81.41997,7.86584],[-81.41798,7.90954],[-81.40263,7.90999],[-81.4015,7.91587],[-81.39634,7.91786],[-81.38771,7.92915],[-81.38698,7.93416],[-81.36789,7.94158],[-81.32525,7.92022]]]}},{"type":"Feature","properties":{"corregimiento":"El Marañón","distrito":"Soná","provincia":"Veraguas","bbox":[-81.30741,7.9212,-81.20268,8.12107]},"geometry":{"type":"Polygon","coordinates":[[[-81.20268,8.04104],[-81.2054,8.03724],[-81.21692,8.03392],[-81.21884,8.03115],[-81.21626,8.0271],[-81.22388,8.01668],[-81.22067,8.01296],[-81.22343,8.00933],[-81.21864,8.00819],[-81.20994,7.99941],[-81.22976,7.99113],[-81.24646,7.9892],[-81.24664,7.97258],[-81.24407,7.97392],[-81.23982,7.97126],[-81.23576,7.96497],[-81.23863,7.95866],[-81.23474,7.95304],[-81.23706,7.95021],[-81.23445,7.94921],[-81.23448,7.94497],[-81.23959,7.93697],[-81.23455,7.93205],[-81.24757,7.93238],[-81.25961,7.9212],[-81.26478,7.93355],[-81.26043,7.94056],[-81.28275,7.94767],[-81.28061,7.96179],[-81.28849,7.97411],[-81.28924,7.98689],[-81.29566,7.99118],[-81.29059,7.99706],[-81.30244,8.00052],[-81.30741,8.00578],[-81.30518,8.01596],[-81.29011,8.02386],[-81.29463,8.02746],[-81.28817,8.02769],[-81.28783,8.03623],[-81.28009,8.03989],[-81.27982,8.04605],[-81.27637,8.04769],[-81.27759,8.0523],[-81.27395,8.0582],[-81.27023,8.05858],[-81.26734,8.07727],[-81.25794,8.08059],[-81.26354,8.09042],[-81.26045,8.09605],[-81.26578,8.10416],[-81.26169,8.10785],[-81.26409,8.11568],[-81.26128,8.12107],[-81.22778,8.07908],[-81.20268,8.04104]]]}},{"type":"Feature","properties":{"corregimiento":"Guarumal","distrito":"Soná","provincia":"Veraguas","bbox":[-81.29275,7.73828,-81.16238,7.8856]},"geometry":{"type":"MultiPolygon","coordinates":[[[[-81.17003,7.83882],[-81.16238,7.83484],[-81.16342,7.82774],[-81.17051,7.8202],[-81.17661,7.82094],[-81.17687,7.82425],[-81.17734,7.81957],[-81.17819,7.82525],[-81.17308,7.83086],[-81.17506,7.83097],[-81.17235,7.83311],[-81.17432,7.83297],[-81.17328,7.83712],[-81.17003,7.83882]]],[[[-81.22045,7.88032],[-81.21967,7.8724],[-81.21595,7.86905],[-81.20105,7.86453],[-81.20031,7.87358],[-81.19364,7.87832],[-81.18,7.86797],[-81.1788,7.86169],[-81.18566,7.86049],[-81.19179,7.85527],[-81.19021,7.84814],[-81.17837,7.84882],[-81.17724,7.84187],[-81.1804,7.83959],[-81.18457,7.8446],[-81.18132,7.83728],[-81.18452,7.83959],[-81.18747,7.83916],[-81.18196,7.83372],[-81.18496,7.8328],[-81.18408,7.83533],[-81.18723,7.8327],[-81.1885,7.83542],[-81.18986,7.82887],[-81.19088,7.8286],[-81.19118,7.82982],[-81.19193,7.8294],[-81.19211,7.83001],[-81.19306,7.82972],[-81.19402,7.83062],[-81.19503,7.83056],[-81.16987,7.80874],[-81.17021,7.7959],[-81.17362,7.7866],[-81.16841,7.77548],[-81.17202,7.76416],[-81.17924,7.75559],[-81.17666,7.74963],[-81.18478,7.75014],[-81.1957,7.7409],[-81.20589,7.73828],[-81.20788,7.73879],[-81.20523,7.74548],[-81.1946,7.75435],[-81.19361,7.75862],[-81.20486,7.76403],[-81.21242,7.76389],[-81.21456,7.76695],[-81.21253,7.76871],[-81.21876,7.77192],[-81.21932,7.77765],[-81.22589,7.77816],[-81.22745,7.78418],[-81.23209,7.7821],[-81.23684,7.78677],[-81.24539,7.78535],[-81.24856,7.78794],[-81.25872,7.7881],[-81.26434,7.79524],[-81.265,7.80078],[-81.26855,7.80228],[-81.27383,7.81646],[-81.28258,7.82182],[-81.28441,7.82671],[-81.29065,7.83028],[-81.29275,7.82833],[-81.29027,7.83972],[-81.29031,7.87645],[-81.28109,7.87535],[-81.28085,7.87822],[-81.27789,7.87468],[-81.26848,7.87301],[-81.26666,7.87616],[-81.26372,7.87422],[-81.25668,7.8778],[-81.25042,7.87202],[-81.24453,7.87122],[-81.23652,7.87958],[-81.23271,7.87778],[-81.22843,7.8856],[-81.22045,7.88032]]]]}},{"type":"Feature","properties":{"corregimiento":"La Soledad","distrito":"Soná","provincia":"Veraguas","bbox":[-81.36791,7.83859,-81.19664,7.95397]},"geometry":{"type":"Polygon","coordinates":[[[-81.2849,7.9472],[-81.26043,7.94056],[-81.26478,7.93355],[-81.2591,7.921],[-81.24757,7.93238],[-81.23602,7.93085],[-81.23081,7.91605],[-81.2209,7.90341],[-81.21444,7.89965],[-81.19849,7.8973],[-81.19664,7.89211],[-81.19859,7.88669],[-81.22033,7.87996],[-81.22843,7.8856],[-81.23271,7.87778],[-81.23652,7.87958],[-81.24453,7.87122],[-81.25042,7.87202],[-81.25668,7.8778],[-81.26372,7.87422],[-81.26666,7.87616],[-81.26848,7.87301],[-81.27789,7.87468],[-81.28085,7.87822],[-81.28109,7.87535],[-81.29155,7.87669],[-81.29505,7.87323],[-81.29527,7.86152],[-81.30764,7.84589],[-81.32562,7.84055],[-81.34212,7.84753],[-81.34562,7.84506],[-81.34686,7.83859],[-81.36055,7.83941],[-81.36637,7.8432],[-81.36791,7.84922],[-81.36316,7.86459],[-81.34757,7.87683],[-81.3555,7.89372],[-81.35148,7.9125],[-81.33826,7.91552],[-81.332,7.90726],[-81.32239,7.92947],[-81.32138,7.9429],[-81.31721,7.9414],[-81.30942,7.94793],[-81.29851,7.94866],[-81.2894,7.95397],[-81.2849,7.9472]]]}},{"type":"Feature","properties":{"corregimiento":"Río Grande","distrito":"Soná","provincia":"Veraguas","bbox":[-81.43028,7.65033,-81.26271,7.76949]},"geometry":{"type":"Polygon","coordinates":[[[-81.29422,7.76949],[-81.28891,7.76331],[-81.28851,7.75991],[-81.28004,7.75794],[-81.28541,7.75273],[-81.27667,7.74269],[-81.27839,7.74077],[-81.27396,7.73805],[-81.26686,7.73948],[-81.26271,7.73389],[-81.26445,7.72466],[-81.27261,7.72068],[-81.27461,7.70985],[-81.28415,7.71113],[-81.288,7.70781],[-81.28933,7.70437],[-81.28154,7.70293],[-81.28316,7.69636],[-81.28862,7.69116],[-81.28357,7.68619],[-81.28231,7.68192],[-81.28481,7.67844],[-81.28261,7.67584],[-81.28501,7.66898],[-81.29487,7.65345],[-81.29492,7.65803],[-81.3037,7.66161],[-81.30746,7.66157],[-81.31285,7.6562],[-81.30895,7.65261],[-81.31043,7.65033],[-81.31547,7.65132],[-81.32032,7.65662],[-81.33349,7.66024],[-81.33733,7.65811],[-81.34925,7.66462],[-81.35595,7.66514],[-81.36003,7.66968],[-81.36416,7.66717],[-81.3672,7.67049],[-81.37332,7.67082],[-81.37537,7.67001],[-81.3756,7.66793],[-81.37722,7.66667],[-81.3777,7.67205],[-81.39012,7.67925],[-81.38923,7.68263],[-81.39312,7.6817],[-81.3961,7.68447],[-81.39915,7.68144],[-81.39729,7.67596],[-81.40246,7.67316],[-81.40803,7.68605],[-81.42125,7.69888],[-81.42398,7.70912],[-81.43028,7.717],[-81.42024,7.72299],[-81.422,7.73075],[-81.41683,7.73795],[-81.42597,7.74188],[-81.40096,7.76088],[-81.38377,7.7544],[-81.36694,7.75315],[-81.36419,7.7475],[-81.35256,7.74424],[-81.33379,7.74947],[-81.3281,7.75781],[-81.31052,7.75835],[-81.30714,7.76561],[-81.30247,7.76241],[-81.29422,7.76949]]]}},{"type":"Feature","properties":{"corregimiento":"Hicaco","distrito":"Soná","provincia":"Veraguas","bbox":[-81.29519,7.60807,-81.19409,7.72982]},"geometry":{"type":"Polygon","coordinates":[[[-81.26162,7.72982],[-81.26374,7.72728],[-81.2617,7.7237],[-81.25872,7.72696],[-81.24589,7.71669],[-81.24005,7.7161],[-81.23398,7.70638],[-81.22008,7.71341],[-81.2129,7.70907],[-81.20266,7.71475],[-81.19543,7.71209],[-81.19409,7.69876],[-81.20963,7.6682],[-81.20319,7.66364],[-81.20274,7.6565],[-81.19747,7.65235],[-81.20341,7.638],[-81.20353,7.63098],[-81.20835,7.62349],[-81.22702,7.60807],[-81.23837,7.6159],[-81.23887,7.62195],[-81.24588,7.62843],[-81.25136,7.62533],[-81.25742,7.62668],[-81.26086,7.63468],[-81.27833,7.6336],[-81.28292,7.63766],[-81.28126,7.64303],[-81.28853,7.64661],[-81.28907,7.65228],[-81.29519,7.65257],[-81.28261,7.67584],[-81.28481,7.67844],[-81.28231,7.68192],[-81.28357,7.68619],[-81.28862,7.69116],[-81.28316,7.69636],[-81.28154,7.70293],[-81.28933,7.70437],[-81.288,7.70781],[-81.28415,7.71113],[-81.27466,7.70979],[-81.2725,7.72089],[-81.26462,7.72447],[-81.26409,7.72962],[-81.26162,7.72982]]]}},{"type":"Feature","properties":{"corregimiento":"La Trinchera","distrito":"Soná","provincia":"Veraguas","bbox":[-81.43311,7.70628,-81.19337,7.87647]},"geometry":{"type":"Polygon","coordinates":[[[-81.29072,7.87647],[-81.29027,7.83972],[-81.29275,7.82833],[-81.29065,7.83028],[-81.28441,7.82671],[-81.28258,7.82182],[-81.27383,7.81646],[-81.26855,7.80228],[-81.265,7.80078],[-81.26434,7.79524],[-81.25872,7.7881],[-81.24856,7.78794],[-81.24539,7.78535],[-81.23684,7.78677],[-81.23209,7.7821],[-81.22745,7.78418],[-81.22589,7.77816],[-81.21932,7.77765],[-81.21876,7.77192],[-81.21253,7.76871],[-81.21456,7.76695],[-81.21242,7.76389],[-81.20486,7.76403],[-81.19337,7.75828],[-81.21094,7.73713],[-81.20918,7.73378],[-81.21739,7.73157],[-81.21575,7.71927],[-81.22008,7.71341],[-81.2336,7.70628],[-81.24005,7.7161],[-81.24589,7.71669],[-81.25872,7.72696],[-81.2617,7.7237],[-81.26422,7.7372],[-81.27839,7.74077],[-81.27667,7.74269],[-81.28541,7.75273],[-81.28004,7.75794],[-81.28882,7.76014],[-81.29422,7.76949],[-81.30247,7.76241],[-81.30764,7.76538],[-81.31052,7.75835],[-81.32837,7.75772],[-81.33379,7.74947],[-81.35036,7.74458],[-81.36419,7.7475],[-81.36694,7.75315],[-81.38377,7.7544],[-81.40017,7.76092],[-81.42492,7.74192],[-81.43023,7.74557],[-81.43311,7.75567],[-81.41778,7.78587],[-81.40361,7.79107],[-81.40258,7.79476],[-81.39734,7.79504],[-81.39805,7.79968],[-81.3937,7.80087],[-81.39631,7.80651],[-81.39788,7.83149],[-81.38863,7.83138],[-81.38435,7.82733],[-81.37241,7.82588],[-81.36873,7.82173],[-81.37053,7.81607],[-81.36806,7.81789],[-81.35948,7.81508],[-81.36078,7.81706],[-81.3555,7.82201],[-81.35308,7.8315],[-81.36055,7.83941],[-81.34686,7.83859],[-81.34562,7.84506],[-81.34212,7.84753],[-81.32562,7.84055],[-81.30744,7.84598],[-81.29527,7.86152],[-81.29501,7.8734],[-81.29072,7.87647]]]}},{"type":"Feature","properties":{"corregimiento":"Quebrada de Oro","distrito":"Soná","provincia":"Veraguas","bbox":[-81.42288,7.99115,-81.31225,8.07364]},"geometry":{"type":"Polygon","coordinates":[[[-81.31742,8.02232],[-81.32906,8.02278],[-81.33331,8.02552],[-81.33309,8.02256],[-81.3501,8.01386],[-81.35282,8.00437],[-81.36557,8.00106],[-81.3747,8.0114],[-81.38903,8.00994],[-81.39344,8.0015],[-81.39317,7.99303],[-81.39616,7.99123],[-81.40177,7.99117],[-81.40673,7.9976],[-81.41762,7.99843],[-81.4212,7.99115],[-81.42288,8.0013],[-81.41927,8.00752],[-81.41362,8.00939],[-81.41145,8.01785],[-81.40425,8.01836],[-81.40519,8.02374],[-81.40702,8.02233],[-81.41255,8.02914],[-81.40909,8.04395],[-81.41089,8.04533],[-81.40585,8.04961],[-81.40604,8.05363],[-81.39893,8.05448],[-81.39682,8.06425],[-81.38283,8.06946],[-81.38174,8.07248],[-81.35686,8.07364],[-81.35341,8.07123],[-81.35325,8.06354],[-81.35871,8.06072],[-81.3582,8.05681],[-81.3469,8.05366],[-81.34091,8.05751],[-81.32768,8.05546],[-81.32335,8.04785],[-81.31546,8.04685],[-81.3191,8.04215],[-81.31253,8.03403],[-81.31225,8.02799],[-81.31742,8.02232]]]}},{"type":"Feature","properties":{"corregimiento":"Rodeo Viejo","distrito":"Soná","provincia":"Veraguas","bbox":[-81.38788,8.01546,-81.25787,8.14688]},"geometry":{"type":"Polygon","coordinates":[[[-81.27648,8.13655],[-81.26688,8.13063],[-81.26457,8.12342],[-81.26142,8.12212],[-81.26409,8.11568],[-81.26169,8.10785],[-81.26578,8.10416],[-81.26045,8.09605],[-81.26354,8.09042],[-81.25787,8.08083],[-81.26734,8.07727],[-81.27023,8.05858],[-81.27395,8.0582],[-81.27759,8.0523],[-81.27637,8.04769],[-81.27982,8.04605],[-81.28053,8.03919],[-81.28783,8.03623],[-81.28799,8.02787],[-81.29463,8.02746],[-81.2899,8.0245],[-81.29344,8.02144],[-81.30533,8.01546],[-81.31294,8.02055],[-81.31777,8.02054],[-81.31225,8.02799],[-81.31253,8.03403],[-81.3191,8.04215],[-81.31535,8.04673],[-81.32335,8.04785],[-81.32768,8.05546],[-81.34091,8.05751],[-81.3469,8.05366],[-81.3582,8.05681],[-81.35871,8.06072],[-81.35325,8.06354],[-81.35341,8.07123],[-81.35678,8.0736],[-81.38401,8.07325],[-81.38272,8.07757],[-81.38788,8.08402],[-81.38104,8.087],[-81.38024,8.09731],[-81.37404,8.10328],[-81.37557,8.1079],[-81.38344,8.11349],[-81.37606,8.12354],[-81.36885,8.12077],[-81.3697,8.1269],[-81.36223,8.1366],[-81.36524,8.13821],[-81.36319,8.14195],[-81.36541,8.14549],[-81.35288,8.14166],[-81.34186,8.14688],[-81.32922,8.143],[-81.32527,8.13792],[-81.3098,8.13106],[-81.27648,8.13655]]]}}]}