{"type":"FeatureCollection","features":[{"type":"Feature","properties":{"corregimiento":"Arenas","distrito":"Mariato","provincia":"Veraguas","bbox":[-80.92968,7.28429,-80.66413,7.4445]},"geometry":{"type":"Polygon","coordinates":[[[-80.71892,7.41488],[-80.71524,7.40754],[-80.70314,7.40361],[-80.697,7.39716],[-80.68567,7.39463],[-80.67834,7.38789],[-80.66925,7.37324],[-80.66914,7.35817],[-80.66413,7.35411],[-80.66956,7.35181],[-80.66671,7.34826],[-80.66957,7.3406],[-80.66729,7.33704],[-80.68011,7.32685],[-80.68314,7.32173],[-80.68097,7.3183],[-80.76071,7.28429],[-80.77177,7.3058],[-80.76655,7.31834],[-80.77175,7.3233],[-80.77623,7.33406],[-80.78321,7.33929],[-80.79449,7.35974],[-80.81167,7.36514],[-80.81913,7.36109],[-80.82593,7.36377],[-80.84112,7.35367],[-80.85749,7.35057],[-80.85933,7.35673],[-80.86508,7.3548],[-80.87094,7.35902],[-80.87025,7.36151],[-80.88314,7.36071],[-80.88952,7.3523],[-80.89417,7.35294],[-80.89449,7.34496],[-80.90185,7.37081],[-80.92047,7.39438],[-80.92736,7.40035],[-80.92968,7.39947],[-80.92335,7.40586],[-80.90808,7.40463],[-80.90331,7.40845],[-80.89501,7.40335],[-80.89015,7.40661],[-80.88309,7.40365],[-80.87319,7.41141],[-80.86282,7.40532],[-80.85536,7.40873],[-80.83948,7.40955],[-80.82987,7.40697],[-80.81964,7.41354],[-80.80483,7.40758],[-80.79687,7.41158],[-80.79614,7.41881],[-80.79184,7.42162],[-80.79482,7.42566],[-80.78259,7.42966],[-80.78441,7.43362],[-80.77683,7.4445],[-80.76587,7.44283],[-80.75685,7.43215],[-80.74432,7.425],[-80.73367,7.41402],[-80.71892,7.41488]]]}},{"type":"Feature","properties":{"corregimiento":"El Cacao","distrito":"Mariato","provincia":"Veraguas","bbox":[-80.94088,7.20346,-80.61188,7.36507]},"geometry":{"type":"Polygon","coordinates":[[[-80.81224,7.36507],[-80.79437,7.35964],[-80.78321,7.33929],[-80.77264,7.32951],[-80.77201,7.32372],[-80.76643,7.31746],[-80.77177,7.3058],[-80.76071,7.28429],[-80.68097,7.3183],[-80.67809,7.32695],[-80.67066,7.3301],[-80.65967,7.32448],[-80.65983,7.31703],[-80.65033,7.30486],[-80.63851,7.3017],[-80.6352,7.29777],[-80.61744,7.29718],[-80.61189,7.26105],[-80.61488,7.24894],[-80.61188,7.2435],[-80.61403,7.23071],[-80.62159,7.23315],[-80.62752,7.23053],[-80.63798,7.23223],[-80.65723,7.22326],[-80.66708,7.22326],[-80.68431,7.21236],[-80.69521,7.21525],[-80.70185,7.21321],[-80.70184,7.2101],[-80.7055,7.21169],[-80.71325,7.20723],[-80.74838,7.21548],[-80.75188,7.20997],[-80.75339,7.21353],[-80.77376,7.21751],[-80.77873,7.21699],[-80.7817,7.21262],[-80.78486,7.21385],[-80.78697,7.20816],[-80.7952,7.20841],[-80.80062,7.20346],[-80.80165,7.20816],[-80.80535,7.2067],[-80.80824,7.21038],[-80.82941,7.21539],[-80.83287,7.21164],[-80.8363,7.21252],[-80.83676,7.2091],[-80.84691,7.20963],[-80.84897,7.21693],[-80.85622,7.21472],[-80.85569,7.21027],[-80.85877,7.20742],[-80.86322,7.20693],[-80.86499,7.21186],[-80.86789,7.21213],[-80.87053,7.20465],[-80.87881,7.20409],[-80.88149,7.20867],[-80.88814,7.20389],[-80.88857,7.20907],[-80.89214,7.21173],[-80.88635,7.22159],[-80.89431,7.22744],[-80.89582,7.23223],[-80.89909,7.23254],[-80.89669,7.23447],[-80.89803,7.23908],[-80.90699,7.2406],[-80.91489,7.24961],[-80.92407,7.24598],[-80.93,7.2506],[-80.93435,7.24869],[-80.93371,7.25532],[-80.94088,7.25727],[-80.93114,7.26859],[-80.93203,7.27088],[-80.92374,7.27109],[-80.92041,7.27825],[-80.92559,7.28034],[-80.92234,7.28715],[-80.92672,7.29484],[-80.92367,7.30698],[-80.92033,7.30759],[-80.92177,7.31219],[-80.91724,7.31545],[-80.91795,7.3208],[-80.90964,7.31855],[-80.90152,7.32785],[-80.89163,7.32905],[-80.89457,7.35209],[-80.88952,7.3523],[-80.8834,7.36065],[-80.87025,7.36151],[-80.87094,7.35902],[-80.86508,7.3548],[-80.85933,7.35673],[-80.85737,7.35057],[-80.84112,7.35367],[-80.82593,7.36377],[-80.81921,7.36108],[-80.81224,7.36507]]]}},{"type":"Feature","properties":{"corregimiento":"Llano de Catival o Mariato (Cabecera)","distrito":"Mariato","provincia":"Veraguas","bbox":[-81.05194,7.49132,-80.80788,7.70102]},"geometry":{"type":"Polygon","coordinates":[[[-80.89132,7.70056],[-80.80788,7.57958],[-80.82827,7.57919],[-80.83813,7.56636],[-80.84492,7.56578],[-80.84357,7.5629],[-80.84971,7.56021],[-80.85536,7.55332],[-80.85065,7.54789],[-80.85361,7.54523],[-80.85373,7.5396],[-80.8674,7.53366],[-80.8691,7.52227],[-80.86661,7.51437],[-80.86906,7.50761],[-80.86669,7.50107],[-80.86873,7.49503],[-80.87899,7.49477],[-80.88221,7.49132],[-80.90175,7.51025],[-80.91738,7.51034],[-80.91955,7.52505],[-80.9348,7.52775],[-80.9572,7.51924],[-80.95909,7.5345],[-80.94999,7.54364],[-80.94927,7.55361],[-80.96678,7.57742],[-80.979,7.58624],[-80.97992,7.58927],[-80.9739,7.60071],[-80.97619,7.60816],[-80.98439,7.618],[-81.00452,7.62467],[-81.00598,7.63712],[-81.03668,7.65076],[-81.04956,7.66313],[-81.05194,7.67283],[-81.05076,7.68123],[-81.03967,7.67812],[-81.04205,7.68191],[-81.03972,7.68935],[-81.02245,7.69735],[-81.01113,7.69741],[-81.00666,7.69438],[-81.0018,7.69629],[-80.99961,7.69058],[-80.98663,7.69221],[-80.98699,7.68863],[-80.98035,7.68436],[-80.9736,7.68477],[-80.9728,7.68905],[-80.96994,7.68558],[-80.96853,7.68813],[-80.96402,7.68617],[-80.9553,7.69409],[-80.95586,7.6967],[-80.94325,7.69015],[-80.93908,7.69617],[-80.93093,7.69442],[-80.92867,7.69089],[-80.92149,7.69277],[-80.91647,7.69813],[-80.90928,7.69566],[-80.90022,7.70102],[-80.89716,7.69876],[-80.89132,7.70056]]]}},{"type":"Feature","properties":{"corregimiento":"Quebro","distrito":"Mariato","provincia":"Veraguas","bbox":[-80.97623,7.39949,-80.70157,7.5799]},"geometry":{"type":"Polygon","coordinates":[[[-80.80998,7.5799],[-80.80235,7.57644],[-80.80067,7.5725],[-80.79326,7.57438],[-80.78718,7.57072],[-80.78003,7.57405],[-80.77628,7.5699],[-80.76892,7.56862],[-80.75614,7.57128],[-80.74206,7.5573],[-80.74124,7.54577],[-80.73252,7.54037],[-80.71923,7.54016],[-80.72753,7.53545],[-80.72855,7.53084],[-80.73594,7.52464],[-80.72908,7.52015],[-80.73006,7.51133],[-80.72271,7.50685],[-80.71558,7.49301],[-80.73142,7.46902],[-80.7208,7.45717],[-80.71483,7.4564],[-80.71492,7.44953],[-80.70916,7.44126],[-80.7091,7.43678],[-80.70157,7.42852],[-80.71292,7.42234],[-80.71936,7.41463],[-80.73338,7.41388],[-80.74432,7.425],[-80.75685,7.43215],[-80.76587,7.44283],[-80.77683,7.4445],[-80.78441,7.43362],[-80.78259,7.42966],[-80.79482,7.42566],[-80.79184,7.42162],[-80.79614,7.41881],[-80.79687,7.41158],[-80.80483,7.40758],[-80.81964,7.41354],[-80.82987,7.40697],[-80.83948,7.40955],[-80.85536,7.40873],[-80.86282,7.40532],[-80.87319,7.41141],[-80.88309,7.40365],[-80.89015,7.40661],[-80.89501,7.40335],[-80.90331,7.40845],[-80.90808,7.40463],[-80.92335,7.40586],[-80.92971,7.39949],[-80.92677,7.40623],[-80.93341,7.41499],[-80.93194,7.42303],[-80.92482,7.42739],[-80.92596,7.43143],[-80.92244,7.43203],[-80.9228,7.43528],[-80.91685,7.43429],[-80.91747,7.44258],[-80.92659,7.45867],[-80.94124,7.47116],[-80.94288,7.47581],[-80.93986,7.47707],[-80.94715,7.48677],[-80.96299,7.495],[-80.96653,7.49385],[-80.96984,7.49916],[-80.97623,7.50064],[-80.97259,7.5009],[-80.96779,7.51497],[-80.96016,7.51424],[-80.9542,7.52184],[-80.94652,7.52153],[-80.93509,7.52768],[-80.92536,7.52693],[-80.91822,7.52421],[-80.91982,7.51721],[-80.91726,7.51025],[-80.90175,7.51025],[-80.88221,7.49132],[-80.87899,7.49477],[-80.87146,7.49334],[-80.86669,7.50107],[-80.86906,7.50761],[-80.86661,7.51437],[-80.8691,7.52227],[-80.8674,7.53366],[-80.85334,7.5402],[-80.85361,7.54523],[-80.85065,7.54789],[-80.85536,7.55332],[-80.84357,7.5629],[-80.84495,7.56575],[-80.83813,7.56636],[-80.82827,7.57919],[-80.80998,7.5799]]]}},{"type":"Feature","properties":{"corregimiento":"Tebario","distrito":"Mariato","provincia":"Veraguas","bbox":[-81.05031,7.68436,-80.89231,7.7546]},"geometry":{"type":"Polygon","coordinates":[[[-80.95108,7.7546],[-80.95132,7.75017],[-80.93494,7.74388],[-80.93339,7.73961],[-80.92284,7.73829],[-80.91636,7.73412],[-80.91291,7.73773],[-80.89231,7.70162],[-80.89716,7.69876],[-80.90022,7.70102],[-80.90928,7.69566],[-80.91647,7.69813],[-80.92149,7.69277],[-80.92867,7.69089],[-80.93093,7.69442],[-80.93908,7.69617],[-80.94325,7.69015],[-80.95586,7.6967],[-80.9553,7.69409],[-80.96402,7.68617],[-80.96853,7.68813],[-80.96994,7.68558],[-80.9728,7.68905],[-80.9736,7.68477],[-80.9804,7.68436],[-80.98699,7.68863],[-80.98663,7.69221],[-80.9997,7.69062],[-81.0018,7.69629],[-81.00666,7.69438],[-81.01113,7.69741],[-81.02165,7.69745],[-81.03302,7.69343],[-81.03213,7.69611],[-81.04166,7.7032],[-81.04216,7.70812],[-81.05031,7.71973],[-81.04812,7.73047],[-81.04069,7.73004],[-81.03821,7.73309],[-81.04377,7.73781],[-81.0346,7.75217],[-81.02836,7.74253],[-81.01508,7.74358],[-81.01949,7.73605],[-81.01466,7.729],[-81.00381,7.7316],[-80.99828,7.72755],[-80.99351,7.73195],[-80.99138,7.73009],[-80.98286,7.73326],[-80.98704,7.73851],[-80.98535,7.74235],[-80.98067,7.74347],[-80.97339,7.73777],[-80.96252,7.74848],[-80.96452,7.75106],[-80.9623,7.75357],[-80.95742,7.75096],[-80.95108,7.7546]]]}}]}