{"type":"FeatureCollection","features":[{"type":"Feature","properties":{"corregimiento":"Cirilo Guaynora (Cabecera)","distrito":"Cémaco","provincia":"Comarca Emberá Wounaán","bbox":[-77.63214,8.05035,-77.24797,8.25009]},"geometry":{"type":"Polygon","coordinates":[[[-77.28057,8.21987],[-77.27993,8.21645],[-77.26836,8.21142],[-77.26182,8.21195],[-77.25906,8.20432],[-77.26037,8.19282],[-77.25131,8.18748],[-77.24797,8.17692],[-77.24857,8.16584],[-77.29582,8.16624],[-77.40878,8.12097],[-77.41918,8.12316],[-77.42493,8.12133],[-77.43895,8.11111],[-77.44769,8.11211],[-77.45437,8.10859],[-77.47152,8.10985],[-77.47074,8.10759],[-77.47364,8.10761],[-77.47057,8.10543],[-77.47678,8.10193],[-77.47522,8.09826],[-77.48004,8.09751],[-77.47857,8.08816],[-77.47545,8.08583],[-77.47922,8.07882],[-77.47497,8.0783],[-77.47772,8.07212],[-77.47425,8.07114],[-77.47505,8.06794],[-77.48024,8.06874],[-77.48697,8.0777],[-77.48986,8.07549],[-77.48673,8.07045],[-77.48921,8.06864],[-77.49497,8.07694],[-77.5041,8.07288],[-77.50486,8.07674],[-77.5048,8.06897],[-77.51127,8.06526],[-77.51747,8.06951],[-77.51782,8.0746],[-77.51399,8.07609],[-77.51753,8.08005],[-77.52477,8.07886],[-77.52573,8.07511],[-77.53191,8.07141],[-77.53416,8.07435],[-77.5314,8.07519],[-77.53505,8.07767],[-77.53655,8.06714],[-77.54089,8.06667],[-77.54203,8.07349],[-77.54976,8.07049],[-77.54742,8.06653],[-77.54987,8.05989],[-77.55484,8.06014],[-77.55332,8.0557],[-77.55819,8.05528],[-77.55786,8.06264],[-77.56409,8.05979],[-77.5651,8.05297],[-77.56872,8.05035],[-77.57348,8.05316],[-77.57192,8.05461],[-77.57517,8.05427],[-77.57465,8.05998],[-77.58366,8.06667],[-77.58508,8.07091],[-77.5933,8.07501],[-77.592,8.07822],[-77.58785,8.07436],[-77.5853,8.07537],[-77.58638,8.08351],[-77.59599,8.08639],[-77.59587,8.09339],[-77.6001,8.09899],[-77.60986,8.10133],[-77.61895,8.09522],[-77.61735,8.10509],[-77.62575,8.1052],[-77.62748,8.1128],[-77.63214,8.11285],[-77.62657,8.11846],[-77.61606,8.12117],[-77.61765,8.12628],[-77.62477,8.12361],[-77.62058,8.13402],[-77.62353,8.13895],[-77.55623,8.22197],[-77.55327,8.22088],[-77.55059,8.22522],[-77.54823,8.22355],[-77.54983,8.21873],[-77.54368,8.2147],[-77.53096,8.21726],[-77.51594,8.22868],[-77.50838,8.22248],[-77.50567,8.22313],[-77.50793,8.22549],[-77.50139,8.22385],[-77.50076,8.21788],[-77.504,8.21962],[-77.50392,8.21774],[-77.498,8.21272],[-77.49587,8.21551],[-77.49372,8.21232],[-77.49064,8.21354],[-77.48595,8.20801],[-77.48752,8.2048],[-77.47985,8.20058],[-77.47981,8.19554],[-77.47378,8.1948],[-77.47271,8.19198],[-77.4671,8.19271],[-77.46123,8.19795],[-77.45908,8.20424],[-77.44807,8.20009],[-77.44763,8.19437],[-77.44203,8.19122],[-77.44037,8.19789],[-77.43199,8.19363],[-77.42342,8.19797],[-77.41418,8.19613],[-77.40967,8.19861],[-77.40794,8.19614],[-77.40643,8.20449],[-77.40082,8.20506],[-77.39869,8.20903],[-77.39268,8.21139],[-77.37777,8.21229],[-77.37081,8.20812],[-77.36384,8.21681],[-77.35083,8.22223],[-77.34818,8.22778],[-77.3451,8.22679],[-77.34456,8.22928],[-77.33534,8.23182],[-77.31135,8.24971],[-77.30154,8.25009],[-77.30005,8.23988],[-77.29464,8.2368],[-77.29507,8.23112],[-77.28527,8.22124],[-77.28057,8.21987]]]}},{"type":"Feature","properties":{"corregimiento":"Lajas Blancas","distrito":"Cémaco","provincia":"Comarca Emberá Wounaán","bbox":[-77.92966,8.24001,-77.43736,8.79224]},"geometry":{"type":"Polygon","coordinates":[[[-77.72285,8.78099],[-77.69913,8.78075],[-77.70122,8.77644],[-77.69603,8.76604],[-77.68388,8.76262],[-77.67895,8.76838],[-77.66259,8.75883],[-77.65431,8.74495],[-77.64414,8.7469],[-77.63985,8.74481],[-77.6355,8.73921],[-77.63647,8.72324],[-77.62769,8.7139],[-77.61978,8.69471],[-77.6016,8.69376],[-77.58751,8.6819],[-77.57822,8.67933],[-77.57169,8.66595],[-77.5778,8.65953],[-77.5768,8.64956],[-77.58388,8.63325],[-77.58261,8.62873],[-77.57247,8.61995],[-77.57072,8.60532],[-77.5674,8.60162],[-77.55332,8.59514],[-77.5476,8.58723],[-77.5383,8.59335],[-77.53093,8.5923],[-77.51771,8.6064],[-77.50933,8.60345],[-77.50497,8.60593],[-77.50219,8.61482],[-77.49675,8.6169],[-77.4895,8.60774],[-77.4952,8.59529],[-77.48529,8.58584],[-77.48632,8.57938],[-77.48169,8.5753],[-77.46999,8.57803],[-77.46338,8.5713],[-77.45416,8.57018],[-77.44719,8.55902],[-77.44036,8.55585],[-77.43736,8.54049],[-77.44513,8.51404],[-77.45627,8.50911],[-77.44796,8.49426],[-77.44606,8.47999],[-77.44937,8.47167],[-77.45522,8.49168],[-77.4765,8.49248],[-77.48305,8.50031],[-77.49472,8.50043],[-77.49777,8.49802],[-77.50238,8.50114],[-77.51453,8.50075],[-77.53661,8.49201],[-77.53949,8.48752],[-77.54796,8.48571],[-77.55341,8.48756],[-77.5561,8.48495],[-77.55572,8.48848],[-77.55926,8.49124],[-77.56061,8.4546],[-77.70843,8.24204],[-77.72112,8.24001],[-77.73295,8.24277],[-77.73398,8.25337],[-77.7325,8.25488],[-77.72597,8.25148],[-77.71902,8.25399],[-77.72297,8.26012],[-77.72761,8.25731],[-77.72893,8.26558],[-77.72129,8.2814],[-77.74271,8.28145],[-77.74987,8.28853],[-77.74955,8.29859],[-77.75723,8.297],[-77.75488,8.30584],[-77.76215,8.31206],[-77.76303,8.30561],[-77.76791,8.30916],[-77.76858,8.31326],[-77.76523,8.31696],[-77.75629,8.31272],[-77.75576,8.32235],[-77.76116,8.32059],[-77.77389,8.32631],[-77.77159,8.33218],[-77.77359,8.33977],[-77.7701,8.34361],[-77.77133,8.34875],[-77.77827,8.34607],[-77.78105,8.34747],[-77.77952,8.3517],[-77.78282,8.35215],[-77.78612,8.34684],[-77.78557,8.35328],[-77.79065,8.36054],[-77.7867,8.36266],[-77.78375,8.3603],[-77.78189,8.36299],[-77.78603,8.36595],[-77.78318,8.36942],[-77.79452,8.38034],[-77.79006,8.38354],[-77.79012,8.38758],[-77.79442,8.39023],[-77.7993,8.38814],[-77.80517,8.4072],[-77.8073,8.4057],[-77.80656,8.39489],[-77.81349,8.3937],[-77.81954,8.39783],[-77.81791,8.40082],[-77.81065,8.40222],[-77.81103,8.40804],[-77.81362,8.4097],[-77.82158,8.40554],[-77.82282,8.41416],[-77.80774,8.41685],[-77.80588,8.42427],[-77.81389,8.42961],[-77.81236,8.437],[-77.8173,8.44619],[-77.82512,8.44571],[-77.82382,8.44935],[-77.81798,8.44747],[-77.81503,8.44962],[-77.81516,8.4561],[-77.82862,8.46172],[-77.83718,8.45423],[-77.84034,8.46621],[-77.84304,8.46399],[-77.84986,8.46803],[-77.85791,8.46519],[-77.85314,8.47047],[-77.86537,8.47704],[-77.85909,8.47849],[-77.85714,8.48886],[-77.85919,8.49461],[-77.86416,8.49595],[-77.86772,8.4944],[-77.86686,8.49068],[-77.87071,8.49343],[-77.88071,8.48888],[-77.87811,8.49555],[-77.88163,8.49627],[-77.88285,8.49364],[-77.88885,8.49801],[-77.88808,8.50181],[-77.88291,8.50239],[-77.88534,8.51064],[-77.8915,8.5078],[-77.89014,8.51515],[-77.89306,8.51638],[-77.89812,8.51121],[-77.89645,8.51489],[-77.90439,8.51839],[-77.90167,8.52464],[-77.89921,8.51961],[-77.89047,8.51843],[-77.89037,8.52191],[-77.896,8.52275],[-77.89728,8.52938],[-77.8912,8.52823],[-77.8914,8.53187],[-77.88723,8.5308],[-77.88365,8.53787],[-77.89127,8.53818],[-77.89446,8.54268],[-77.89021,8.55426],[-77.89329,8.55683],[-77.89232,8.56377],[-77.89528,8.5641],[-77.89472,8.55865],[-77.9036,8.55494],[-77.90984,8.55993],[-77.90952,8.56286],[-77.90572,8.56325],[-77.90728,8.57023],[-77.91678,8.57148],[-77.91264,8.57716],[-77.91673,8.57812],[-77.91509,8.58195],[-77.92051,8.5835],[-77.92149,8.58699],[-77.91554,8.5867],[-77.91651,8.59806],[-77.91822,8.60095],[-77.92305,8.59991],[-77.92323,8.60281],[-77.92548,8.60226],[-77.92653,8.60564],[-77.92395,8.60537],[-77.92283,8.61017],[-77.92596,8.6145],[-77.92966,8.61467],[-77.92346,8.62021],[-77.92693,8.62279],[-77.92724,8.63203],[-77.92034,8.63936],[-77.91952,8.64855],[-77.91022,8.65076],[-77.90769,8.64834],[-77.89854,8.65328],[-77.89837,8.65757],[-77.89349,8.66196],[-77.88609,8.66258],[-77.87899,8.69201],[-77.87408,8.6905],[-77.8696,8.69336],[-77.8701,8.69695],[-77.86484,8.69617],[-77.86238,8.70717],[-77.85343,8.71076],[-77.85076,8.71987],[-77.85219,8.72387],[-77.84837,8.7287],[-77.85001,8.73524],[-77.84519,8.74057],[-77.8351,8.74188],[-77.83249,8.74651],[-77.8318,8.74428],[-77.82022,8.74288],[-77.81992,8.74547],[-77.81834,8.7442],[-77.81141,8.74924],[-77.80122,8.75052],[-77.7947,8.75886],[-77.7914,8.76988],[-77.7878,8.76952],[-77.77394,8.78279],[-77.76573,8.77916],[-77.76342,8.78366],[-77.7502,8.7891],[-77.74505,8.78719],[-77.73804,8.79224],[-77.72701,8.78705],[-77.72285,8.78099]]]}},{"type":"Feature","properties":{"corregimiento":"Manuel Ortega","distrito":"Cémaco","provincia":"Comarca Emberá Wounaán","bbox":[-77.71179,8.13895,-77.28007,8.50114]},"geometry":{"type":"Polygon","coordinates":[[[-77.45111,8.47226],[-77.43784,8.47074],[-77.41795,8.47806],[-77.40387,8.47713],[-77.40356,8.46619],[-77.39787,8.46218],[-77.39538,8.4521],[-77.38587,8.43879],[-77.38619,8.43182],[-77.37006,8.40804],[-77.3591,8.40118],[-77.35506,8.38893],[-77.36171,8.3772],[-77.35773,8.36511],[-77.34991,8.36073],[-77.34592,8.35214],[-77.34953,8.34693],[-77.34937,8.335],[-77.35537,8.31715],[-77.35024,8.29739],[-77.3326,8.28154],[-77.33293,8.27337],[-77.3194,8.2741],[-77.31316,8.2705],[-77.3055,8.28661],[-77.29811,8.28518],[-77.29785,8.27756],[-77.30143,8.27196],[-77.2952,8.26627],[-77.29342,8.26038],[-77.28963,8.26007],[-77.28461,8.25399],[-77.2853,8.25055],[-77.28905,8.25001],[-77.29017,8.24421],[-77.28007,8.22751],[-77.28057,8.21987],[-77.28527,8.22124],[-77.29507,8.23112],[-77.29464,8.2368],[-77.30005,8.23988],[-77.30154,8.25009],[-77.31135,8.24971],[-77.33534,8.23182],[-77.34456,8.22928],[-77.3451,8.22679],[-77.34818,8.22778],[-77.35083,8.22223],[-77.36384,8.21681],[-77.37081,8.20812],[-77.37777,8.21229],[-77.39268,8.21139],[-77.39869,8.20903],[-77.40082,8.20506],[-77.40643,8.20449],[-77.40794,8.19614],[-77.40967,8.19861],[-77.41418,8.19613],[-77.42342,8.19797],[-77.43199,8.19363],[-77.44037,8.19789],[-77.44203,8.19122],[-77.44763,8.19437],[-77.44807,8.20009],[-77.45908,8.20424],[-77.46123,8.19795],[-77.4671,8.19271],[-77.47271,8.19198],[-77.47378,8.1948],[-77.47981,8.19554],[-77.47985,8.20058],[-77.48752,8.2048],[-77.48595,8.20801],[-77.49064,8.21354],[-77.49372,8.21232],[-77.49587,8.21551],[-77.498,8.21272],[-77.50392,8.21774],[-77.504,8.21962],[-77.50076,8.21788],[-77.50139,8.22385],[-77.50793,8.22549],[-77.50567,8.22313],[-77.50838,8.22248],[-77.51594,8.22868],[-77.53096,8.21726],[-77.54368,8.2147],[-77.54983,8.21873],[-77.54823,8.22355],[-77.55059,8.22522],[-77.55327,8.22088],[-77.55623,8.22197],[-77.62353,8.13895],[-77.63222,8.1835],[-77.66055,8.21735],[-77.71179,8.24093],[-77.70836,8.24212],[-77.56061,8.4546],[-77.55926,8.49124],[-77.55572,8.48848],[-77.5561,8.48495],[-77.55341,8.48756],[-77.54796,8.48571],[-77.53949,8.48752],[-77.53661,8.49201],[-77.51453,8.50075],[-77.50238,8.50114],[-77.49777,8.49802],[-77.49472,8.50043],[-77.48305,8.50031],[-77.4765,8.49248],[-77.45522,8.49168],[-77.45111,8.47226]]]}}]}