{"type":"FeatureCollection","features":[{"type":"Feature","properties":{"corregimiento":"Río Sábalo (Cabecera)","distrito":"Sambú","provincia":"Comarca Emberá Wounaán","bbox":[-78.35661,7.6905,-78.08694,8.11324]},"geometry":{"type":"Polygon","coordinates":[[[-78.15884,8.11324],[-78.15261,8.10801],[-78.15303,8.10261],[-78.14867,8.09449],[-78.1374,8.08673],[-78.1328,8.07761],[-78.13625,8.07349],[-78.14301,8.07412],[-78.16044,8.08265],[-78.16568,8.07664],[-78.1617,8.06175],[-78.15228,8.0535],[-78.1541,8.05052],[-78.15233,8.04131],[-78.14532,8.03725],[-78.14435,8.03248],[-78.14801,8.02443],[-78.14441,8.02065],[-78.14331,8.00936],[-78.11853,7.99928],[-78.10163,8.00819],[-78.09687,8.0062],[-78.09328,7.99583],[-78.08824,7.9926],[-78.08694,7.98332],[-78.09045,7.9741],[-78.09237,7.97572],[-78.11063,7.96199],[-78.11269,7.95377],[-78.11789,7.94983],[-78.12343,7.95052],[-78.12064,7.94389],[-78.12165,7.93793],[-78.13089,7.92862],[-78.12822,7.91945],[-78.1248,7.91979],[-78.12159,7.91541],[-78.12203,7.91132],[-78.1264,7.90448],[-78.12582,7.89993],[-78.13,7.89731],[-78.12701,7.89233],[-78.12982,7.88181],[-78.14122,7.87537],[-78.14225,7.86729],[-78.14818,7.86945],[-78.14558,7.86641],[-78.14714,7.8628],[-78.1418,7.85745],[-78.14248,7.85308],[-78.15616,7.85306],[-78.16993,7.84524],[-78.17325,7.83958],[-78.17776,7.84083],[-78.18091,7.83487],[-78.18473,7.8338],[-78.18788,7.83639],[-78.1906,7.82357],[-78.19382,7.82412],[-78.19495,7.81778],[-78.19737,7.8177],[-78.19556,7.8113],[-78.19868,7.80592],[-78.19271,7.80121],[-78.18921,7.78198],[-78.19241,7.77766],[-78.18999,7.77666],[-78.18897,7.7668],[-78.19475,7.75433],[-78.19305,7.74604],[-78.18674,7.73868],[-78.19155,7.73147],[-78.18934,7.72107],[-78.19385,7.70547],[-78.18507,7.69579],[-78.18466,7.6905],[-78.21306,7.69975],[-78.22129,7.71445],[-78.22003,7.72354],[-78.23614,7.73357],[-78.23768,7.74],[-78.24324,7.74349],[-78.25222,7.75693],[-78.25777,7.76831],[-78.25829,7.77799],[-78.26195,7.77885],[-78.27085,7.80168],[-78.27073,7.81173],[-78.28514,7.82524],[-78.2933,7.85971],[-78.30835,7.85583],[-78.31588,7.88457],[-78.32409,7.89621],[-78.32472,7.91624],[-78.31927,7.91826],[-78.31475,7.92577],[-78.31502,7.9326],[-78.32025,7.94141],[-78.33335,7.93785],[-78.35079,7.94027],[-78.35661,7.95768],[-78.34369,7.94868],[-78.33787,7.94935],[-78.33418,7.95465],[-78.3329,7.96567],[-78.32631,7.96731],[-78.31392,7.97926],[-78.26317,7.99416],[-78.2005,7.97707],[-78.19592,7.98825],[-78.20123,7.99965],[-78.19619,8.00694],[-78.20008,8.00834],[-78.20711,8.02086],[-78.20438,8.02285],[-78.20764,8.02594],[-78.2067,8.03093],[-78.20364,8.03194],[-78.20508,8.04103],[-78.20304,8.04345],[-78.20565,8.04377],[-78.20685,8.04045],[-78.20904,8.04328],[-78.212,8.04027],[-78.21267,8.04518],[-78.20968,8.04779],[-78.21714,8.05024],[-78.21991,8.04842],[-78.21799,8.05716],[-78.22315,8.04945],[-78.22651,8.05644],[-78.22406,8.05908],[-78.22755,8.06208],[-78.21895,8.06352],[-78.21926,8.06964],[-78.21305,8.0843],[-78.19514,8.08376],[-78.18811,8.08904],[-78.18425,8.09678],[-78.1694,8.10265],[-78.16403,8.11154],[-78.15884,8.11324]]]}},{"type":"Feature","properties":{"corregimiento":"Jingurudó","distrito":"Sambú","provincia":"Comarca Emberá Wounaán","bbox":[-78.19868,7.59146,-77.94414,8.0102]},"geometry":{"type":"Polygon","coordinates":[[[-78.05731,8.00972],[-78.05216,8.0063],[-78.05223,7.99627],[-78.04323,7.99484],[-78.03694,7.9876],[-78.04399,7.97251],[-78.05042,7.97129],[-78.0487,7.96348],[-78.03584,7.95994],[-78.02562,7.96403],[-78.02582,7.95781],[-78.02035,7.94601],[-78.02415,7.93949],[-78.0221,7.93218],[-78.01795,7.92592],[-78.00721,7.92535],[-78.00369,7.92047],[-78.00494,7.91055],[-78.01214,7.90062],[-78.00794,7.89618],[-78.00547,7.88287],[-77.99522,7.86909],[-77.99641,7.8643],[-77.99156,7.84827],[-77.99448,7.84238],[-77.98951,7.8385],[-77.98965,7.83366],[-77.98293,7.83121],[-77.9827,7.81754],[-77.97815,7.81239],[-77.97908,7.80147],[-77.98231,7.79624],[-77.97722,7.7904],[-77.97642,7.7823],[-77.96069,7.7879],[-77.95635,7.78685],[-77.95183,7.76482],[-77.94476,7.7553],[-77.94452,7.74314],[-77.95694,7.73162],[-77.95288,7.72864],[-77.94543,7.70846],[-77.95062,7.6861],[-77.94414,7.67888],[-77.9485,7.67028],[-77.94511,7.66017],[-77.94845,7.64984],[-77.94587,7.64057],[-77.94677,7.62808],[-78.01559,7.59692],[-78.0186,7.60296],[-78.02894,7.61078],[-78.04219,7.60364],[-78.0501,7.60364],[-78.05407,7.59755],[-78.0637,7.59427],[-78.06379,7.59301],[-78.06467,7.59146],[-78.06638,7.59688],[-78.06036,7.60155],[-78.06731,7.60883],[-78.06352,7.61158],[-78.07109,7.61839],[-78.06808,7.62092],[-78.07212,7.62748],[-78.07195,7.6391],[-78.06887,7.64186],[-78.07203,7.64432],[-78.07021,7.64587],[-78.07268,7.6521],[-78.07593,7.65326],[-78.07309,7.65865],[-78.07432,7.66278],[-78.07043,7.66765],[-78.0712,7.67417],[-78.08661,7.67818],[-78.09664,7.68724],[-78.11448,7.68705],[-78.119,7.69003],[-78.12922,7.68721],[-78.14233,7.69238],[-78.14726,7.69136],[-78.15036,7.69455],[-78.15448,7.69263],[-78.15273,7.68244],[-78.15707,7.67788],[-78.17214,7.67779],[-78.19304,7.70335],[-78.19344,7.71088],[-78.18934,7.72107],[-78.19155,7.73147],[-78.18674,7.73878],[-78.19305,7.74604],[-78.19476,7.75443],[-78.18891,7.76715],[-78.18999,7.77666],[-78.19241,7.77766],[-78.18922,7.78178],[-78.19012,7.79303],[-78.19273,7.80125],[-78.19868,7.80602],[-78.19556,7.8113],[-78.19735,7.81775],[-78.19495,7.81778],[-78.19382,7.82412],[-78.1906,7.82357],[-78.18793,7.83636],[-78.18473,7.8338],[-78.18091,7.83487],[-78.17776,7.84083],[-78.17325,7.83958],[-78.16993,7.84524],[-78.15616,7.85306],[-78.14207,7.85384],[-78.14819,7.86941],[-78.14225,7.86729],[-78.14122,7.87537],[-78.12981,7.88185],[-78.12701,7.89233],[-78.13,7.89731],[-78.1258,7.89997],[-78.12644,7.90435],[-78.12148,7.91496],[-78.12475,7.91976],[-78.12822,7.91945],[-78.13089,7.92862],[-78.12165,7.93793],[-78.12064,7.94389],[-78.12343,7.95052],[-78.11789,7.94983],[-78.11269,7.95377],[-78.11063,7.96199],[-78.09237,7.97572],[-78.09045,7.9741],[-78.08746,7.98065],[-78.08848,7.9931],[-78.09323,7.99575],[-78.09653,8.00592],[-78.10148,8.00883],[-78.0934,8.0102],[-78.09141,8.00338],[-78.07976,8.00081],[-78.07605,7.99399],[-78.06634,7.99937],[-78.06551,8.00578],[-78.05731,8.00972]]]}}]}