{"type":"FeatureCollection","features":[{"type":"Feature","properties":{"corregimiento":"Camarón Arriba","distrito":"Besiko","provincia":"Comarca Ngäbe Buglé","bbox":[-82.03825,8.34046,-81.95007,8.44102]},"geometry":{"type":"Polygon","coordinates":[[[-81.96419,8.40299],[-81.96722,8.39582],[-81.97455,8.39012],[-81.9778,8.37861],[-81.98651,8.36685],[-81.98475,8.35958],[-81.9893,8.35333],[-82.00249,8.35571],[-82.00843,8.35169],[-82.00592,8.34934],[-82.00719,8.34046],[-82.01555,8.34282],[-82.01423,8.34605],[-82.0179,8.34549],[-82.0218,8.35394],[-82.02784,8.35904],[-82.02006,8.36578],[-82.03201,8.36925],[-82.02302,8.37508],[-82.02256,8.37885],[-82.01396,8.38469],[-82.01075,8.39162],[-82.03341,8.38354],[-82.03785,8.39099],[-82.03579,8.39323],[-82.03825,8.39769],[-82.03399,8.39713],[-82.02669,8.40118],[-82.02604,8.40582],[-82.02185,8.4063],[-82.02655,8.41092],[-82.02106,8.41561],[-82.02357,8.41782],[-82.02263,8.42124],[-82.01204,8.41924],[-82.0087,8.42367],[-81.99274,8.42029],[-81.99162,8.42324],[-81.9861,8.4238],[-81.98565,8.42909],[-81.97402,8.43521],[-81.97261,8.43863],[-81.96119,8.43735],[-81.95508,8.44102],[-81.95007,8.43028],[-81.95066,8.42581],[-81.96433,8.41715],[-81.96419,8.40299]]]}},{"type":"Feature","properties":{"corregimiento":"Nämnoni","distrito":"Besiko","provincia":"Comarca Ngäbe Buglé","bbox":[-82.00838,8.33078,-81.93166,8.41144]},"geometry":{"type":"Polygon","coordinates":[[[-81.93781,8.39779],[-81.93166,8.38986],[-81.93513,8.3884],[-81.93476,8.38512],[-81.93855,8.38578],[-81.94083,8.38018],[-81.94652,8.38035],[-81.94693,8.37686],[-81.95162,8.37378],[-81.9533,8.36859],[-81.95137,8.36568],[-81.95495,8.35989],[-81.96679,8.35356],[-81.97384,8.33763],[-81.98337,8.33516],[-81.98832,8.33784],[-81.99017,8.33663],[-81.98739,8.33456],[-81.99022,8.33401],[-81.99378,8.33669],[-81.99567,8.33144],[-82.00023,8.33386],[-82.00464,8.33078],[-82.00791,8.34219],[-82.00592,8.34934],[-82.00838,8.35181],[-81.99987,8.35649],[-81.9893,8.35333],[-81.98475,8.35958],[-81.98642,8.36702],[-81.9778,8.37861],[-81.97455,8.39012],[-81.96722,8.39582],[-81.96393,8.40342],[-81.95336,8.40557],[-81.94962,8.41144],[-81.94703,8.40365],[-81.93781,8.39779]]]}},{"type":"Feature","properties":{"corregimiento":"Soloy","distrito":"Besiko","provincia":"Comarca Ngäbe Buglé","bbox":[-82.13042,8.45287,-82.04791,8.64601]},"geometry":{"type":"Polygon","coordinates":[[[-82.04791,8.50527],[-82.05308,8.50301],[-82.05666,8.5066],[-82.06381,8.49706],[-82.07001,8.49651],[-82.06842,8.49151],[-82.07644,8.48754],[-82.08194,8.47785],[-82.09102,8.47342],[-82.08324,8.47044],[-82.0871,8.47001],[-82.07919,8.46409],[-82.07569,8.46602],[-82.0772,8.4602],[-82.08447,8.45463],[-82.08633,8.45579],[-82.08317,8.46291],[-82.08478,8.46753],[-82.08787,8.46914],[-82.09184,8.46029],[-82.09559,8.46948],[-82.1007,8.45749],[-82.10982,8.4587],[-82.11101,8.45423],[-82.11663,8.45287],[-82.11985,8.45808],[-82.12567,8.45298],[-82.12643,8.4532],[-82.11564,8.4734],[-82.12211,8.48384],[-82.12684,8.53431],[-82.13042,8.54175],[-82.12307,8.55531],[-82.12396,8.55911],[-82.12046,8.5603],[-82.11832,8.55708],[-82.11945,8.57192],[-82.11526,8.58974],[-82.12178,8.60783],[-82.11987,8.6166],[-82.12534,8.62426],[-82.12569,8.63637],[-82.12116,8.64601],[-82.09467,8.63395],[-82.09527,8.62877],[-82.08969,8.6183],[-82.07355,8.59877],[-82.0771,8.58233],[-82.07321,8.57597],[-82.06663,8.57233],[-82.06191,8.55371],[-82.05335,8.54483],[-82.05017,8.53724],[-82.0498,8.52859],[-82.05258,8.52596],[-82.0489,8.52252],[-82.0508,8.51082],[-82.04791,8.50527]]]}},{"type":"Feature","properties":{"corregimiento":"Boca de Balsa","distrito":"Besiko","provincia":"Comarca Ngäbe Buglé","bbox":[-82.12116,8.50527,-81.97403,8.64601]},"geometry":{"type":"Polygon","coordinates":[[[-82.05008,8.63615],[-82.03002,8.64493],[-82.0115,8.63889],[-81.99074,8.64426],[-81.98632,8.63998],[-81.97539,8.63974],[-81.97403,8.63712],[-81.97681,8.62975],[-81.97413,8.62329],[-81.97859,8.60808],[-81.99058,8.60249],[-82.00049,8.58995],[-81.99617,8.57259],[-81.98626,8.56447],[-81.99063,8.55316],[-82.00203,8.5487],[-81.9971,8.54748],[-81.99425,8.53468],[-81.9913,8.5328],[-82.00939,8.52943],[-82.01509,8.51966],[-82.0235,8.51329],[-82.03118,8.52298],[-82.04079,8.5156],[-82.04503,8.51704],[-82.04791,8.50527],[-82.0508,8.51082],[-82.0489,8.52252],[-82.05258,8.52596],[-82.0498,8.52859],[-82.05017,8.53724],[-82.05335,8.54483],[-82.06191,8.55371],[-82.06663,8.57233],[-82.07321,8.57597],[-82.0771,8.58233],[-82.07355,8.59877],[-82.08969,8.6183],[-82.09527,8.62877],[-82.09467,8.63395],[-82.12116,8.64601],[-82.09878,8.64115],[-82.08054,8.63278],[-82.07655,8.63286],[-82.06983,8.64125],[-82.06359,8.63988],[-82.05907,8.63523],[-82.05008,8.63615]]]}},{"type":"Feature","properties":{"corregimiento":"Cerro Banco","distrito":"Besiko","provincia":"Comarca Ngäbe Buglé","bbox":[-82.07714,8.40953,-81.94809,8.52298]},"geometry":{"type":"Polygon","coordinates":[[[-82.02286,8.51349],[-81.99586,8.50848],[-81.97523,8.50997],[-81.96404,8.49984],[-81.94958,8.49829],[-81.95209,8.48243],[-81.94809,8.47526],[-81.96224,8.44938],[-81.97078,8.4426],[-81.97397,8.43525],[-81.98565,8.42909],[-81.98751,8.42283],[-81.99162,8.42324],[-81.99308,8.42024],[-82.00882,8.42367],[-82.01214,8.41923],[-82.02419,8.42256],[-82.02814,8.42687],[-82.03206,8.4198],[-82.04239,8.41498],[-82.04634,8.40953],[-82.04326,8.42446],[-82.04826,8.42217],[-82.05335,8.42506],[-82.05418,8.42902],[-82.04884,8.43478],[-82.05659,8.44151],[-82.05827,8.45578],[-82.06273,8.45528],[-82.06728,8.46105],[-82.06528,8.46656],[-82.07004,8.4686],[-82.06757,8.47636],[-82.06381,8.47718],[-82.06546,8.47985],[-82.07258,8.48029],[-82.07714,8.4852],[-82.06842,8.49151],[-82.07001,8.49651],[-82.06381,8.49706],[-82.05655,8.50667],[-82.05321,8.50305],[-82.04773,8.50365],[-82.04503,8.51704],[-82.04079,8.5156],[-82.03118,8.52298],[-82.03045,8.51932],[-82.02286,8.51349]]]}},{"type":"Feature","properties":{"corregimiento":"Emplanada de Chorcha","distrito":"Besiko","provincia":"Comarca Ngäbe Buglé","bbox":[-82.18326,8.4446,-82.11182,8.76944]},"geometry":{"type":"Polygon","coordinates":[[[-82.11909,8.76944],[-82.11182,8.76275],[-82.11513,8.75183],[-82.11238,8.74472],[-82.11783,8.73041],[-82.11335,8.72898],[-82.11327,8.72398],[-82.11778,8.712],[-82.12606,8.70799],[-82.12924,8.6998],[-82.12214,8.68225],[-82.12563,8.67408],[-82.12421,8.66922],[-82.13154,8.65898],[-82.12116,8.64601],[-82.12569,8.63637],[-82.12534,8.62426],[-82.11987,8.6166],[-82.12178,8.60783],[-82.11519,8.59068],[-82.11945,8.57192],[-82.11832,8.55708],[-82.12046,8.5603],[-82.12396,8.55911],[-82.12307,8.55531],[-82.13042,8.54175],[-82.12684,8.53431],[-82.12211,8.48384],[-82.11564,8.4734],[-82.12623,8.45326],[-82.13363,8.45555],[-82.1347,8.45101],[-82.14051,8.45446],[-82.14484,8.45085],[-82.15405,8.4537],[-82.15824,8.44887],[-82.1635,8.44902],[-82.16368,8.4446],[-82.17549,8.45256],[-82.18005,8.4505],[-82.18042,8.45595],[-82.18326,8.4568],[-82.17612,8.46511],[-82.1785,8.46981],[-82.1721,8.47144],[-82.1661,8.46924],[-82.16934,8.47735],[-82.17793,8.47502],[-82.18023,8.47754],[-82.17782,8.47856],[-82.17972,8.48203],[-82.17723,8.49228],[-82.16111,8.5041],[-82.15826,8.51434],[-82.1487,8.51837],[-82.15106,8.52699],[-82.15758,8.5317],[-82.15723,8.53594],[-82.14855,8.53815],[-82.14365,8.55452],[-82.13675,8.55612],[-82.13855,8.56101],[-82.13117,8.563],[-82.13109,8.55804],[-82.12793,8.55826],[-82.12584,8.56836],[-82.1269,8.57151],[-82.13396,8.57182],[-82.14412,8.56273],[-82.14726,8.56527],[-82.1465,8.5705],[-82.15094,8.57421],[-82.16034,8.57145],[-82.16432,8.55698],[-82.15939,8.54059],[-82.16269,8.54015],[-82.16362,8.53084],[-82.16757,8.53217],[-82.17487,8.5534],[-82.1622,8.57441],[-82.16295,8.57899],[-82.15915,8.58044],[-82.16058,8.58635],[-82.15215,8.58846],[-82.15185,8.59945],[-82.14936,8.60246],[-82.15369,8.61138],[-82.15918,8.61201],[-82.15732,8.76825],[-82.12642,8.76676],[-82.11909,8.76944]]]}},{"type":"Feature","properties":{"corregimiento":"Niba","distrito":"Besiko","provincia":"Comarca Ngäbe Buglé","bbox":[-82.02259,8.47948,-81.91474,8.64748]},"geometry":{"type":"Polygon","coordinates":[[[-81.91526,8.64178],[-81.91474,8.47948],[-81.93143,8.48724],[-81.93199,8.49042],[-81.94357,8.49267],[-81.94911,8.49823],[-81.96404,8.49984],[-81.97523,8.50997],[-81.99586,8.50848],[-82.00913,8.51218],[-82.02161,8.51207],[-82.02259,8.51418],[-82.01509,8.51966],[-82.00939,8.52943],[-81.9913,8.5328],[-81.99425,8.53468],[-81.9971,8.54748],[-82.00203,8.5487],[-81.99063,8.55316],[-81.98626,8.56447],[-81.99617,8.57259],[-82.00049,8.58995],[-81.99058,8.60249],[-81.97859,8.60808],[-81.97413,8.62329],[-81.97681,8.62975],[-81.97412,8.63484],[-81.97539,8.63974],[-81.96707,8.64373],[-81.96198,8.64317],[-81.95773,8.64748],[-81.95635,8.64105],[-81.94928,8.63536],[-81.93025,8.63671],[-81.92167,8.6417],[-81.91526,8.64178]]]}},{"type":"Feature","properties":{"corregimiento":"Cerro de Patena","distrito":"Besiko","provincia":"Comarca Ngäbe Buglé","bbox":[-81.97216,8.39143,-81.90105,8.49829]},"geometry":{"type":"Polygon","coordinates":[[[-81.91474,8.47948],[-81.90503,8.46802],[-81.90454,8.45794],[-81.90105,8.45139],[-81.90688,8.43945],[-81.90567,8.42325],[-81.91559,8.41473],[-81.91472,8.40749],[-81.92856,8.39143],[-81.93226,8.39445],[-81.93489,8.39251],[-81.93781,8.39779],[-81.94691,8.4035],[-81.94962,8.41144],[-81.95336,8.40557],[-81.96419,8.40299],[-81.9644,8.41702],[-81.95092,8.42515],[-81.95007,8.43028],[-81.95508,8.44102],[-81.96119,8.43735],[-81.97216,8.43873],[-81.95411,8.46076],[-81.94876,8.4731],[-81.94792,8.47683],[-81.9521,8.48259],[-81.94958,8.49829],[-81.94357,8.49267],[-81.93199,8.49042],[-81.93143,8.48724],[-81.91474,8.47948]]]}}]}