{"type":"FeatureCollection","features":[{"type":"Feature","properties":{"corregimiento":"Hato Corotú","distrito":"Mironó","provincia":"Comarca Ngäbe Buglé","bbox":[-81.99816,8.31333,-81.928,8.37287]},"geometry":{"type":"Polygon","coordinates":[[[-81.928,8.36809],[-81.93089,8.36315],[-81.93524,8.36248],[-81.9367,8.35252],[-81.942,8.34661],[-81.93809,8.33386],[-81.94416,8.32606],[-81.94745,8.32797],[-81.94598,8.33316],[-81.95537,8.32499],[-81.9574,8.31768],[-81.96103,8.3181],[-81.95936,8.32292],[-81.9738,8.32018],[-81.97709,8.32613],[-81.98174,8.31359],[-81.98645,8.31355],[-81.98621,8.31778],[-81.9911,8.31668],[-81.99018,8.31333],[-81.9979,8.31565],[-81.99816,8.32347],[-81.99344,8.32025],[-81.99072,8.32289],[-81.98519,8.31902],[-81.98396,8.32061],[-81.98841,8.33005],[-81.99391,8.33244],[-81.99393,8.33659],[-81.99022,8.33401],[-81.98739,8.33456],[-81.99017,8.33663],[-81.98832,8.33784],[-81.98337,8.33516],[-81.97384,8.33763],[-81.96679,8.35356],[-81.95495,8.35989],[-81.95137,8.36568],[-81.9533,8.36859],[-81.95137,8.37267],[-81.93161,8.37287],[-81.928,8.36809]]]}},{"type":"Feature","properties":{"corregimiento":"Quebrada de Loro","distrito":"Mironó","provincia":"Comarca Ngäbe Buglé","bbox":[-81.94541,8.31664,-81.89887,8.38293]},"geometry":{"type":"Polygon","coordinates":[[[-81.90685,8.37848],[-81.91819,8.36029],[-81.91747,8.35547],[-81.89887,8.33513],[-81.90621,8.33946],[-81.91307,8.33507],[-81.91843,8.33725],[-81.9216,8.33443],[-81.92276,8.32676],[-81.93374,8.32977],[-81.93378,8.31709],[-81.94055,8.31664],[-81.93795,8.32228],[-81.93389,8.32133],[-81.94541,8.32587],[-81.93813,8.33365],[-81.94203,8.34647],[-81.9367,8.35252],[-81.93524,8.36248],[-81.92902,8.36493],[-81.91595,8.38278],[-81.91117,8.38293],[-81.90685,8.37848]]]}},{"type":"Feature","properties":{"corregimiento":"Salto Dupí","distrito":"Mironó","provincia":"Comarca Ngäbe Buglé","bbox":[-81.91819,8.32216,-81.86183,8.3865]},"geometry":{"type":"Polygon","coordinates":[[[-81.87224,8.3865],[-81.86813,8.37427],[-81.86183,8.36909],[-81.86529,8.35442],[-81.86281,8.33828],[-81.86964,8.3355],[-81.87018,8.33957],[-81.87477,8.3371],[-81.87615,8.33999],[-81.88771,8.33413],[-81.8846,8.33099],[-81.88529,8.32665],[-81.8903,8.32709],[-81.88796,8.32216],[-81.8974,8.32392],[-81.90116,8.32566],[-81.89693,8.32931],[-81.89815,8.33429],[-81.90805,8.34312],[-81.91031,8.35018],[-81.91737,8.35529],[-81.91819,8.36029],[-81.90471,8.37982],[-81.89064,8.37922],[-81.87224,8.3865]]]}},{"type":"Feature","properties":{"corregimiento":"Cascabel","distrito":"Mironó","provincia":"Comarca Ngäbe Buglé","bbox":[-81.91526,8.47264,-81.82628,8.66145]},"geometry":{"type":"Polygon","coordinates":[[[-81.88796,8.66145],[-81.87522,8.64153],[-81.87893,8.63479],[-81.87679,8.63032],[-81.88192,8.62172],[-81.87748,8.61737],[-81.87748,8.61059],[-81.88165,8.60744],[-81.88372,8.59802],[-81.86772,8.59343],[-81.86055,8.59663],[-81.84429,8.57861],[-81.83718,8.57605],[-81.83556,8.56224],[-81.84166,8.54907],[-81.84043,8.53521],[-81.8363,8.53104],[-81.83747,8.52391],[-81.83137,8.51857],[-81.82628,8.50332],[-81.83451,8.4862],[-81.83553,8.47264],[-81.84097,8.48123],[-81.85159,8.48686],[-81.85638,8.49528],[-81.87084,8.49355],[-81.87525,8.49957],[-81.88634,8.49949],[-81.89315,8.49484],[-81.90062,8.49437],[-81.91474,8.47948],[-81.91526,8.64178],[-81.90052,8.65693],[-81.89179,8.65799],[-81.88796,8.66145]]]}},{"type":"Feature","properties":{"corregimiento":"Hato Pilón (Cabecera)","distrito":"Mironó","provincia":"Comarca Ngäbe Buglé","bbox":[-81.87373,8.34447,-81.80256,8.43093]},"geometry":{"type":"Polygon","coordinates":[[[-81.81827,8.42479],[-81.80494,8.42242],[-81.80256,8.41975],[-81.80534,8.41736],[-81.80545,8.40685],[-81.80974,8.39869],[-81.81017,8.39193],[-81.80695,8.38606],[-81.80934,8.38149],[-81.80696,8.37961],[-81.81315,8.36631],[-81.81191,8.36303],[-81.82038,8.35915],[-81.81891,8.35173],[-81.82695,8.35064],[-81.83333,8.34447],[-81.83326,8.35305],[-81.84145,8.36185],[-81.84757,8.37719],[-81.86809,8.37421],[-81.87373,8.39201],[-81.87073,8.39642],[-81.87263,8.40341],[-81.87036,8.40904],[-81.85405,8.41843],[-81.85097,8.42454],[-81.83066,8.43093],[-81.82376,8.43012],[-81.81827,8.42479]]]}},{"type":"Feature","properties":{"corregimiento":"Hato Culantro","distrito":"Mironó","provincia":"Comarca Ngäbe Buglé","bbox":[-81.91474,8.4197,-81.8043,8.49953]},"geometry":{"type":"Polygon","coordinates":[[[-81.84097,8.48123],[-81.82711,8.45805],[-81.81561,8.45016],[-81.81303,8.44059],[-81.8043,8.43171],[-81.80857,8.42009],[-81.82376,8.43012],[-81.82991,8.43104],[-81.8527,8.42324],[-81.87059,8.42648],[-81.87751,8.42172],[-81.88232,8.42296],[-81.88929,8.4197],[-81.89921,8.42639],[-81.90583,8.42296],[-81.90688,8.43945],[-81.90107,8.45152],[-81.90454,8.45794],[-81.90503,8.46802],[-81.91474,8.47948],[-81.90083,8.49425],[-81.89315,8.49484],[-81.88624,8.4995],[-81.87504,8.49953],[-81.87084,8.49355],[-81.85691,8.49554],[-81.85159,8.48686],[-81.84097,8.48123]]]}},{"type":"Feature","properties":{"corregimiento":"Hato Jobo","distrito":"Mironó","provincia":"Comarca Ngäbe Buglé","bbox":[-81.95168,8.36809,-81.85097,8.42643]},"geometry":{"type":"Polygon","coordinates":[[[-81.85097,8.42454],[-81.85405,8.41843],[-81.86323,8.41516],[-81.87076,8.40861],[-81.87272,8.40302],[-81.87082,8.39559],[-81.87373,8.39201],[-81.87224,8.3865],[-81.89064,8.37922],[-81.90685,8.37848],[-81.90957,8.38211],[-81.91529,8.38309],[-81.928,8.36809],[-81.93161,8.37287],[-81.95168,8.37207],[-81.94644,8.38044],[-81.94083,8.38018],[-81.93855,8.38578],[-81.93484,8.38502],[-81.93513,8.3884],[-81.93166,8.38986],[-81.93434,8.39371],[-81.92816,8.3915],[-81.92535,8.39788],[-81.92124,8.39865],[-81.91468,8.40754],[-81.91678,8.41172],[-81.91063,8.42105],[-81.89921,8.42639],[-81.88929,8.4197],[-81.88232,8.42296],[-81.87751,8.42172],[-81.87112,8.42643],[-81.85097,8.42454]]]}},{"type":"Feature","properties":{"corregimiento":"Hato Julí","distrito":"Mironó","provincia":"Comarca Ngäbe Buglé","bbox":[-81.86778,8.33828,-81.83326,8.37719]},"geometry":{"type":"Polygon","coordinates":[[[-81.83338,8.3481],[-81.83654,8.35089],[-81.8395,8.34956],[-81.83656,8.34185],[-81.85722,8.34203],[-81.86281,8.33828],[-81.86529,8.35442],[-81.86183,8.36909],[-81.86778,8.374],[-81.84757,8.37719],[-81.84145,8.36185],[-81.83326,8.35305],[-81.83338,8.3481]]]}}]}