{"type":"FeatureCollection","features":[{"type":"Feature","properties":{"corregimiento":"Chichica (Cabecera)","distrito":"Müna","provincia":"Comarca Ngäbe Buglé","bbox":[-81.72202,8.31066,-81.64265,8.43091]},"geometry":{"type":"Polygon","coordinates":[[[-81.67098,8.43091],[-81.66255,8.39788],[-81.64931,8.38999],[-81.64646,8.38105],[-81.64953,8.37378],[-81.64265,8.36203],[-81.64979,8.34338],[-81.65997,8.34153],[-81.65319,8.32601],[-81.65689,8.31066],[-81.67434,8.32337],[-81.67589,8.32777],[-81.6733,8.32734],[-81.67214,8.33107],[-81.67426,8.33362],[-81.67347,8.34293],[-81.67985,8.3435],[-81.67422,8.34663],[-81.67702,8.34825],[-81.68068,8.36078],[-81.69057,8.36712],[-81.69409,8.3657],[-81.69697,8.36993],[-81.70185,8.37012],[-81.69907,8.37415],[-81.70059,8.38147],[-81.7051,8.38661],[-81.70373,8.39257],[-81.70804,8.39139],[-81.72202,8.40737],[-81.71714,8.4294],[-81.69832,8.41963],[-81.69185,8.41051],[-81.68155,8.4141],[-81.67454,8.42866],[-81.67098,8.43091]]]}},{"type":"Feature","properties":{"corregimiento":"Alto Caballero","distrito":"Müna","provincia":"Comarca Ngäbe Buglé","bbox":[-81.71186,8.27169,-81.64775,8.32628]},"geometry":{"type":"Polygon","coordinates":[[[-81.6745,8.32438],[-81.66312,8.31316],[-81.65706,8.31065],[-81.65438,8.31274],[-81.64912,8.29315],[-81.65357,8.28941],[-81.64888,8.28813],[-81.64775,8.28467],[-81.65519,8.28042],[-81.65686,8.27647],[-81.65446,8.27306],[-81.66495,8.27169],[-81.66756,8.28068],[-81.663,8.28917],[-81.67079,8.29166],[-81.67544,8.28628],[-81.67542,8.29462],[-81.68362,8.29229],[-81.68709,8.2858],[-81.68927,8.29027],[-81.69292,8.28941],[-81.69514,8.28415],[-81.6985,8.29381],[-81.70173,8.29563],[-81.69852,8.29671],[-81.69483,8.29139],[-81.68938,8.29169],[-81.68613,8.29727],[-81.689,8.30346],[-81.69352,8.29823],[-81.70285,8.29885],[-81.703,8.28959],[-81.70582,8.287],[-81.70207,8.28422],[-81.70438,8.2788],[-81.7029,8.27317],[-81.70827,8.27295],[-81.71186,8.28038],[-81.70695,8.28266],[-81.71044,8.28862],[-81.7102,8.29392],[-81.7036,8.29712],[-81.70678,8.30015],[-81.69631,8.3028],[-81.69376,8.31816],[-81.68933,8.32628],[-81.68145,8.32206],[-81.6745,8.32438]]]}},{"type":"Feature","properties":{"corregimiento":"Bakama","distrito":"Müna","provincia":"Comarca Ngäbe Buglé","bbox":[-81.62417,8.22117,-81.56348,8.28235]},"geometry":{"type":"MultiPolygon","coordinates":[[[[-81.56939,8.24913],[-81.56424,8.24043],[-81.5717,8.24337],[-81.57549,8.24004],[-81.56633,8.23461],[-81.56543,8.23108],[-81.57303,8.23127],[-81.56348,8.22443],[-81.582,8.22117],[-81.58227,8.22524],[-81.58948,8.22714],[-81.58116,8.23207],[-81.58065,8.2299],[-81.57705,8.2312],[-81.57514,8.23581],[-81.58317,8.23784],[-81.58531,8.23025],[-81.59099,8.23595],[-81.59594,8.23582],[-81.59171,8.22907],[-81.59831,8.22701],[-81.60087,8.2407],[-81.59277,8.24414],[-81.58907,8.24092],[-81.58285,8.2411],[-81.58255,8.24429],[-81.57552,8.24374],[-81.56939,8.24913]]],[[[-81.60695,8.2413],[-81.60972,8.24232],[-81.60911,8.25221],[-81.611,8.24281],[-81.61303,8.24727],[-81.62011,8.25087],[-81.61942,8.2537],[-81.61489,8.25491],[-81.61287,8.25272],[-81.61067,8.26299],[-81.6142,8.26411],[-81.61949,8.2577],[-81.62417,8.26424],[-81.62253,8.26678],[-81.60923,8.26426],[-81.60987,8.26739],[-81.60439,8.2681],[-81.59923,8.27448],[-81.6031,8.27446],[-81.6032,8.28092],[-81.59984,8.27953],[-81.59426,8.28235],[-81.59254,8.27846],[-81.59763,8.27368],[-81.59527,8.26539],[-81.60441,8.26567],[-81.60686,8.26001],[-81.59873,8.25325],[-81.59712,8.25874],[-81.59101,8.25779],[-81.59581,8.25012],[-81.60074,8.2532],[-81.60695,8.2413]]]]}},{"type":"Feature","properties":{"corregimiento":"Cerro Caña","distrito":"Müna","provincia":"Comarca Ngäbe Buglé","bbox":[-81.65997,8.27881,-81.59998,8.37533]},"geometry":{"type":"Polygon","coordinates":[[[-81.59998,8.36642],[-81.60256,8.35981],[-81.60021,8.35442],[-81.60613,8.34646],[-81.61691,8.34426],[-81.61706,8.32672],[-81.621,8.32242],[-81.61691,8.31973],[-81.62387,8.30334],[-81.62691,8.30471],[-81.62838,8.30227],[-81.62775,8.2964],[-81.62141,8.29254],[-81.62246,8.28418],[-81.62823,8.27881],[-81.63007,8.28491],[-81.62686,8.28817],[-81.6289,8.29163],[-81.63365,8.28904],[-81.64257,8.29493],[-81.64781,8.28471],[-81.64888,8.28813],[-81.65358,8.28947],[-81.64912,8.29315],[-81.65592,8.31632],[-81.65323,8.32617],[-81.65997,8.34153],[-81.64979,8.34338],[-81.64434,8.34757],[-81.62818,8.33667],[-81.62865,8.34546],[-81.63488,8.35623],[-81.63775,8.35691],[-81.62695,8.37533],[-81.62611,8.37073],[-81.6224,8.37185],[-81.61911,8.36822],[-81.61311,8.36872],[-81.6115,8.36598],[-81.60321,8.37089],[-81.60345,8.36689],[-81.59998,8.36642]]]}},{"type":"Feature","properties":{"corregimiento":"Cerro Puerco","distrito":"Müna","provincia":"Comarca Ngäbe Buglé","bbox":[-81.788,8.27822,-81.73635,8.39759]},"geometry":{"type":"Polygon","coordinates":[[[-81.75861,8.39401],[-81.76199,8.3774],[-81.75328,8.37078],[-81.74655,8.35464],[-81.74185,8.35412],[-81.73704,8.34169],[-81.74166,8.31892],[-81.7373,8.31338],[-81.73635,8.30647],[-81.73933,8.30627],[-81.73877,8.28895],[-81.74425,8.27822],[-81.74913,8.28266],[-81.75249,8.28217],[-81.75191,8.28474],[-81.75585,8.28455],[-81.76084,8.29806],[-81.76605,8.30412],[-81.76456,8.30607],[-81.77682,8.31712],[-81.77794,8.32535],[-81.78318,8.32728],[-81.7871,8.33406],[-81.78502,8.33909],[-81.788,8.35105],[-81.78356,8.37546],[-81.77657,8.38246],[-81.77375,8.39311],[-81.76918,8.39759],[-81.75861,8.39401]]]}},{"type":"Feature","properties":{"corregimiento":"Maraca","distrito":"Müna","provincia":"Comarca Ngäbe Buglé","bbox":[-81.76199,8.34102,-81.69397,8.40952]},"geometry":{"type":"Polygon","coordinates":[[[-81.71825,8.40219],[-81.70784,8.39124],[-81.70376,8.39261],[-81.7051,8.38661],[-81.70059,8.38147],[-81.69907,8.37415],[-81.70202,8.37033],[-81.69397,8.3672],[-81.69509,8.34684],[-81.70258,8.34102],[-81.71141,8.34174],[-81.71809,8.34996],[-81.7257,8.34981],[-81.73759,8.34381],[-81.74185,8.35412],[-81.74655,8.35464],[-81.75328,8.37078],[-81.76199,8.3774],[-81.75861,8.39401],[-81.74279,8.40534],[-81.73458,8.40952],[-81.71825,8.40219]]]}},{"type":"Feature","properties":{"corregimiento":"Nibra","distrito":"Müna","provincia":"Comarca Ngäbe Buglé","bbox":[-81.61109,8.25277,-81.515,8.3492]},"geometry":{"type":"Polygon","coordinates":[[[-81.5757,8.3492],[-81.56805,8.34266],[-81.57142,8.33224],[-81.5638,8.32509],[-81.55701,8.33051],[-81.55634,8.34321],[-81.55103,8.34469],[-81.55448,8.33783],[-81.55046,8.32731],[-81.53559,8.31647],[-81.54268,8.31238],[-81.54448,8.30537],[-81.54259,8.30289],[-81.53799,8.30336],[-81.53518,8.30771],[-81.53796,8.29924],[-81.52908,8.29709],[-81.51988,8.28867],[-81.52187,8.28292],[-81.51727,8.2785],[-81.51905,8.27493],[-81.515,8.2705],[-81.51772,8.27008],[-81.5159,8.26375],[-81.51938,8.25604],[-81.52934,8.25846],[-81.52869,8.2541],[-81.53145,8.25277],[-81.53487,8.25641],[-81.53871,8.25597],[-81.53241,8.26292],[-81.53483,8.26411],[-81.54037,8.26306],[-81.54073,8.25968],[-81.54496,8.25817],[-81.54152,8.26297],[-81.54522,8.26486],[-81.53993,8.26636],[-81.54819,8.2704],[-81.54439,8.27418],[-81.54611,8.27602],[-81.55263,8.27049],[-81.54593,8.2608],[-81.55109,8.25921],[-81.55335,8.2688],[-81.55705,8.26817],[-81.55659,8.26445],[-81.56172,8.26529],[-81.56267,8.27474],[-81.55598,8.28115],[-81.56074,8.28928],[-81.55407,8.28578],[-81.5441,8.29494],[-81.55068,8.30293],[-81.54785,8.30751],[-81.5573,8.31222],[-81.56505,8.31185],[-81.57364,8.30307],[-81.57114,8.29858],[-81.57635,8.28484],[-81.56807,8.2818],[-81.56853,8.27893],[-81.57148,8.28034],[-81.57149,8.27727],[-81.58254,8.2782],[-81.58828,8.29045],[-81.58604,8.2948],[-81.58014,8.29105],[-81.58027,8.29469],[-81.5754,8.2938],[-81.57725,8.30262],[-81.58727,8.29686],[-81.58752,8.3008],[-81.59059,8.30006],[-81.59258,8.29545],[-81.60043,8.29777],[-81.60113,8.29524],[-81.59749,8.29438],[-81.60172,8.29072],[-81.60247,8.2982],[-81.59881,8.30203],[-81.60355,8.30264],[-81.61109,8.31552],[-81.60112,8.31478],[-81.59626,8.31007],[-81.59093,8.31066],[-81.58566,8.29948],[-81.58331,8.30306],[-81.57774,8.30304],[-81.57594,8.30545],[-81.57971,8.32078],[-81.58554,8.3255],[-81.57239,8.33681],[-81.57781,8.33981],[-81.5757,8.3492]]]}},{"type":"Feature","properties":{"corregimiento":"Sitio Prado","distrito":"Müna","provincia":"Comarca Ngäbe Buglé","bbox":[-81.63329,8.36115,-81.56565,8.46906]},"geometry":{"type":"Polygon","coordinates":[[[-81.56565,8.45303],[-81.5684,8.44717],[-81.57231,8.44571],[-81.57213,8.39714],[-81.56932,8.38869],[-81.57836,8.37434],[-81.57558,8.36919],[-81.57822,8.36833],[-81.57774,8.36115],[-81.5861,8.36136],[-81.58688,8.36639],[-81.59032,8.36535],[-81.59097,8.37031],[-81.60264,8.36647],[-81.60326,8.37089],[-81.61163,8.36597],[-81.61311,8.36872],[-81.62042,8.3687],[-81.6224,8.37185],[-81.62611,8.37073],[-81.6273,8.37797],[-81.6243,8.37877],[-81.62326,8.3848],[-81.63329,8.39566],[-81.62608,8.41715],[-81.6195,8.4178],[-81.61297,8.42441],[-81.61039,8.42211],[-81.60748,8.42632],[-81.59989,8.42764],[-81.59357,8.43539],[-81.60165,8.44662],[-81.60202,8.45875],[-81.59242,8.46794],[-81.58343,8.46641],[-81.57841,8.46906],[-81.56896,8.4621],[-81.56565,8.45303]]]}},{"type":"Feature","properties":{"corregimiento":"Ümani","distrito":"Müna","provincia":"Comarca Ngäbe Buglé","bbox":[-81.74421,8.26296,-81.70162,8.34996]},"geometry":{"type":"Polygon","coordinates":[[[-81.71141,8.34174],[-81.70565,8.32579],[-81.70682,8.32067],[-81.70162,8.3152],[-81.70625,8.30349],[-81.71165,8.30224],[-81.71209,8.29898],[-81.72518,8.2981],[-81.72073,8.29082],[-81.72686,8.28821],[-81.72729,8.28313],[-81.71924,8.27844],[-81.71756,8.27216],[-81.72001,8.26311],[-81.72403,8.26296],[-81.72497,8.2772],[-81.7393,8.27504],[-81.74421,8.27786],[-81.73877,8.28895],[-81.73933,8.30627],[-81.73635,8.30647],[-81.7373,8.31338],[-81.74166,8.31892],[-81.73796,8.32892],[-81.73745,8.34393],[-81.7257,8.34981],[-81.71809,8.34996],[-81.71141,8.34174]]]}},{"type":"Feature","properties":{"corregimiento":"Kikari","distrito":"Müna","provincia":"Comarca Ngäbe Buglé","bbox":[-81.71141,8.31645,-81.67214,8.36719]},"geometry":{"type":"Polygon","coordinates":[[[-81.6745,8.32438],[-81.68145,8.32206],[-81.68915,8.3264],[-81.69395,8.31748],[-81.70353,8.31645],[-81.70678,8.32057],[-81.70565,8.32579],[-81.71141,8.34174],[-81.70279,8.34098],[-81.6964,8.34474],[-81.69467,8.36535],[-81.69228,8.36719],[-81.6808,8.36094],[-81.67702,8.34825],[-81.67428,8.3469],[-81.67992,8.34382],[-81.67355,8.34327],[-81.67426,8.33362],[-81.67214,8.33107],[-81.6733,8.32734],[-81.67589,8.32777],[-81.6745,8.32438]]]}},{"type":"Feature","properties":{"corregimiento":"Mreeni","distrito":"Müna","provincia":"Comarca Ngäbe Buglé","bbox":[-81.58461,8.34712,-81.51486,8.45303]},"geometry":{"type":"Polygon","coordinates":[[[-81.52779,8.42593],[-81.52343,8.41726],[-81.52668,8.40907],[-81.5215,8.40477],[-81.51708,8.40533],[-81.51884,8.40314],[-81.51486,8.39965],[-81.51869,8.39616],[-81.51803,8.39248],[-81.52805,8.38946],[-81.5257,8.38515],[-81.52755,8.38263],[-81.52206,8.37727],[-81.52157,8.36706],[-81.5294,8.36744],[-81.52814,8.36008],[-81.53182,8.35446],[-81.53936,8.35755],[-81.54123,8.35324],[-81.55401,8.34794],[-81.55587,8.34757],[-81.55713,8.35636],[-81.56418,8.35299],[-81.56808,8.34712],[-81.57491,8.34789],[-81.5804,8.35299],[-81.5821,8.35161],[-81.58461,8.35674],[-81.58187,8.36184],[-81.57762,8.36134],[-81.57822,8.36833],[-81.57558,8.36919],[-81.57836,8.37434],[-81.56932,8.38869],[-81.57213,8.39714],[-81.57231,8.44571],[-81.5684,8.44717],[-81.56565,8.45303],[-81.56049,8.44433],[-81.55388,8.44035],[-81.54318,8.44005],[-81.53785,8.43675],[-81.5323,8.42687],[-81.52779,8.42593]]]}},{"type":"Feature","properties":{"corregimiento":"Krüa","distrito":"Müna","provincia":"Comarca Ngäbe Buglé","bbox":[-81.61826,8.42593,-81.49311,8.62956]},"geometry":{"type":"Polygon","coordinates":[[[-81.5149,8.62044],[-81.51116,8.61718],[-81.51113,8.60806],[-81.50729,8.61106],[-81.49942,8.60897],[-81.49723,8.60004],[-81.50152,8.58866],[-81.49699,8.57842],[-81.49923,8.57307],[-81.49311,8.56757],[-81.50152,8.55958],[-81.50401,8.55188],[-81.50439,8.54511],[-81.49901,8.53797],[-81.5091,8.5258],[-81.509,8.51703],[-81.52373,8.49988],[-81.52777,8.48788],[-81.52758,8.47139],[-81.53146,8.4635],[-81.52899,8.45985],[-81.53234,8.45646],[-81.5317,8.45139],[-81.52764,8.44933],[-81.5261,8.44001],[-81.52307,8.4395],[-81.52291,8.4345],[-81.52745,8.43162],[-81.52779,8.42593],[-81.5323,8.42687],[-81.53785,8.43675],[-81.54318,8.44005],[-81.55388,8.44035],[-81.56059,8.44441],[-81.56896,8.4621],[-81.57841,8.46906],[-81.58343,8.46641],[-81.59254,8.46787],[-81.59344,8.48242],[-81.58557,8.5047],[-81.59031,8.51112],[-81.59299,8.52272],[-81.57957,8.55703],[-81.5892,8.56949],[-81.59885,8.56773],[-81.60893,8.57539],[-81.61826,8.5747],[-81.6182,8.57795],[-81.61642,8.58847],[-81.58288,8.60475],[-81.58304,8.6152],[-81.57414,8.62286],[-81.58062,8.62857],[-81.57696,8.62956],[-81.568,8.62401],[-81.55919,8.62246],[-81.55727,8.61738],[-81.55159,8.61988],[-81.52699,8.61824],[-81.5149,8.62044]]]}},{"type":"Feature","properties":{"corregimiento":"Peña Blanca","distrito":"Müna","provincia":"Comarca Ngäbe Buglé","bbox":[-81.73645,8.41051,-81.62855,8.56614]},"geometry":{"type":"Polygon","coordinates":[[[-81.62855,8.56068],[-81.64581,8.51621],[-81.64291,8.50508],[-81.63518,8.49933],[-81.63398,8.48952],[-81.64213,8.46972],[-81.63476,8.46006],[-81.64381,8.4521],[-81.64814,8.45176],[-81.65614,8.4408],[-81.67421,8.42908],[-81.68155,8.4141],[-81.69185,8.41051],[-81.69832,8.41963],[-81.71714,8.4294],[-81.71618,8.43758],[-81.71097,8.44377],[-81.71139,8.45926],[-81.71266,8.46562],[-81.71992,8.47428],[-81.72109,8.48477],[-81.71893,8.48084],[-81.71101,8.4772],[-81.6941,8.48241],[-81.71416,8.49687],[-81.7214,8.50621],[-81.73645,8.50398],[-81.72493,8.50938],[-81.71855,8.50982],[-81.71262,8.50508],[-81.70177,8.50791],[-81.69419,8.51651],[-81.69196,8.52631],[-81.68244,8.53891],[-81.68244,8.55007],[-81.67727,8.56154],[-81.66639,8.56067],[-81.65762,8.56614],[-81.6391,8.565],[-81.62855,8.56068]]]}},{"type":"Feature","properties":{"corregimiento":"Roka o Rokari","distrito":"Müna","provincia":"Comarca Ngäbe Buglé","bbox":[-81.65614,8.41712,-81.57957,8.57539]},"geometry":{"type":"Polygon","coordinates":[[[-81.59254,8.46787],[-81.60229,8.45737],[-81.60165,8.44662],[-81.59362,8.43523],[-81.59978,8.4277],[-81.60748,8.42632],[-81.61039,8.42211],[-81.61297,8.42441],[-81.61963,8.41774],[-81.62156,8.41712],[-81.62478,8.41781],[-81.62415,8.4231],[-81.62891,8.42458],[-81.63383,8.43082],[-81.63297,8.43688],[-81.63599,8.44146],[-81.65614,8.4408],[-81.64814,8.45176],[-81.64381,8.4521],[-81.63476,8.46006],[-81.64213,8.46972],[-81.63398,8.48952],[-81.63518,8.49933],[-81.64291,8.50508],[-81.64581,8.51621],[-81.62855,8.56068],[-81.61826,8.5747],[-81.60893,8.57539],[-81.59885,8.56773],[-81.58935,8.56957],[-81.57957,8.55703],[-81.59299,8.52272],[-81.59031,8.51112],[-81.58557,8.5047],[-81.59344,8.48242],[-81.59254,8.46787]]]}},{"type":"Feature","properties":{"corregimiento":"Dikeri","distrito":"Müna","provincia":"Comarca Ngäbe Buglé","bbox":[-81.67098,8.33667,-81.62311,8.4416]},"geometry":{"type":"Polygon","coordinates":[[[-81.62311,8.42106],[-81.63329,8.39566],[-81.62331,8.38491],[-81.62352,8.38071],[-81.62725,8.37811],[-81.63775,8.35691],[-81.63488,8.35623],[-81.62865,8.34546],[-81.62818,8.33667],[-81.64434,8.34757],[-81.64979,8.34338],[-81.64262,8.36152],[-81.64953,8.37378],[-81.64665,8.38212],[-81.64947,8.39019],[-81.66251,8.39778],[-81.67098,8.43091],[-81.65614,8.4408],[-81.63631,8.4416],[-81.63297,8.43688],[-81.63383,8.43082],[-81.62311,8.42106]]]}},{"type":"Feature","properties":{"corregimiento":"Diko","distrito":"Müna","provincia":"Comarca Ngäbe Buglé","bbox":[-81.76242,8.40219,-81.6941,8.50773]},"geometry":{"type":"Polygon","coordinates":[[[-81.74025,8.50363],[-81.7214,8.50621],[-81.71416,8.49687],[-81.6941,8.48241],[-81.71101,8.4772],[-81.71893,8.48084],[-81.72109,8.48477],[-81.71992,8.47428],[-81.71257,8.46545],[-81.71065,8.44565],[-81.71618,8.43758],[-81.71746,8.42417],[-81.72046,8.41956],[-81.72202,8.40737],[-81.71825,8.40219],[-81.73569,8.41004],[-81.73877,8.43625],[-81.74283,8.44572],[-81.75761,8.45816],[-81.75885,8.47202],[-81.76242,8.47713],[-81.74419,8.50773],[-81.74025,8.50363]]]}}]}