{"type":"FeatureCollection","features":[{"type":"Feature","properties":{"corregimiento":"Cerro Iglesias (Cabecera)","distrito":"Nole Duima","provincia":"Comarca Ngäbe Buglé","bbox":[-81.84197,8.27663,-81.76456,8.34225]},"geometry":{"type":"Polygon","coordinates":[[[-81.78568,8.33982],[-81.78643,8.33059],[-81.77794,8.32535],[-81.77682,8.31712],[-81.76456,8.30607],[-81.76552,8.30331],[-81.77239,8.29776],[-81.77726,8.29737],[-81.79999,8.27663],[-81.80681,8.27777],[-81.80903,8.28103],[-81.81766,8.27775],[-81.8256,8.29486],[-81.81734,8.305],[-81.81826,8.30726],[-81.82618,8.3097],[-81.83356,8.30489],[-81.83471,8.31072],[-81.83942,8.30968],[-81.83922,8.31487],[-81.84197,8.31628],[-81.83534,8.32382],[-81.82993,8.32498],[-81.81993,8.33876],[-81.80203,8.33826],[-81.80166,8.34225],[-81.78568,8.33982]]]}},{"type":"Feature","properties":{"corregimiento":"Lajero","distrito":"Nole Duima","provincia":"Comarca Ngäbe Buglé","bbox":[-81.79972,8.26272,-81.74698,8.30331]},"geometry":{"type":"Polygon","coordinates":[[[-81.76552,8.30331],[-81.75576,8.28444],[-81.75201,8.28479],[-81.75249,8.28217],[-81.74698,8.28026],[-81.76094,8.28326],[-81.76039,8.2804],[-81.76829,8.27197],[-81.77464,8.26968],[-81.76908,8.26707],[-81.77227,8.26272],[-81.78291,8.26783],[-81.77601,8.27045],[-81.77711,8.273],[-81.792,8.28023],[-81.79105,8.2735],[-81.79558,8.27454],[-81.79534,8.27763],[-81.79918,8.27556],[-81.79972,8.27809],[-81.77726,8.29737],[-81.77239,8.29776],[-81.76552,8.30331]]]}},{"type":"Feature","properties":{"corregimiento":"Jädeberi","distrito":"Nole Duima","provincia":"Comarca Ngäbe Buglé","bbox":[-81.84166,8.43196,-81.74419,8.57605]},"geometry":{"type":"Polygon","coordinates":[[[-81.7719,8.49727],[-81.75653,8.49653],[-81.74419,8.50773],[-81.76641,8.47056],[-81.79492,8.44693],[-81.80285,8.43196],[-81.80842,8.43407],[-81.81561,8.45016],[-81.827,8.45793],[-81.83556,8.47037],[-81.83451,8.4862],[-81.82628,8.50332],[-81.83137,8.51857],[-81.83747,8.52391],[-81.8363,8.53104],[-81.84043,8.53521],[-81.84166,8.54907],[-81.83556,8.56224],[-81.83718,8.57605],[-81.82705,8.55355],[-81.79529,8.52786],[-81.79158,8.5124],[-81.78003,8.50686],[-81.77192,8.50093],[-81.7719,8.49727]]]}},{"type":"Feature","properties":{"corregimiento":"Hato Chamí","distrito":"Nole Duima","provincia":"Comarca Ngäbe Buglé","bbox":[-81.81017,8.37978,-81.73493,8.47713]},"geometry":{"type":"Polygon","coordinates":[[[-81.73493,8.40952],[-81.75861,8.39401],[-81.77628,8.3977],[-81.78596,8.39016],[-81.79793,8.38872],[-81.80553,8.37978],[-81.80931,8.38138],[-81.80695,8.38606],[-81.81017,8.39193],[-81.80974,8.39869],[-81.80545,8.40685],[-81.80534,8.41736],[-81.80255,8.41994],[-81.80917,8.42312],[-81.79752,8.43856],[-81.79524,8.44657],[-81.78742,8.45449],[-81.78009,8.45736],[-81.76242,8.47713],[-81.75885,8.47202],[-81.75761,8.45816],[-81.74283,8.44572],[-81.73877,8.43625],[-81.73493,8.40952]]]}},{"type":"Feature","properties":{"corregimiento":"Susama","distrito":"Nole Duima","provincia":"Comarca Ngäbe Buglé","bbox":[-81.83823,8.32082,-81.76918,8.3977]},"geometry":{"type":"Polygon","coordinates":[[[-81.76918,8.39759],[-81.78494,8.37071],[-81.78802,8.35076],[-81.78568,8.33982],[-81.80166,8.34225],[-81.80203,8.33826],[-81.81993,8.33876],[-81.82993,8.32498],[-81.83823,8.32082],[-81.83477,8.33265],[-81.82847,8.3401],[-81.83589,8.34118],[-81.83541,8.34311],[-81.82695,8.35064],[-81.81891,8.35173],[-81.82043,8.35906],[-81.81225,8.36244],[-81.81315,8.36631],[-81.80701,8.37948],[-81.8019,8.38195],[-81.79786,8.38875],[-81.78596,8.39016],[-81.77628,8.3977],[-81.76918,8.39759]]]}}]}