{"type":"FeatureCollection","features":[{"type":"Feature","properties":{"corregimiento":"Cerro Pelado","distrito":"Ñürün","provincia":"Comarca Ngäbe Buglé","bbox":[-81.58399,8.13674,-81.49696,8.20149]},"geometry":{"type":"Polygon","coordinates":[[[-81.50024,8.18301],[-81.5069,8.18177],[-81.50769,8.18475],[-81.51019,8.18054],[-81.50708,8.17493],[-81.49839,8.17364],[-81.49864,8.16995],[-81.50434,8.16946],[-81.50286,8.16559],[-81.49751,8.16501],[-81.50221,8.16001],[-81.49696,8.1529],[-81.49997,8.15066],[-81.50793,8.15142],[-81.51161,8.14703],[-81.51495,8.14756],[-81.51962,8.13993],[-81.5234,8.1418],[-81.53079,8.13674],[-81.53463,8.14673],[-81.5422,8.14709],[-81.54229,8.15148],[-81.54399,8.14857],[-81.5456,8.15196],[-81.55205,8.14683],[-81.57072,8.14776],[-81.57495,8.14439],[-81.57468,8.14866],[-81.57822,8.15172],[-81.57495,8.15392],[-81.57618,8.15762],[-81.58227,8.16209],[-81.58327,8.16843],[-81.5798,8.17166],[-81.58399,8.17311],[-81.57036,8.17465],[-81.57023,8.17197],[-81.57816,8.16835],[-81.56697,8.1577],[-81.56447,8.1628],[-81.56705,8.16355],[-81.56536,8.16575],[-81.56854,8.17099],[-81.56781,8.17382],[-81.5636,8.17151],[-81.56069,8.17352],[-81.56039,8.17637],[-81.56312,8.17473],[-81.56207,8.17943],[-81.54972,8.17871],[-81.54487,8.1819],[-81.54323,8.17083],[-81.53605,8.17192],[-81.53337,8.1771],[-81.52932,8.17718],[-81.52391,8.18669],[-81.52884,8.1894],[-81.53503,8.18225],[-81.53957,8.18568],[-81.54038,8.18959],[-81.53617,8.19226],[-81.5354,8.19801],[-81.52996,8.19673],[-81.52977,8.19275],[-81.52723,8.19426],[-81.52885,8.19011],[-81.52495,8.18891],[-81.52209,8.19137],[-81.51804,8.18899],[-81.51388,8.17818],[-81.51001,8.17981],[-81.51319,8.18323],[-81.50931,8.18704],[-81.51017,8.18744],[-81.51132,8.18834],[-81.51188,8.18952],[-81.51196,8.1903],[-81.51618,8.19196],[-81.51201,8.19373],[-81.51665,8.19978],[-81.51105,8.20149],[-81.51155,8.18886],[-81.50024,8.18301]]]}},{"type":"Feature","properties":{"corregimiento":"El Paredón","distrito":"Ñürün","provincia":"Comarca Ngäbe Buglé","bbox":[-81.32346,8.41854,-81.13775,8.56503]},"geometry":{"type":"Polygon","coordinates":[[[-81.15528,8.5174],[-81.14737,8.5],[-81.14711,8.49303],[-81.15137,8.48354],[-81.15181,8.47375],[-81.15509,8.47312],[-81.15967,8.4654],[-81.1517,8.4551],[-81.15073,8.44426],[-81.14656,8.44218],[-81.14334,8.44384],[-81.13775,8.43335],[-81.14593,8.41854],[-81.14872,8.41911],[-81.15301,8.43443],[-81.16037,8.43326],[-81.16573,8.4395],[-81.16893,8.43671],[-81.16951,8.45518],[-81.17879,8.45537],[-81.18375,8.4506],[-81.18956,8.45358],[-81.19237,8.44928],[-81.19359,8.45236],[-81.20043,8.45215],[-81.2026,8.44835],[-81.20651,8.45274],[-81.21002,8.44913],[-81.2172,8.45358],[-81.21033,8.44727],[-81.21527,8.44742],[-81.22151,8.44163],[-81.23121,8.44208],[-81.22238,8.44479],[-81.22243,8.44966],[-81.22403,8.45492],[-81.22941,8.45281],[-81.22878,8.45123],[-81.22918,8.44962],[-81.23559,8.45136],[-81.23801,8.45811],[-81.23643,8.4667],[-81.24087,8.47067],[-81.23892,8.47736],[-81.24079,8.48286],[-81.23426,8.48724],[-81.23315,8.49944],[-81.24474,8.50047],[-81.24689,8.49833],[-81.24865,8.50404],[-81.25355,8.50358],[-81.2552,8.49942],[-81.24841,8.48877],[-81.26256,8.48617],[-81.25114,8.46555],[-81.25345,8.45841],[-81.24978,8.45182],[-81.24988,8.44851],[-81.25821,8.45532],[-81.27025,8.45704],[-81.27589,8.46186],[-81.27714,8.46691],[-81.28352,8.47079],[-81.29934,8.45021],[-81.30452,8.45585],[-81.30522,8.46117],[-81.30065,8.46615],[-81.30164,8.47446],[-81.29904,8.47599],[-81.30027,8.48686],[-81.29107,8.49041],[-81.28199,8.50095],[-81.28801,8.50614],[-81.29912,8.50793],[-81.30141,8.51221],[-81.30277,8.50775],[-81.30602,8.50859],[-81.3114,8.50468],[-81.31177,8.49746],[-81.30829,8.49241],[-81.32346,8.48814],[-81.3154,8.50436],[-81.31455,8.56503],[-81.29283,8.5478],[-81.28472,8.52983],[-81.2739,8.51806],[-81.2639,8.51856],[-81.24999,8.52525],[-81.23615,8.52338],[-81.23048,8.52089],[-81.22352,8.50925],[-81.21232,8.50169],[-81.19512,8.50324],[-81.18445,8.49966],[-81.17504,8.50239],[-81.17096,8.51053],[-81.15812,8.51309],[-81.15528,8.5174]]]}},{"type":"Feature","properties":{"corregimiento":"Alto de Jesús","distrito":"Ñürün","provincia":"Comarca Ngäbe Buglé","bbox":[-81.51642,8.23356,-81.42201,8.29646]},"geometry":{"type":"Polygon","coordinates":[[[-81.43673,8.29202],[-81.43551,8.28746],[-81.42814,8.28599],[-81.42353,8.29025],[-81.42201,8.28216],[-81.44127,8.28679],[-81.44792,8.27922],[-81.44802,8.27493],[-81.43751,8.26817],[-81.44744,8.26625],[-81.44747,8.25754],[-81.45464,8.25395],[-81.45503,8.24506],[-81.46492,8.24087],[-81.46853,8.24446],[-81.46942,8.2373],[-81.47279,8.23366],[-81.47885,8.23752],[-81.47969,8.24661],[-81.47627,8.25232],[-81.484,8.25265],[-81.47993,8.24412],[-81.48575,8.24254],[-81.49297,8.23356],[-81.49732,8.23844],[-81.49282,8.24434],[-81.50261,8.24829],[-81.50279,8.25122],[-81.49888,8.25015],[-81.50084,8.25412],[-81.50532,8.2505],[-81.50789,8.25244],[-81.51127,8.25031],[-81.50464,8.25646],[-81.50965,8.25842],[-81.50873,8.26222],[-81.51148,8.26528],[-81.51363,8.26314],[-81.51642,8.26766],[-81.51119,8.26583],[-81.50598,8.26775],[-81.49859,8.26231],[-81.4929,8.26438],[-81.4955,8.2712],[-81.49235,8.27343],[-81.49283,8.27871],[-81.48829,8.28874],[-81.49098,8.29249],[-81.48964,8.29504],[-81.48494,8.29646],[-81.48411,8.28799],[-81.47901,8.28976],[-81.47679,8.28733],[-81.47794,8.28112],[-81.46992,8.27651],[-81.4651,8.28165],[-81.45278,8.27907],[-81.4455,8.29095],[-81.44038,8.29349],[-81.43673,8.29202]]]}},{"type":"Feature","properties":{"corregimiento":"El Bale","distrito":"Ñürün","provincia":"Comarca Ngäbe Buglé","bbox":[-81.44253,8.30466,-81.31083,8.38449]},"geometry":{"type":"Polygon","coordinates":[[[-81.35448,8.37132],[-81.3454,8.36023],[-81.33264,8.36275],[-81.32581,8.3604],[-81.31655,8.3745],[-81.31978,8.3672],[-81.31912,8.35687],[-81.31083,8.34931],[-81.32085,8.3528],[-81.32727,8.34313],[-81.33372,8.34959],[-81.33649,8.34584],[-81.33336,8.34065],[-81.33869,8.33346],[-81.33553,8.33252],[-81.3425,8.32638],[-81.34691,8.32538],[-81.35167,8.32821],[-81.35206,8.31636],[-81.35817,8.31708],[-81.35818,8.32169],[-81.36486,8.3328],[-81.35955,8.33579],[-81.36247,8.34088],[-81.35971,8.34334],[-81.36041,8.34801],[-81.36346,8.34721],[-81.3646,8.33627],[-81.37366,8.3283],[-81.36813,8.31763],[-81.3785,8.31543],[-81.38317,8.32326],[-81.38696,8.31753],[-81.38328,8.30931],[-81.39481,8.30466],[-81.39996,8.30723],[-81.39808,8.31269],[-81.39337,8.31362],[-81.399,8.31994],[-81.39355,8.32398],[-81.39926,8.32556],[-81.39702,8.32857],[-81.39265,8.32912],[-81.39049,8.32502],[-81.38795,8.32779],[-81.38419,8.33925],[-81.38581,8.34329],[-81.38853,8.34332],[-81.3924,8.34999],[-81.39718,8.34992],[-81.40436,8.32738],[-81.41271,8.32345],[-81.41589,8.32498],[-81.4145,8.32809],[-81.41947,8.32772],[-81.41881,8.32473],[-81.42589,8.32163],[-81.42944,8.32478],[-81.42876,8.33821],[-81.42568,8.33936],[-81.42027,8.33564],[-81.41755,8.33914],[-81.43053,8.34461],[-81.43058,8.34886],[-81.43352,8.34868],[-81.43265,8.34327],[-81.43589,8.3424],[-81.44253,8.35923],[-81.44131,8.3629],[-81.43672,8.36437],[-81.42781,8.36004],[-81.42375,8.36269],[-81.40993,8.36038],[-81.41109,8.35767],[-81.42732,8.3579],[-81.4283,8.35527],[-81.41674,8.35044],[-81.4214,8.34548],[-81.41171,8.34407],[-81.40944,8.3476],[-81.40057,8.34899],[-81.39655,8.3637],[-81.40094,8.36954],[-81.39435,8.36594],[-81.39289,8.37186],[-81.38727,8.37052],[-81.38856,8.37422],[-81.39378,8.37473],[-81.38357,8.37989],[-81.38278,8.38449],[-81.37685,8.37448],[-81.38082,8.37114],[-81.37629,8.36051],[-81.37111,8.36897],[-81.35448,8.37132]]]}},{"type":"Feature","properties":{"corregimiento":"El Piro","distrito":"Ñürün","provincia":"Comarca Ngäbe Buglé","bbox":[-81.54156,8.20892,-81.50886,8.25806]},"geometry":{"type":"Polygon","coordinates":[[[-81.52688,8.21806],[-81.53136,8.21127],[-81.52859,8.20907],[-81.53334,8.20892],[-81.53398,8.21078],[-81.53132,8.21065],[-81.53399,8.21346],[-81.53399,8.21512],[-81.5304,8.21559],[-81.53137,8.22263],[-81.53347,8.22487],[-81.54041,8.22393],[-81.54156,8.22991],[-81.53625,8.23274],[-81.53154,8.22703],[-81.5242,8.22833],[-81.51872,8.22398],[-81.5201,8.23247],[-81.51355,8.24548],[-81.51725,8.24442],[-81.52177,8.25105],[-81.5178,8.25405],[-81.5187,8.25806],[-81.5154,8.25769],[-81.51531,8.25011],[-81.51089,8.24865],[-81.51445,8.24024],[-81.51258,8.23701],[-81.51237,8.24192],[-81.50886,8.24314],[-81.50948,8.23066],[-81.51271,8.22421],[-81.52688,8.21806]]]}},{"type":"Feature","properties":{"corregimiento":"Agua de Salud","distrito":"Ñürün","provincia":"Comarca Ngäbe Buglé","bbox":[-81.47511,8.46738,-81.38856,8.57906]},"geometry":{"type":"Polygon","coordinates":[[[-81.38856,8.5558],[-81.39431,8.55307],[-81.39285,8.53615],[-81.39871,8.52414],[-81.40742,8.51536],[-81.40461,8.49588],[-81.39912,8.48972],[-81.40833,8.48906],[-81.41789,8.47671],[-81.41793,8.46744],[-81.427,8.46743],[-81.43907,8.47245],[-81.44188,8.46743],[-81.46915,8.46738],[-81.47511,8.47276],[-81.47343,8.47689],[-81.47002,8.4759],[-81.47095,8.491],[-81.46714,8.49771],[-81.47121,8.50243],[-81.46837,8.52863],[-81.45153,8.53818],[-81.44919,8.54687],[-81.44347,8.55181],[-81.44494,8.55743],[-81.43931,8.5624],[-81.43533,8.57906],[-81.426,8.57268],[-81.41923,8.55803],[-81.38856,8.5558]]]}},{"type":"Feature","properties":{"corregimiento":"Guayabito","distrito":"Ñürün","provincia":"Comarca Ngäbe Buglé","bbox":[-81.52143,8.49307,-81.43533,8.61098]},"geometry":{"type":"Polygon","coordinates":[[[-81.43533,8.57906],[-81.43931,8.5624],[-81.44494,8.55743],[-81.44347,8.55181],[-81.44919,8.54687],[-81.45153,8.53818],[-81.46837,8.52863],[-81.46851,8.51493],[-81.47121,8.51178],[-81.47055,8.49975],[-81.46715,8.49779],[-81.46927,8.49438],[-81.48058,8.49937],[-81.50413,8.49307],[-81.52143,8.50187],[-81.51808,8.50849],[-81.5113,8.51317],[-81.5091,8.5258],[-81.49901,8.53797],[-81.50439,8.54511],[-81.50401,8.55188],[-81.50152,8.55958],[-81.49311,8.56757],[-81.49923,8.57307],[-81.49699,8.57842],[-81.50146,8.59102],[-81.49723,8.60004],[-81.50155,8.61098],[-81.49526,8.59711],[-81.49028,8.59332],[-81.46854,8.5938],[-81.463,8.58842],[-81.43533,8.57906]]]}},{"type":"Feature","properties":{"corregimiento":"Güibale","distrito":"Ñürün","provincia":"Comarca Ngäbe Buglé","bbox":[-81.40742,8.42034,-81.31302,8.58151]},"geometry":{"type":"Polygon","coordinates":[[[-81.31455,8.56503],[-81.3154,8.50436],[-81.32346,8.48814],[-81.33445,8.4799],[-81.34483,8.48164],[-81.34387,8.48639],[-81.3373,8.48699],[-81.32186,8.50552],[-81.33005,8.50976],[-81.33195,8.51876],[-81.33865,8.52144],[-81.34185,8.51852],[-81.34055,8.51368],[-81.34334,8.50678],[-81.35439,8.50128],[-81.35668,8.49535],[-81.36056,8.49596],[-81.35971,8.49173],[-81.36279,8.48804],[-81.36133,8.48117],[-81.36365,8.47955],[-81.35881,8.46761],[-81.34351,8.47533],[-81.33355,8.46851],[-81.33427,8.46532],[-81.32384,8.46298],[-81.3162,8.46691],[-81.31302,8.45643],[-81.31427,8.45331],[-81.32481,8.45765],[-81.33408,8.45422],[-81.33715,8.45624],[-81.35592,8.45425],[-81.35647,8.44016],[-81.35334,8.43694],[-81.34861,8.43963],[-81.35081,8.44715],[-81.33231,8.43898],[-81.33348,8.43579],[-81.34373,8.43805],[-81.34297,8.42157],[-81.34978,8.42371],[-81.35241,8.42034],[-81.35765,8.42771],[-81.36051,8.42529],[-81.3717,8.42728],[-81.36497,8.43221],[-81.36341,8.43621],[-81.36667,8.43924],[-81.36408,8.44432],[-81.36884,8.45147],[-81.37233,8.45184],[-81.37115,8.45533],[-81.37867,8.46142],[-81.38157,8.46931],[-81.39066,8.47665],[-81.40428,8.49519],[-81.40742,8.51536],[-81.39871,8.52414],[-81.39285,8.53615],[-81.39375,8.5544],[-81.38304,8.55915],[-81.37582,8.55921],[-81.36958,8.55429],[-81.35643,8.57727],[-81.34633,8.58151],[-81.33456,8.57118],[-81.32462,8.57222],[-81.31455,8.56503]]]}},{"type":"Feature","properties":{"corregimiento":"Buenos Aires (Cabecera)","distrito":"Ñürün","provincia":"Comarca Ngäbe Buglé","bbox":[-81.49964,8.39624,-81.46927,8.49937]},"geometry":{"type":"Polygon","coordinates":[[[-81.46927,8.49438],[-81.46939,8.48264],[-81.47188,8.4789],[-81.47002,8.4759],[-81.47328,8.47696],[-81.47525,8.47396],[-81.47494,8.46928],[-81.4696,8.46304],[-81.47217,8.45509],[-81.46966,8.45079],[-81.47139,8.44824],[-81.47434,8.44988],[-81.47385,8.44491],[-81.47967,8.44272],[-81.48127,8.4338],[-81.47939,8.43176],[-81.48369,8.42688],[-81.4761,8.41214],[-81.47882,8.41069],[-81.47594,8.39663],[-81.48706,8.39863],[-81.49298,8.39624],[-81.49197,8.40779],[-81.49964,8.41407],[-81.49668,8.49593],[-81.48058,8.49937],[-81.46927,8.49438]]]}},{"type":"Feature","properties":{"corregimiento":"El Peñón","distrito":"Ñürün","provincia":"Comarca Ngäbe Buglé","bbox":[-81.48368,8.37866,-81.38725,8.48972]},"geometry":{"type":"Polygon","coordinates":[[[-81.39912,8.48972],[-81.38725,8.47304],[-81.38913,8.46967],[-81.39502,8.46926],[-81.40133,8.46473],[-81.40453,8.44571],[-81.41789,8.44096],[-81.40477,8.41229],[-81.40632,8.40728],[-81.41295,8.40992],[-81.41485,8.41556],[-81.4288,8.41666],[-81.41987,8.41095],[-81.41687,8.38931],[-81.42483,8.38654],[-81.43029,8.38094],[-81.44224,8.37866],[-81.44284,8.38287],[-81.44793,8.38692],[-81.44721,8.39333],[-81.44043,8.39795],[-81.43879,8.39173],[-81.43257,8.39054],[-81.42953,8.3947],[-81.43138,8.40105],[-81.42963,8.41056],[-81.43553,8.41305],[-81.43237,8.41628],[-81.44342,8.41624],[-81.44634,8.4192],[-81.4489,8.41441],[-81.45877,8.41722],[-81.45886,8.41094],[-81.45521,8.40653],[-81.44917,8.40853],[-81.44813,8.40071],[-81.45235,8.40098],[-81.45732,8.39479],[-81.45629,8.38824],[-81.46721,8.387],[-81.4737,8.39582],[-81.47199,8.3977],[-81.47595,8.39714],[-81.47882,8.41069],[-81.4761,8.41214],[-81.48368,8.42652],[-81.47937,8.43183],[-81.48127,8.4338],[-81.47967,8.44272],[-81.47385,8.44491],[-81.47434,8.44988],[-81.47139,8.44824],[-81.46966,8.45079],[-81.47217,8.45509],[-81.4696,8.46304],[-81.47511,8.47276],[-81.46915,8.46738],[-81.44188,8.46743],[-81.43907,8.47245],[-81.427,8.46743],[-81.41793,8.46744],[-81.41789,8.47671],[-81.40833,8.48906],[-81.39912,8.48972]]]}},{"type":"Feature","properties":{"corregimiento":"El Piro N°2 (Muakwata Kubu)","distrito":"Ñürün","provincia":"Comarca Ngäbe Buglé","bbox":[-81.53234,8.3959,-81.49197,8.50187]},"geometry":{"type":"Polygon","coordinates":[[[-81.49668,8.49593],[-81.49964,8.41407],[-81.49197,8.40779],[-81.49298,8.39624],[-81.51556,8.3959],[-81.51493,8.39997],[-81.51884,8.40314],[-81.51699,8.40522],[-81.5215,8.40477],[-81.52669,8.40912],[-81.52343,8.41726],[-81.52906,8.4283],[-81.52303,8.43395],[-81.52303,8.43932],[-81.5261,8.44001],[-81.52764,8.44933],[-81.5317,8.45139],[-81.53234,8.45646],[-81.52899,8.45985],[-81.53146,8.4635],[-81.52758,8.47139],[-81.52779,8.48782],[-81.52143,8.50187],[-81.50449,8.49314],[-81.49668,8.49593]]]}}]}