{"type":"FeatureCollection","features":[{"type":"Feature","properties":{"corregimiento":"Gworoni","distrito":"Kankintú","provincia":"Comarca Ngäbe Buglé","bbox":[-81.86029,8.5606,-81.61542,8.84132]},"geometry":{"type":"Polygon","coordinates":[[[-81.69422,8.7201],[-81.67863,8.71423],[-81.67245,8.70422],[-81.66744,8.70403],[-81.66233,8.69951],[-81.65796,8.6916],[-81.65151,8.68913],[-81.64564,8.67559],[-81.63623,8.6709],[-81.63037,8.66363],[-81.62917,8.64885],[-81.63563,8.64062],[-81.63853,8.63348],[-81.63731,8.62932],[-81.64106,8.62572],[-81.61542,8.5932],[-81.61858,8.57334],[-81.62659,8.56118],[-81.65762,8.56614],[-81.6663,8.56069],[-81.67386,8.5606],[-81.7092,8.58116],[-81.70437,8.59904],[-81.70851,8.60203],[-81.71102,8.6214],[-81.72085,8.6265],[-81.72423,8.63207],[-81.7376,8.64135],[-81.74888,8.64202],[-81.76407,8.63777],[-81.80466,8.65412],[-81.85862,8.67104],[-81.86029,8.75253],[-81.80005,8.80622],[-81.79255,8.80299],[-81.76527,8.81419],[-81.76061,8.84132],[-81.76038,8.8367],[-81.75366,8.83145],[-81.75387,8.82353],[-81.74572,8.81484],[-81.74812,8.80596],[-81.7426,8.78966],[-81.74423,8.7814],[-81.73985,8.77992],[-81.73597,8.77324],[-81.7294,8.77233],[-81.73212,8.76289],[-81.72696,8.75741],[-81.71712,8.75188],[-81.70453,8.75207],[-81.6999,8.74671],[-81.7006,8.73344],[-81.69498,8.72681],[-81.69422,8.7201]]]}},{"type":"Feature","properties":{"corregimiento":"Kankintú","distrito":"Kankintú","provincia":"Comarca Ngäbe Buglé","bbox":[-81.90099,8.75253,-81.75768,8.88889]},"geometry":{"type":"Polygon","coordinates":[[[-81.75768,8.86626],[-81.76527,8.81419],[-81.79255,8.80299],[-81.80005,8.80622],[-81.86029,8.75253],[-81.85443,8.75971],[-81.86211,8.7703],[-81.85884,8.77648],[-81.8593,8.79152],[-81.85317,8.80226],[-81.85413,8.82157],[-81.86069,8.82924],[-81.87541,8.83658],[-81.88405,8.85611],[-81.89491,8.86051],[-81.89221,8.86684],[-81.89614,8.87436],[-81.90099,8.87639],[-81.89195,8.87484],[-81.8872,8.87681],[-81.88251,8.87418],[-81.8765,8.87828],[-81.87248,8.87569],[-81.85249,8.8873],[-81.84394,8.88889],[-81.8394,8.88681],[-81.83775,8.87768],[-81.83016,8.86921],[-81.81957,8.86815],[-81.81528,8.8634],[-81.79519,8.85528],[-81.79534,8.84412],[-81.7858,8.83807],[-81.7792,8.84373],[-81.772,8.86848],[-81.76107,8.87312],[-81.75768,8.86626]]]}},{"type":"Feature","properties":{"corregimiento":"Piedra Roja","distrito":"Kankintú","provincia":"Comarca Ngäbe Buglé","bbox":[-81.82201,8.53851,-81.74155,8.65403]},"geometry":{"type":"Polygon","coordinates":[[[-81.75131,8.6397],[-81.74724,8.61958],[-81.75195,8.61466],[-81.7538,8.60397],[-81.74798,8.59089],[-81.74911,8.5857],[-81.74469,8.58299],[-81.74155,8.57501],[-81.75014,8.53851],[-81.77558,8.54819],[-81.78572,8.54627],[-81.78794,8.55254],[-81.80345,8.55954],[-81.82201,8.58137],[-81.81273,8.59211],[-81.80835,8.60496],[-81.81048,8.61519],[-81.80403,8.6231],[-81.80609,8.64126],[-81.80305,8.64594],[-81.80445,8.65403],[-81.76407,8.63777],[-81.75131,8.6397]]]}},{"type":"Feature","properties":{"corregimiento":"Calante","distrito":"Kankintú","provincia":"Comarca Ngäbe Buglé","bbox":[-81.92423,8.67104,-81.85317,8.87895]},"geometry":{"type":"Polygon","coordinates":[[[-81.90617,8.87895],[-81.89614,8.87436],[-81.89221,8.86684],[-81.89491,8.86051],[-81.88405,8.85611],[-81.87541,8.83658],[-81.86069,8.82924],[-81.8541,8.82144],[-81.85317,8.80226],[-81.8593,8.79152],[-81.85884,8.77648],[-81.86211,8.7703],[-81.85442,8.7598],[-81.86029,8.75253],[-81.85862,8.67104],[-81.8666,8.67157],[-81.86667,8.67496],[-81.87242,8.6791],[-81.87121,8.70223],[-81.88106,8.71065],[-81.88132,8.71909],[-81.8848,8.72471],[-81.90196,8.73422],[-81.90343,8.74745],[-81.90113,8.75404],[-81.90882,8.7561],[-81.91068,8.76364],[-81.92423,8.78462],[-81.91767,8.79836],[-81.91096,8.80147],[-81.91928,8.80992],[-81.91237,8.8197],[-81.90748,8.82086],[-81.90371,8.83028],[-81.90252,8.86378],[-81.90453,8.86701],[-81.90969,8.86755],[-81.90617,8.87895]]]}},{"type":"Feature","properties":{"corregimiento":"Tolote","distrito":"Kankintú","provincia":"Comarca Ngäbe Buglé","bbox":[-81.88379,8.49571,-81.75014,8.67104]},"geometry":{"type":"Polygon","coordinates":[[[-81.80445,8.65403],[-81.80305,8.64594],[-81.80609,8.64126],[-81.80403,8.6231],[-81.81048,8.61519],[-81.80835,8.60496],[-81.81273,8.59211],[-81.82201,8.58137],[-81.80345,8.55954],[-81.78794,8.55254],[-81.78572,8.54627],[-81.77558,8.54819],[-81.75014,8.53851],[-81.75294,8.52525],[-81.76746,8.52516],[-81.76688,8.49571],[-81.7719,8.49727],[-81.77192,8.50093],[-81.78003,8.50686],[-81.79158,8.5124],[-81.79529,8.52786],[-81.82705,8.55355],[-81.83657,8.57582],[-81.84429,8.57861],[-81.86055,8.59663],[-81.86772,8.59343],[-81.88379,8.59818],[-81.88165,8.60744],[-81.87748,8.61059],[-81.87748,8.61737],[-81.88192,8.62172],[-81.87679,8.63032],[-81.87893,8.63479],[-81.87522,8.64153],[-81.87915,8.64987],[-81.85862,8.67104],[-81.80445,8.65403]]]}},{"type":"Feature","properties":{"corregimiento":"Bisira (Cabecera)","distrito":"Kankintú","provincia":"Comarca Ngäbe Buglé","bbox":[-81.95027,8.83807,-81.74334,8.99104]},"geometry":{"type":"Polygon","coordinates":[[[-81.92405,8.99104],[-81.91325,8.98263],[-81.89987,8.9805],[-81.89304,8.9735],[-81.89088,8.96863],[-81.89953,8.97693],[-81.9001,8.97188],[-81.89612,8.96726],[-81.90174,8.95779],[-81.89924,8.95777],[-81.90137,8.95722],[-81.89997,8.95538],[-81.89367,8.95621],[-81.89155,8.95991],[-81.87739,8.95977],[-81.86653,8.96568],[-81.85803,8.96554],[-81.84869,8.9603],[-81.836,8.96156],[-81.82552,8.95654],[-81.81173,8.94485],[-81.82237,8.94507],[-81.82046,8.94081],[-81.8087,8.94162],[-81.80488,8.9361],[-81.78635,8.94351],[-81.77546,8.9573],[-81.76926,8.9777],[-81.77054,8.98188],[-81.77652,8.98543],[-81.77444,8.99018],[-81.76636,8.98569],[-81.74384,8.98475],[-81.74334,8.97421],[-81.74798,8.96443],[-81.74592,8.95993],[-81.75227,8.95717],[-81.74982,8.95094],[-81.7515,8.94709],[-81.76273,8.93513],[-81.76061,8.92201],[-81.75535,8.91354],[-81.75768,8.86626],[-81.76107,8.87312],[-81.772,8.86848],[-81.7792,8.84373],[-81.7858,8.83807],[-81.79534,8.84412],[-81.79519,8.85528],[-81.81528,8.8634],[-81.81957,8.86815],[-81.83016,8.86921],[-81.83775,8.87768],[-81.8394,8.88681],[-81.84394,8.88889],[-81.85249,8.8873],[-81.87248,8.87569],[-81.8765,8.87828],[-81.88265,8.87417],[-81.8872,8.87681],[-81.89195,8.87484],[-81.90285,8.87668],[-81.90708,8.87959],[-81.91533,8.87349],[-81.92529,8.87809],[-81.92848,8.87599],[-81.94287,8.88217],[-81.94351,8.88554],[-81.94927,8.88572],[-81.94546,8.895],[-81.939,8.89543],[-81.9423,8.90128],[-81.93724,8.91001],[-81.94063,8.91389],[-81.94852,8.91304],[-81.94543,8.91816],[-81.95027,8.93873],[-81.9493,8.94218],[-81.93361,8.94654],[-81.92526,8.95548],[-81.92177,8.9709],[-81.93106,8.97868],[-81.92405,8.99104]]]}},{"type":"Feature","properties":{"corregimiento":"Mününi","distrito":"Kankintú","provincia":"Comarca Ngäbe Buglé","bbox":[-81.76746,8.49571,-81.67727,8.64143]},"geometry":{"type":"Polygon","coordinates":[[[-81.67727,8.56154],[-81.68244,8.55007],[-81.68244,8.53891],[-81.69196,8.52631],[-81.69419,8.51651],[-81.70187,8.50783],[-81.71262,8.50508],[-81.71855,8.50982],[-81.72493,8.50938],[-81.73967,8.50356],[-81.7452,8.50804],[-81.75653,8.49653],[-81.76688,8.49571],[-81.76746,8.52516],[-81.75294,8.52525],[-81.74155,8.57486],[-81.74469,8.58299],[-81.74911,8.5857],[-81.74798,8.59089],[-81.75382,8.60409],[-81.75195,8.61466],[-81.74724,8.61958],[-81.75011,8.64143],[-81.7376,8.64135],[-81.72423,8.63207],[-81.72085,8.6265],[-81.7115,8.62212],[-81.70822,8.61287],[-81.70851,8.60203],[-81.70437,8.59904],[-81.7092,8.58116],[-81.67727,8.56154]]]}}]}