{"type":"FeatureCollection","features":[{"type":"Feature","properties":{"corregimiento":"Bahía Azul","distrito":"Kusapín","provincia":"Comarca Ngäbe Buglé","bbox":[-81.94726,8.9882,-81.75114,9.15093]},"geometry":{"type":"Polygon","coordinates":[[[-81.93878,9.15093],[-81.93878,9.14265],[-81.9293,9.14362],[-81.9224,9.15028],[-81.91501,9.14229],[-81.90605,9.13803],[-81.90213,9.14108],[-81.90532,9.14515],[-81.9017,9.14627],[-81.89215,9.14344],[-81.89226,9.13951],[-81.88096,9.13842],[-81.87898,9.14311],[-81.865,9.13609],[-81.85513,9.13468],[-81.85206,9.13126],[-81.8534,9.12643],[-81.85883,9.13317],[-81.8642,9.13371],[-81.86576,9.12888],[-81.87186,9.13411],[-81.87701,9.12281],[-81.87227,9.1107],[-81.85748,9.09355],[-81.84616,9.09206],[-81.84134,9.08639],[-81.84186,9.08232],[-81.83694,9.08109],[-81.83564,9.06331],[-81.83072,9.05672],[-81.81217,9.0459],[-81.80771,9.04937],[-81.79872,9.04611],[-81.79394,9.04947],[-81.78403,9.04858],[-81.78075,9.04263],[-81.77422,9.04],[-81.77298,9.03555],[-81.75662,9.02917],[-81.75114,9.0134],[-81.75784,9.00166],[-81.7554,8.99486],[-81.76545,8.9882],[-81.77239,8.989],[-81.77596,9.00188],[-81.78294,9.00868],[-81.79175,9.0096],[-81.79349,9.01337],[-81.80242,9.01481],[-81.80549,9.01846],[-81.8282,9.02344],[-81.84223,9.03644],[-81.84397,9.04285],[-81.86487,9.05815],[-81.86202,9.06939],[-81.86458,9.07429],[-81.87215,9.07809],[-81.87558,9.08886],[-81.88563,9.09599],[-81.89086,9.09633],[-81.88974,9.10143],[-81.89858,9.10556],[-81.90047,9.1111],[-81.9111,9.11674],[-81.91277,9.11375],[-81.91385,9.11386],[-81.92292,9.12496],[-81.93213,9.12757],[-81.94726,9.13759],[-81.94504,9.1472],[-81.93878,9.15093]]]}},{"type":"Feature","properties":{"corregimiento":"Río Chiriquí","distrito":"Kusapín","provincia":"Comarca Ngäbe Buglé","bbox":[-81.72437,8.58872,-81.49987,9.01252]},"geometry":{"type":"Polygon","coordinates":[[[-81.54493,8.82496],[-81.54954,8.82297],[-81.54189,8.79841],[-81.54381,8.79251],[-81.55,8.78943],[-81.54968,8.78589],[-81.54838,8.78406],[-81.5446,8.78583],[-81.54267,8.77898],[-81.53591,8.78182],[-81.53676,8.7734],[-81.53433,8.77056],[-81.5384,8.76756],[-81.53688,8.76128],[-81.54075,8.75991],[-81.53931,8.75156],[-81.55083,8.7413],[-81.54686,8.73685],[-81.54408,8.73835],[-81.53979,8.73599],[-81.54249,8.73064],[-81.53292,8.72135],[-81.52762,8.71066],[-81.51442,8.70936],[-81.50791,8.70294],[-81.503,8.70727],[-81.50215,8.69433],[-81.50595,8.6911],[-81.50863,8.68111],[-81.50878,8.6697],[-81.50468,8.66132],[-81.50898,8.65278],[-81.50483,8.64326],[-81.49987,8.63912],[-81.50362,8.63051],[-81.50924,8.62864],[-81.51503,8.62033],[-81.52684,8.61824],[-81.54218,8.62052],[-81.55733,8.61739],[-81.55908,8.62241],[-81.568,8.62401],[-81.57696,8.62956],[-81.58062,8.62857],[-81.57414,8.62286],[-81.58304,8.6152],[-81.58302,8.60457],[-81.59071,8.59975],[-81.60158,8.59761],[-81.6035,8.59402],[-81.61585,8.58872],[-81.6188,8.59993],[-81.62602,8.60388],[-81.6334,8.61878],[-81.64106,8.62572],[-81.63731,8.62932],[-81.63853,8.63348],[-81.63563,8.64062],[-81.62917,8.64885],[-81.63044,8.66375],[-81.63623,8.6709],[-81.64564,8.67559],[-81.65151,8.68913],[-81.65796,8.6916],[-81.66233,8.69951],[-81.66744,8.70403],[-81.67245,8.70422],[-81.67863,8.71423],[-81.68585,8.71763],[-81.68572,8.72231],[-81.67773,8.73012],[-81.673,8.75028],[-81.67005,8.75111],[-81.67086,8.76171],[-81.67879,8.77086],[-81.67463,8.79452],[-81.67855,8.79422],[-81.6796,8.79932],[-81.68585,8.80007],[-81.68812,8.80363],[-81.68567,8.80687],[-81.6901,8.8056],[-81.69326,8.81186],[-81.69929,8.80883],[-81.70094,8.81116],[-81.70065,8.81431],[-81.69509,8.81429],[-81.69751,8.82248],[-81.69395,8.8251],[-81.70039,8.83454],[-81.69772,8.84351],[-81.7029,8.85739],[-81.70172,8.86485],[-81.71333,8.87213],[-81.7116,8.87864],[-81.69997,8.88719],[-81.69914,8.89811],[-81.69104,8.90306],[-81.6876,8.90146],[-81.68431,8.91163],[-81.68572,8.91538],[-81.68946,8.91416],[-81.68796,8.91025],[-81.69225,8.91002],[-81.69598,8.91298],[-81.694,8.91707],[-81.69688,8.92386],[-81.70407,8.9277],[-81.70538,8.92543],[-81.70895,8.92688],[-81.71298,8.93295],[-81.71847,8.93293],[-81.72437,8.93693],[-81.71837,8.95201],[-81.72429,8.96067],[-81.71058,8.97412],[-81.71705,8.99021],[-81.71651,8.99608],[-81.71196,9.00125],[-81.71606,9.00898],[-81.71436,9.01252],[-81.6527,8.93333],[-81.61305,8.88826],[-81.57075,8.84585],[-81.54493,8.82496]]]}},{"type":"Feature","properties":{"corregimiento":"Tobobe","distrito":"Kusapín","provincia":"Comarca Ngäbe Buglé","bbox":[-81.87662,8.90314,-81.71079,9.13414]},"geometry":{"type":"Polygon","coordinates":[[[-81.86576,9.12888],[-81.86205,9.13411],[-81.85679,9.13197],[-81.85398,9.12645],[-81.84375,9.12708],[-81.82648,9.12311],[-81.81816,9.12561],[-81.82102,9.12178],[-81.83207,9.11918],[-81.83335,9.11602],[-81.84198,9.11783],[-81.84862,9.11501],[-81.84272,9.11096],[-81.83857,9.11171],[-81.83656,9.09804],[-81.82836,9.09653],[-81.83106,9.08946],[-81.82613,9.0834],[-81.82641,9.07547],[-81.82237,9.06853],[-81.82627,9.06629],[-81.82354,9.0633],[-81.82093,9.06312],[-81.82109,9.06654],[-81.81612,9.06401],[-81.80678,9.0744],[-81.80927,9.06961],[-81.80563,9.06541],[-81.7942,9.06373],[-81.78794,9.06727],[-81.77927,9.06269],[-81.7618,9.06366],[-81.76043,9.05517],[-81.7527,9.04759],[-81.74634,9.04342],[-81.74403,9.04503],[-81.73658,9.04195],[-81.73254,9.03545],[-81.72221,9.03788],[-81.72166,9.03332],[-81.71722,9.02937],[-81.71422,9.01516],[-81.71608,9.0091],[-81.71195,9.00133],[-81.71651,8.99608],[-81.71705,8.99021],[-81.71079,8.9733],[-81.72429,8.96067],[-81.71837,8.95201],[-81.72265,8.93911],[-81.72646,8.93723],[-81.73113,8.926],[-81.74207,8.91784],[-81.75225,8.90422],[-81.7546,8.90314],[-81.75598,8.90581],[-81.75544,8.91419],[-81.76061,8.92201],[-81.76273,8.93513],[-81.7515,8.94709],[-81.74982,8.95094],[-81.75227,8.95717],[-81.74592,8.95993],[-81.74798,8.96443],[-81.74279,8.98249],[-81.75062,8.98669],[-81.76416,8.98532],[-81.76866,8.9877],[-81.75515,8.99536],[-81.75784,9.00166],[-81.75114,9.01359],[-81.75648,9.02898],[-81.77311,9.03563],[-81.77422,9.04],[-81.78075,9.04263],[-81.78403,9.04858],[-81.79394,9.04947],[-81.79872,9.04611],[-81.80771,9.04937],[-81.81217,9.0459],[-81.83094,9.05689],[-81.83564,9.06331],[-81.83694,9.08109],[-81.84186,9.08232],[-81.84134,9.08639],[-81.84616,9.09206],[-81.85748,9.09355],[-81.87245,9.11101],[-81.87662,9.12438],[-81.87178,9.13414],[-81.86576,9.12888]]]}},{"type":"Feature","properties":{"corregimiento":"Cañaveral","distrito":"Kusapín","provincia":"Comarca Ngäbe Buglé","bbox":[-81.76055,8.71763,-81.67005,8.93723]},"geometry":{"type":"Polygon","coordinates":[[[-81.68585,8.71763],[-81.69422,8.7201],[-81.69498,8.72681],[-81.7006,8.73344],[-81.6999,8.74671],[-81.70453,8.75207],[-81.71712,8.75188],[-81.72696,8.75741],[-81.73212,8.76289],[-81.7294,8.77233],[-81.73597,8.77324],[-81.73985,8.77992],[-81.74415,8.78128],[-81.74261,8.78972],[-81.74812,8.80596],[-81.74575,8.81494],[-81.75402,8.82382],[-81.7539,8.83192],[-81.76055,8.83708],[-81.7546,8.90314],[-81.73113,8.926],[-81.72646,8.93723],[-81.71298,8.93295],[-81.7087,8.92677],[-81.70538,8.92543],[-81.70407,8.9277],[-81.69688,8.92386],[-81.694,8.91707],[-81.69598,8.91298],[-81.69225,8.91002],[-81.68796,8.91025],[-81.68946,8.91416],[-81.68572,8.91538],[-81.68433,8.91175],[-81.6876,8.90146],[-81.69104,8.90306],[-81.69914,8.89811],[-81.69997,8.88719],[-81.7116,8.87864],[-81.71333,8.87213],[-81.70172,8.86485],[-81.7029,8.85739],[-81.69772,8.84351],[-81.70039,8.83454],[-81.69395,8.8251],[-81.69751,8.82248],[-81.69509,8.81429],[-81.70065,8.81431],[-81.70094,8.81116],[-81.69929,8.80883],[-81.69326,8.81186],[-81.6901,8.8056],[-81.68567,8.80687],[-81.68812,8.80363],[-81.68585,8.80007],[-81.6796,8.79932],[-81.67855,8.79422],[-81.67463,8.79452],[-81.67879,8.77086],[-81.67086,8.76171],[-81.67005,8.75111],[-81.673,8.75028],[-81.67773,8.73012],[-81.68572,8.72231],[-81.68585,8.71763]]]}},{"type":"Feature","properties":{"corregimiento":"Kusapín","distrito":"Kusapín","provincia":"Comarca Ngäbe Buglé","bbox":[-81.92064,9.12311,-81.81818,9.18623]},"geometry":{"type":"Polygon","coordinates":[[[-81.89333,9.18623],[-81.88679,9.18214],[-81.88008,9.18304],[-81.87198,9.1684],[-81.86722,9.16691],[-81.86524,9.15835],[-81.85583,9.14974],[-81.85384,9.14326],[-81.84154,9.13624],[-81.83432,9.1364],[-81.82793,9.12606],[-81.81818,9.12562],[-81.82648,9.12311],[-81.85323,9.12649],[-81.85206,9.13126],[-81.85513,9.13468],[-81.87697,9.14043],[-81.88153,9.14659],[-81.87816,9.14905],[-81.87265,9.14792],[-81.8702,9.1543],[-81.88401,9.15862],[-81.8933,9.15839],[-81.89613,9.16156],[-81.90179,9.161],[-81.90515,9.15731],[-81.91599,9.16337],[-81.92064,9.18374],[-81.91132,9.1858],[-81.90496,9.18288],[-81.89333,9.18623]]]}}]}