{"type":"FeatureCollection","features":[{"type":"Feature","properties":{"corregimiento":"Samboa (Cabecera)","distrito":"Jirondai","provincia":"Comarca Ngäbe Buglé","bbox":[-82.13154,8.6328,-81.9786,8.86561]},"geometry":{"type":"Polygon","coordinates":[[[-82.03131,8.8639],[-82.01624,8.84286],[-81.99611,8.83036],[-81.98269,8.81668],[-81.98381,8.81101],[-81.9786,8.80381],[-81.98504,8.78782],[-81.98163,8.75612],[-81.98899,8.74524],[-81.99006,8.73684],[-82.0,8.72912],[-82.00325,8.72986],[-82.013,8.72375],[-82.03047,8.72711],[-82.04646,8.72341],[-82.05081,8.71298],[-82.05864,8.70706],[-82.06598,8.69063],[-82.07266,8.68442],[-82.07257,8.67964],[-82.05395,8.65958],[-82.05513,8.64766],[-82.05008,8.63615],[-82.05907,8.63523],[-82.06359,8.63988],[-82.06983,8.64125],[-82.07655,8.63286],[-82.08065,8.6328],[-82.09878,8.64115],[-82.12116,8.64601],[-82.12721,8.65104],[-82.13154,8.65904],[-82.12421,8.66922],[-82.12563,8.67408],[-82.12216,8.6836],[-82.12928,8.69965],[-82.12606,8.70799],[-82.11778,8.712],[-82.11328,8.72392],[-82.11335,8.72898],[-82.11783,8.73041],[-82.11238,8.74472],[-82.11513,8.75183],[-82.11182,8.76275],[-82.11438,8.76641],[-82.08468,8.76887],[-82.0865,8.77294],[-82.08263,8.77998],[-82.08522,8.79561],[-82.06999,8.8022],[-82.06624,8.80145],[-82.06058,8.81358],[-82.05421,8.81439],[-82.0502,8.81071],[-82.04845,8.82202],[-82.04043,8.82189],[-82.03218,8.83282],[-82.03299,8.84112],[-82.03067,8.84479],[-82.03465,8.85092],[-82.03245,8.86095],[-82.03848,8.86561],[-82.03131,8.8639]]]}},{"type":"Feature","properties":{"corregimiento":"Büri","distrito":"Jirondai","provincia":"Comarca Ngäbe Buglé","bbox":[-82.35923,8.76395,-82.10507,8.96751]},"geometry":{"type":"Polygon","coordinates":[[[-82.18753,8.95527],[-82.19084,8.9494],[-82.1897,8.94407],[-82.19861,8.94295],[-82.19738,8.93818],[-82.19231,8.93924],[-82.19644,8.93155],[-82.19414,8.92652],[-82.19982,8.92664],[-82.19709,8.92469],[-82.19868,8.92017],[-82.2059,8.9217],[-82.20883,8.92828],[-82.21041,8.92435],[-82.21463,8.92478],[-82.21426,8.9106],[-82.21833,8.90298],[-82.20678,8.90046],[-82.19246,8.90409],[-82.18738,8.89656],[-82.18428,8.88102],[-82.19099,8.87175],[-82.19036,8.86435],[-82.18412,8.86136],[-82.18073,8.85248],[-82.16849,8.86213],[-82.1667,8.86809],[-82.16946,8.87485],[-82.16743,8.88011],[-82.16068,8.88326],[-82.1601,8.89354],[-82.14837,8.90227],[-82.12532,8.9098],[-82.13062,8.90425],[-82.13597,8.90382],[-82.13817,8.88139],[-82.14327,8.8739],[-82.13856,8.86908],[-82.1398,8.86229],[-82.14718,8.86088],[-82.152,8.85477],[-82.1488,8.84559],[-82.14886,8.83088],[-82.15275,8.81865],[-82.14049,8.81162],[-82.13454,8.81289],[-82.12641,8.8089],[-82.12276,8.79614],[-82.10507,8.77806],[-82.11438,8.76641],[-82.11907,8.76944],[-82.12652,8.76676],[-82.16396,8.76993],[-82.16751,8.76616],[-82.17431,8.76724],[-82.18172,8.76395],[-82.18495,8.77131],[-82.19643,8.77101],[-82.21749,8.78651],[-82.22814,8.78572],[-82.23142,8.77794],[-82.23663,8.77423],[-82.25371,8.78131],[-82.2683,8.77978],[-82.27774,8.78402],[-82.30707,8.78451],[-82.31779,8.79206],[-82.3202,8.79856],[-82.33129,8.79841],[-82.34149,8.80259],[-82.34396,8.7999],[-82.34709,8.80251],[-82.35233,8.81593],[-82.35923,8.82069],[-82.35415,8.84244],[-82.35046,8.8451],[-82.3495,8.87889],[-82.34631,8.88373],[-82.33541,8.88953],[-82.32306,8.88715],[-82.30948,8.89121],[-82.30496,8.89735],[-82.28751,8.90281],[-82.28334,8.90998],[-82.28441,8.91644],[-82.27965,8.92284],[-82.26792,8.92276],[-82.26336,8.93351],[-82.25817,8.93743],[-82.23898,8.93907],[-82.23178,8.95144],[-82.22398,8.95274],[-82.21879,8.9624],[-82.2015,8.96751],[-82.20928,8.96049],[-82.20818,8.95819],[-82.20202,8.96177],[-82.19877,8.95748],[-82.18753,8.95527]]]}},{"type":"Feature","properties":{"corregimiento":"Gwaribiara","distrito":"Jirondai","provincia":"Comarca Ngäbe Buglé","bbox":[-82.07257,8.63563,-81.85862,8.94463]},"geometry":{"type":"Polygon","coordinates":[[[-81.97151,8.94463],[-81.96617,8.9411],[-81.96193,8.94376],[-81.9568,8.9406],[-81.95264,8.94239],[-81.94883,8.93639],[-81.94549,8.91873],[-81.94852,8.91304],[-81.94108,8.91399],[-81.93748,8.91131],[-81.93888,8.90416],[-81.9423,8.90128],[-81.939,8.89543],[-81.94523,8.8952],[-81.94981,8.8862],[-81.94351,8.88554],[-81.94287,8.88217],[-81.92848,8.87599],[-81.92529,8.87809],[-81.91533,8.87349],[-81.90622,8.87916],[-81.90969,8.86748],[-81.90453,8.86701],[-81.90252,8.86378],[-81.90353,8.83112],[-81.90726,8.82114],[-81.91237,8.8197],[-81.91923,8.81007],[-81.91096,8.80147],[-81.91767,8.79836],[-81.92423,8.78462],[-81.91068,8.76364],[-81.90882,8.7561],[-81.90113,8.75404],[-81.90343,8.74745],[-81.90196,8.73422],[-81.8848,8.72471],[-81.88132,8.71909],[-81.88106,8.71065],[-81.87121,8.70223],[-81.87242,8.6791],[-81.86667,8.67496],[-81.8666,8.67157],[-81.85862,8.67104],[-81.87915,8.64987],[-81.88796,8.66145],[-81.89179,8.65799],[-81.90058,8.65688],[-81.91219,8.64296],[-81.92167,8.6417],[-81.93033,8.63669],[-81.9502,8.63563],[-81.95635,8.64105],[-81.95773,8.64748],[-81.96198,8.64317],[-81.96721,8.64369],[-81.97725,8.63874],[-81.98632,8.63998],[-81.99081,8.64427],[-82.0115,8.63889],[-82.03014,8.64493],[-82.05008,8.63615],[-82.05513,8.64766],[-82.05395,8.65958],[-82.07257,8.67964],[-82.07245,8.68527],[-82.06598,8.69063],[-82.05867,8.70701],[-82.05081,8.71298],[-82.04643,8.72343],[-82.03047,8.72711],[-82.013,8.72375],[-82.00325,8.72986],[-82.0,8.72912],[-81.99006,8.73684],[-81.98899,8.74524],[-81.98138,8.75823],[-81.98504,8.78782],[-81.9786,8.80381],[-81.98381,8.81101],[-81.98269,8.81668],[-81.99611,8.83036],[-82.0163,8.84292],[-82.03131,8.8639],[-82.03484,8.87953],[-82.02073,8.8883],[-82.02485,8.89249],[-82.0231,8.89584],[-82.01638,8.89346],[-82.0218,8.90035],[-82.01146,8.8981],[-82.01463,8.90257],[-82.00897,8.9072],[-82.00823,8.91208],[-82.00168,8.91289],[-81.99069,8.92612],[-81.98099,8.92739],[-81.97849,8.93253],[-81.97363,8.93467],[-81.97151,8.94463]]]}},{"type":"Feature","properties":{"corregimiento":"Man Creek","distrito":"Jirondai","provincia":"Comarca Ngäbe Buglé","bbox":[-82.15275,8.76641,-81.97229,8.9564]},"geometry":{"type":"Polygon","coordinates":[[[-81.97229,8.94288],[-81.97342,8.93494],[-81.97858,8.93244],[-81.98076,8.92755],[-81.98988,8.92665],[-82.00168,8.91289],[-82.00829,8.91202],[-82.0089,8.9073],[-82.01463,8.90257],[-82.0114,8.89816],[-82.02186,8.90029],[-82.01638,8.89346],[-82.0231,8.89584],[-82.02485,8.89249],[-82.02073,8.8883],[-82.03464,8.88003],[-82.03131,8.8639],[-82.03848,8.86561],[-82.03245,8.86095],[-82.03465,8.85078],[-82.03067,8.84479],[-82.033,8.84078],[-82.0307,8.83597],[-82.03797,8.8242],[-82.04372,8.82052],[-82.04845,8.82202],[-82.0502,8.81071],[-82.05421,8.81439],[-82.06058,8.81358],[-82.06624,8.80145],[-82.06999,8.8022],[-82.08522,8.79561],[-82.08263,8.77998],[-82.0865,8.77294],[-82.08494,8.76862],[-82.11438,8.76641],[-82.10507,8.77806],[-82.12276,8.79614],[-82.12641,8.8089],[-82.13454,8.81289],[-82.14049,8.81162],[-82.15275,8.81865],[-82.14886,8.83088],[-82.1488,8.84559],[-82.15206,8.85452],[-82.14718,8.86088],[-82.13947,8.86318],[-82.13856,8.86908],[-82.14327,8.8739],[-82.13817,8.88139],[-82.13597,8.90382],[-82.13062,8.90425],[-82.12512,8.90983],[-82.09316,8.90617],[-82.09054,8.91021],[-82.09232,8.91516],[-82.08538,8.92126],[-82.08628,8.92653],[-82.09627,8.92693],[-82.09692,8.93114],[-82.10165,8.92752],[-82.10305,8.9318],[-82.08447,8.93398],[-82.08657,8.93296],[-82.08408,8.92985],[-82.08574,8.93077],[-82.08674,8.92982],[-82.08408,8.92493],[-82.07749,8.92303],[-82.07005,8.9284],[-82.07227,8.93323],[-82.06079,8.93885],[-82.05748,8.93472],[-82.06139,8.92685],[-82.0548,8.92201],[-82.05443,8.91372],[-82.06314,8.91008],[-82.06098,8.9119],[-82.06431,8.91849],[-82.0685,8.91326],[-82.07063,8.91598],[-82.07426,8.91327],[-82.07316,8.90869],[-82.06749,8.90419],[-82.06369,8.9049],[-82.06433,8.90825],[-82.05403,8.90611],[-82.0313,8.93066],[-82.03737,8.93728],[-82.05179,8.9366],[-82.0564,8.94143],[-82.03241,8.94494],[-82.01585,8.95387],[-82.01455,8.95155],[-82.01868,8.94582],[-82.01615,8.93734],[-82.02227,8.92868],[-82.01894,8.91329],[-82.02702,8.91712],[-82.02704,8.91088],[-82.02213,8.91168],[-82.02344,8.90497],[-82.02629,8.90838],[-82.02714,8.90641],[-82.0351,8.90927],[-82.0344,8.9004],[-82.04105,8.90344],[-82.0426,8.89804],[-82.03704,8.89285],[-82.03592,8.89878],[-82.03085,8.90048],[-82.03134,8.90387],[-82.02822,8.90194],[-82.02774,8.89689],[-82.02454,8.89848],[-82.02554,8.90244],[-82.02093,8.90507],[-82.02163,8.91111],[-82.01834,8.90973],[-82.01053,8.91666],[-82.01088,8.91982],[-82.01588,8.91774],[-82.01897,8.92518],[-82.01802,8.93122],[-82.01216,8.93619],[-82.0165,8.94528],[-82.01043,8.94991],[-82.01072,8.95343],[-81.99675,8.9564],[-81.98232,8.94189],[-81.97229,8.94288]]]}},{"type":"Feature","properties":{"corregimiento":"Tu Gwai (Tuwai)","distrito":"Jirondai","provincia":"Comarca Ngäbe Buglé","bbox":[-82.42336,8.88718,-82.20641,9.14756]},"geometry":{"type":"Polygon","coordinates":[[[-82.27553,9.0926],[-82.27524,9.0826],[-82.28007,9.07755],[-82.2689,9.07983],[-82.26609,9.07568],[-82.27386,9.0753],[-82.27698,9.0704],[-82.28457,9.07087],[-82.29069,9.06562],[-82.2928,9.06702],[-82.29584,9.05755],[-82.30016,9.05874],[-82.30796,9.05439],[-82.30539,9.04925],[-82.30165,9.0498],[-82.29973,9.04375],[-82.29621,9.04352],[-82.30406,9.04077],[-82.31021,9.04606],[-82.31543,9.03923],[-82.32041,9.03802],[-82.31876,9.03572],[-82.32127,9.02745],[-82.31393,9.02613],[-82.31147,9.01901],[-82.31743,9.0196],[-82.31957,9.01346],[-82.31451,9.00615],[-82.31227,9.00934],[-82.30375,9.00197],[-82.30023,9.00654],[-82.29607,9.0008],[-82.28834,9.01578],[-82.27949,9.00794],[-82.27712,9.01538],[-82.27378,9.01678],[-82.26851,9.01292],[-82.27308,9.00981],[-82.26831,9.00795],[-82.27442,9.00269],[-82.27404,8.99869],[-82.26976,8.99492],[-82.26549,8.99653],[-82.26502,8.99412],[-82.26115,8.99396],[-82.2714,8.98416],[-82.268,8.98085],[-82.25859,8.99517],[-82.25835,8.98615],[-82.25172,8.98224],[-82.23997,8.97794],[-82.23369,8.98198],[-82.22336,8.9706],[-82.21868,8.97717],[-82.21447,8.97233],[-82.20793,8.98092],[-82.20641,8.97779],[-82.21028,8.97436],[-82.20747,8.97115],[-82.21175,8.9692],[-82.20949,8.96498],[-82.21926,8.96207],[-82.22398,8.95274],[-82.23171,8.95151],[-82.23898,8.93907],[-82.25817,8.93743],[-82.26336,8.93351],[-82.26792,8.92276],[-82.27965,8.92284],[-82.28445,8.91634],[-82.28545,8.90409],[-82.29323,8.89942],[-82.3049,8.89738],[-82.30948,8.89121],[-82.32289,8.88718],[-82.33497,8.88936],[-82.33686,8.90682],[-82.34519,8.91297],[-82.34512,8.92358],[-82.35054,8.93046],[-82.35051,8.93825],[-82.35443,8.94557],[-82.37556,8.96544],[-82.38275,8.96845],[-82.3908,8.96754],[-82.39665,8.97115],[-82.40594,8.97069],[-82.41047,8.97562],[-82.41388,8.97381],[-82.42177,8.98054],[-82.42336,8.98555],[-82.41413,8.99778],[-82.40389,8.99933],[-82.40203,9.00298],[-82.39664,9.00383],[-82.3954,9.00952],[-82.38347,9.02105],[-82.36941,9.02201],[-82.36662,9.02463],[-82.37035,9.03471],[-82.36228,9.03846],[-82.36117,9.05464],[-82.35799,9.05599],[-82.36026,9.06257],[-82.35784,9.06508],[-82.3594,9.07835],[-82.3564,9.08172],[-82.36061,9.09081],[-82.35121,9.09559],[-82.35867,9.10452],[-82.36243,9.10424],[-82.36245,9.10717],[-82.35636,9.11175],[-82.35617,9.11711],[-82.35178,9.11558],[-82.34979,9.11818],[-82.3478,9.12177],[-82.34994,9.12763],[-82.33984,9.12796],[-82.33784,9.13345],[-82.34052,9.13334],[-82.33518,9.13746],[-82.33167,9.1473],[-82.33081,9.14295],[-82.31456,9.14756],[-82.31912,9.14167],[-82.31886,9.13959],[-82.3125,9.13961],[-82.31329,9.13229],[-82.31049,9.12972],[-82.30617,9.13636],[-82.30074,9.13051],[-82.30387,9.13068],[-82.30215,9.12779],[-82.30633,9.12156],[-82.30673,9.11166],[-82.31278,9.11418],[-82.31179,9.12166],[-82.31366,9.12195],[-82.31602,9.11542],[-82.32252,9.11362],[-82.32398,9.10953],[-82.30769,9.10604],[-82.30632,9.10273],[-82.30033,9.10351],[-82.30182,9.10002],[-82.29955,9.09719],[-82.29143,9.09673],[-82.29416,9.0879],[-82.28622,9.08536],[-82.28276,9.09489],[-82.28084,9.09141],[-82.27553,9.0926]]]}}]}