{"type":"FeatureCollection","features":[{"type":"Feature","properties":{"corregimiento":"Santa Catalina o Calovébora o Bledeshia (Cabecera)","distrito":"Santa Catalina o Calovébora","provincia":"Comarca Ngäbe Buglé","bbox":[-81.40124,8.67609,-81.20637,8.80006]},"geometry":{"type":"Polygon","coordinates":[[[-81.2175,8.78993],[-81.23099,8.78476],[-81.23326,8.7798],[-81.23029,8.77086],[-81.22131,8.7617],[-81.2305,8.75391],[-81.22726,8.74805],[-81.22142,8.74806],[-81.22016,8.74168],[-81.22316,8.7296],[-81.21994,8.72153],[-81.21593,8.72043],[-81.22027,8.70986],[-81.20944,8.7067],[-81.20637,8.70116],[-81.20934,8.6952],[-81.20652,8.68912],[-81.21423,8.68623],[-81.22602,8.6869],[-81.22994,8.68974],[-81.24036,8.68553],[-81.25466,8.68664],[-81.25531,8.69058],[-81.25907,8.69026],[-81.26232,8.69474],[-81.27512,8.6971],[-81.29604,8.68107],[-81.30086,8.68409],[-81.30775,8.6823],[-81.30966,8.68592],[-81.31568,8.68213],[-81.32321,8.68445],[-81.33099,8.67669],[-81.34012,8.679],[-81.34637,8.67609],[-81.34934,8.67838],[-81.34865,8.68479],[-81.35257,8.68848],[-81.35428,8.70347],[-81.36196,8.71328],[-81.36056,8.71639],[-81.37443,8.7175],[-81.37697,8.72226],[-81.38552,8.72465],[-81.39009,8.7309],[-81.39445,8.73006],[-81.40012,8.73676],[-81.3973,8.7402],[-81.40124,8.74173],[-81.39625,8.74486],[-81.39695,8.75255],[-81.39338,8.75265],[-81.39174,8.75888],[-81.39508,8.762],[-81.39279,8.76555],[-81.39235,8.78574],[-81.38281,8.80006],[-81.37038,8.791],[-81.35134,8.78268],[-81.3455,8.78522],[-81.33551,8.78283],[-81.33071,8.78626],[-81.32358,8.7866],[-81.29556,8.78167],[-81.28498,8.79206],[-81.25634,8.79223],[-81.2444,8.79613],[-81.22624,8.79442],[-81.2175,8.78993]]]}},{"type":"Feature","properties":{"corregimiento":"Alto Bilingüe o Gdogüeshia","distrito":"Santa Catalina o Calovébora","provincia":"Comarca Ngäbe Buglé","bbox":[-81.32828,8.62033,-81.2142,8.6971]},"geometry":{"type":"Polygon","coordinates":[[[-81.21893,8.68654],[-81.22175,8.67665],[-81.217,8.67292],[-81.22035,8.66763],[-81.2142,8.66278],[-81.22386,8.65499],[-81.2206,8.64408],[-81.2247,8.64665],[-81.22909,8.64294],[-81.23547,8.6428],[-81.24664,8.64758],[-81.25188,8.65419],[-81.26182,8.64752],[-81.26286,8.64229],[-81.27124,8.63304],[-81.27011,8.62963],[-81.28182,8.62033],[-81.29999,8.6204],[-81.31107,8.62954],[-81.32828,8.62907],[-81.3228,8.63612],[-81.32433,8.64246],[-81.31982,8.65527],[-81.32156,8.66305],[-81.31749,8.66841],[-81.31958,8.68388],[-81.31241,8.6826],[-81.30961,8.68592],[-81.30775,8.6823],[-81.30086,8.68409],[-81.29604,8.68107],[-81.27512,8.6971],[-81.26232,8.69474],[-81.25907,8.69026],[-81.25531,8.69058],[-81.25466,8.68664],[-81.24036,8.68553],[-81.22994,8.68974],[-81.21893,8.68654]]]}},{"type":"Feature","properties":{"corregimiento":"Loma Yuca o Ijuicho","distrito":"Santa Catalina o Calovébora","provincia":"Comarca Ngäbe Buglé","bbox":[-81.5149,8.55424,-81.31747,8.75749]},"geometry":{"type":"Polygon","coordinates":[[[-81.39296,8.75492],[-81.39345,8.75258],[-81.39695,8.75255],[-81.39625,8.74486],[-81.40124,8.74173],[-81.3973,8.7402],[-81.39991,8.73626],[-81.39445,8.73006],[-81.39009,8.7309],[-81.38552,8.72465],[-81.37697,8.72226],[-81.37443,8.7175],[-81.36056,8.71639],[-81.36196,8.71328],[-81.35428,8.70347],[-81.35257,8.68848],[-81.34856,8.68455],[-81.34909,8.67794],[-81.33132,8.67661],[-81.32351,8.6843],[-81.31958,8.68388],[-81.31747,8.66911],[-81.32156,8.66305],[-81.31983,8.65509],[-81.32433,8.64246],[-81.32296,8.63577],[-81.33669,8.62168],[-81.35032,8.61882],[-81.35777,8.60537],[-81.36068,8.5986],[-81.35833,8.5884],[-81.35182,8.57958],[-81.35682,8.57692],[-81.36972,8.55424],[-81.37557,8.55919],[-81.38304,8.55915],[-81.38931,8.55561],[-81.39226,8.55783],[-81.39856,8.5554],[-81.41923,8.55803],[-81.426,8.57268],[-81.43703,8.5803],[-81.463,8.58842],[-81.46854,8.5938],[-81.49054,8.59346],[-81.49531,8.5972],[-81.50035,8.61083],[-81.50766,8.611],[-81.51124,8.60815],[-81.51116,8.61718],[-81.5149,8.62044],[-81.50924,8.62864],[-81.50347,8.63069],[-81.49972,8.63982],[-81.50475,8.64313],[-81.50896,8.65261],[-81.50467,8.66139],[-81.50881,8.66986],[-81.50822,8.68363],[-81.50553,8.69162],[-81.49716,8.69434],[-81.49491,8.70196],[-81.4866,8.70672],[-81.48468,8.72498],[-81.48041,8.72449],[-81.47205,8.72996],[-81.45937,8.7333],[-81.45021,8.73332],[-81.44867,8.7359],[-81.43413,8.72952],[-81.42214,8.73806],[-81.41598,8.73261],[-81.40342,8.74883],[-81.40541,8.75634],[-81.39808,8.75749],[-81.39296,8.75492]]]}},{"type":"Feature","properties":{"corregimiento":"San Pedrito o Jiküi","distrito":"Santa Catalina o Calovébora","provincia":"Comarca Ngäbe Buglé","bbox":[-81.55078,8.6933,-81.3853,8.82496]},"geometry":{"type":"Polygon","coordinates":[[[-81.54493,8.82496],[-81.51672,8.80655],[-81.4976,8.79915],[-81.48755,8.80194],[-81.48566,8.80651],[-81.4774,8.80899],[-81.46692,8.80436],[-81.46326,8.80748],[-81.45996,8.80447],[-81.45515,8.80634],[-81.42652,8.79466],[-81.41616,8.79648],[-81.41096,8.80329],[-81.3853,8.79974],[-81.38601,8.79219],[-81.39242,8.78545],[-81.39279,8.76555],[-81.39508,8.762],[-81.39171,8.7597],[-81.39296,8.75492],[-81.39808,8.75749],[-81.40541,8.75634],[-81.40342,8.74883],[-81.41598,8.73261],[-81.42214,8.73806],[-81.43413,8.72952],[-81.44867,8.7359],[-81.45021,8.73332],[-81.45937,8.7333],[-81.47205,8.72996],[-81.48041,8.72449],[-81.48433,8.72527],[-81.48656,8.70681],[-81.49388,8.70304],[-81.49702,8.69449],[-81.50134,8.6933],[-81.503,8.70727],[-81.50791,8.70294],[-81.51442,8.70936],[-81.52762,8.71066],[-81.53292,8.72135],[-81.54249,8.73064],[-81.53979,8.73599],[-81.54408,8.73835],[-81.54686,8.73685],[-81.55078,8.74114],[-81.53931,8.75156],[-81.54075,8.75991],[-81.53688,8.76128],[-81.5384,8.76756],[-81.53433,8.77056],[-81.53676,8.7734],[-81.53591,8.78182],[-81.54267,8.77898],[-81.5446,8.78583],[-81.54838,8.78406],[-81.54968,8.78589],[-81.55,8.78943],[-81.54381,8.79251],[-81.54189,8.79841],[-81.54954,8.82297],[-81.54493,8.82496]]]}},{"type":"Feature","properties":{"corregimiento":"Valle Bonito o Dogata","distrito":"Santa Catalina o Calovébora","provincia":"Comarca Ngäbe Buglé","bbox":[-81.36065,8.50001,-81.15528,8.65419]},"geometry":{"type":"Polygon","coordinates":[[[-81.22024,8.64435],[-81.22039,8.62887],[-81.21134,8.61643],[-81.21826,8.59905],[-81.21547,8.59336],[-81.21722,8.58904],[-81.21228,8.58813],[-81.21314,8.58384],[-81.19598,8.57011],[-81.19539,8.56531],[-81.1895,8.56103],[-81.18581,8.55203],[-81.17294,8.55276],[-81.16667,8.54963],[-81.15528,8.5174],[-81.15812,8.51309],[-81.17096,8.51053],[-81.17495,8.50246],[-81.18188,8.50001],[-81.1912,8.5004],[-81.19512,8.50324],[-81.21232,8.50169],[-81.22352,8.50925],[-81.23048,8.52089],[-81.23629,8.5234],[-81.24999,8.52525],[-81.26402,8.51852],[-81.27423,8.5182],[-81.28472,8.52983],[-81.28864,8.54158],[-81.29829,8.55397],[-81.31864,8.56988],[-81.32477,8.57225],[-81.33456,8.57118],[-81.34633,8.58151],[-81.35182,8.57958],[-81.35833,8.5884],[-81.36065,8.59889],[-81.35133,8.61774],[-81.33684,8.62159],[-81.33112,8.62876],[-81.31107,8.62954],[-81.29999,8.6204],[-81.28182,8.62033],[-81.27011,8.62963],[-81.27124,8.63304],[-81.26286,8.64229],[-81.26182,8.64752],[-81.25188,8.65419],[-81.24664,8.64758],[-81.23547,8.6428],[-81.22909,8.64294],[-81.2247,8.64665],[-81.22024,8.64435]]]}}]}