{"type":"FeatureCollection","features":[{"type":"Feature","properties":{"corregimiento":"Arraiján (Cabecera)","distrito":"Arraiján","provincia":"Panamá Oeste","bbox":[-79.67745,8.90252,-79.5663,9.0166]},"geometry":{"type":"Polygon","coordinates":[[[-79.60843,9.01137],[-79.59819,8.99821],[-79.59517,8.99743],[-79.59506,8.99965],[-79.58453,8.98708],[-79.58018,8.97601],[-79.58105,8.96953],[-79.57329,8.95585],[-79.57697,8.95249],[-79.573,8.95017],[-79.57445,8.94333],[-79.5663,8.94264],[-79.57379,8.94076],[-79.59108,8.95429],[-79.6208,8.95593],[-79.6243,8.95189],[-79.6191,8.93386],[-79.6299,8.91996],[-79.62845,8.91566],[-79.63165,8.91131],[-79.63771,8.91098],[-79.6483,8.90252],[-79.66211,8.91748],[-79.65864,8.91905],[-79.66276,8.92918],[-79.67486,8.9392],[-79.67745,8.94716],[-79.6743,8.94647],[-79.65833,8.95653],[-79.64439,8.95493],[-79.64427,8.95923],[-79.64003,8.96062],[-79.63695,8.97232],[-79.64228,8.97101],[-79.65054,8.97608],[-79.64696,8.98253],[-79.64654,9.00844],[-79.63686,9.00772],[-79.6223,9.0166],[-79.60843,9.01137]]]}},{"type":"Feature","properties":{"corregimiento":"Juan Demóstenes Arosemena","distrito":"Arraiján","provincia":"Panamá Oeste","bbox":[-79.77297,8.9009,-79.6987,8.98759]},"geometry":{"type":"Polygon","coordinates":[[[-79.6987,8.97421],[-79.70472,8.9647],[-79.70907,8.96347],[-79.7053,8.9546],[-79.70898,8.94955],[-79.70487,8.94458],[-79.70705,8.93972],[-79.70345,8.93531],[-79.71164,8.93063],[-79.71278,8.92518],[-79.71023,8.91921],[-79.71326,8.9118],[-79.71978,8.91002],[-79.72108,8.90387],[-79.71546,8.90521],[-79.71586,8.9009],[-79.72156,8.90108],[-79.72437,8.90784],[-79.72406,8.90567],[-79.72795,8.90518],[-79.72748,8.90926],[-79.73183,8.90292],[-79.73222,8.90716],[-79.73544,8.90447],[-79.74263,8.90721],[-79.74148,8.91117],[-79.74643,8.91037],[-79.74757,8.91442],[-79.75605,8.91342],[-79.75823,8.9158],[-79.76796,8.91337],[-79.77297,8.92464],[-79.77026,8.9295],[-79.77134,8.93465],[-79.76271,8.9357],[-79.76034,8.94581],[-79.74683,8.95292],[-79.7489,8.96098],[-79.74697,8.96259],[-79.74109,8.96337],[-79.73042,8.95437],[-79.73042,8.96236],[-79.73273,8.964],[-79.72849,8.9728],[-79.73144,8.97828],[-79.72794,8.98454],[-79.71952,8.98],[-79.70457,8.98759],[-79.70622,8.98223],[-79.6987,8.97421]]]}},{"type":"Feature","properties":{"corregimiento":"Veracruz","distrito":"Arraiján","provincia":"Panamá Oeste","bbox":[-79.65483,8.87913,-79.55961,8.95686]},"geometry":{"type":"Polygon","coordinates":[[[-79.60659,8.95686],[-79.59076,8.95418],[-79.57314,8.94051],[-79.57166,8.94048],[-79.5663,8.94264],[-79.56605,8.94236],[-79.569,8.94076],[-79.56479,8.94064],[-79.56706,8.93449],[-79.57228,8.93296],[-79.55961,8.92234],[-79.5649,8.90287],[-79.57192,8.89703],[-79.58188,8.89664],[-79.58365,8.89099],[-79.58132,8.88749],[-79.59291,8.89077],[-79.59404,8.89335],[-79.61365,8.89328],[-79.6272,8.88507],[-79.64445,8.88557],[-79.64709,8.87913],[-79.65479,8.88532],[-79.65483,8.8945],[-79.63812,8.91071],[-79.63165,8.91131],[-79.62845,8.91566],[-79.6299,8.91996],[-79.6191,8.93386],[-79.62386,8.95363],[-79.61617,8.95639],[-79.6119,8.95391],[-79.60659,8.95686]]]}},{"type":"Feature","properties":{"corregimiento":"Vista Alegre","distrito":"Arraiján","provincia":"Panamá Oeste","bbox":[-79.72115,8.85912,-79.66335,8.93988]},"geometry":{"type":"Polygon","coordinates":[[[-79.66335,8.89198],[-79.66931,8.88872],[-79.6685,8.88515],[-79.67184,8.88301],[-79.67051,8.86873],[-79.66607,8.86209],[-79.6685,8.86515],[-79.67474,8.86274],[-79.67262,8.85945],[-79.66646,8.85975],[-79.66611,8.85944],[-79.67264,8.85912],[-79.6797,8.86508],[-79.67922,8.87154],[-79.6827,8.87654],[-79.69008,8.87502],[-79.69656,8.86816],[-79.69844,8.87564],[-79.70128,8.87618],[-79.70259,8.87311],[-79.70328,8.87689],[-79.7121,8.88502],[-79.70711,8.88809],[-79.71074,8.88956],[-79.70908,8.89216],[-79.71214,8.89353],[-79.70856,8.89507],[-79.71178,8.89495],[-79.71006,8.89734],[-79.71576,8.90068],[-79.71533,8.90509],[-79.72115,8.90404],[-79.71976,8.91006],[-79.71351,8.9115],[-79.71024,8.91917],[-79.71278,8.92518],[-79.7116,8.93071],[-79.70347,8.93525],[-79.70342,8.93903],[-79.69833,8.93479],[-79.69157,8.93988],[-79.68441,8.93035],[-79.68408,8.92341],[-79.67758,8.92211],[-79.67376,8.91523],[-79.66927,8.913],[-79.6706,8.90496],[-79.66335,8.89198]]]}},{"type":"Feature","properties":{"corregimiento":"Burunga","distrito":"Arraiján","provincia":"Panamá Oeste","bbox":[-79.70622,8.94946,-79.60843,9.0409]},"geometry":{"type":"Polygon","coordinates":[[[-79.60843,9.01137],[-79.6223,9.0166],[-79.63686,9.00772],[-79.64697,9.00785],[-79.64694,8.98266],[-79.65043,8.97551],[-79.64228,8.97101],[-79.63695,8.97232],[-79.64439,8.95493],[-79.65833,8.95653],[-79.67013,8.94946],[-79.67882,8.95368],[-79.68629,8.95079],[-79.68873,8.96408],[-79.69496,8.96619],[-79.69645,8.97379],[-79.70622,8.98223],[-79.70537,9.0003],[-79.7018,9.00431],[-79.70386,9.00955],[-79.69392,9.00153],[-79.68896,9.00091],[-79.6827,9.00479],[-79.67218,9.03423],[-79.66891,9.03379],[-79.66394,9.03981],[-79.65069,9.03849],[-79.6472,9.0409],[-79.625,9.02447],[-79.63132,9.02722],[-79.62486,9.0211],[-79.62352,9.02331],[-79.62013,9.02202],[-79.60843,9.01137]]]}},{"type":"Feature","properties":{"corregimiento":"Cerro Silvestre","distrito":"Arraiján","provincia":"Panamá Oeste","bbox":[-79.709,8.88886,-79.64711,8.97421]},"geometry":{"type":"Polygon","coordinates":[[[-79.67013,8.94946],[-79.67745,8.94716],[-79.67486,8.9392],[-79.66276,8.92918],[-79.65864,8.91905],[-79.66211,8.91748],[-79.65672,8.91342],[-79.65308,8.9053],[-79.64711,8.9025],[-79.65845,8.88886],[-79.65999,8.8948],[-79.66335,8.89198],[-79.66978,8.90225],[-79.67159,8.90975],[-79.66927,8.913],[-79.67376,8.91523],[-79.67758,8.92211],[-79.68408,8.92341],[-79.68673,8.93539],[-79.68924,8.9339],[-79.69244,8.94016],[-79.69829,8.93479],[-79.70241,8.939],[-79.70345,8.93531],[-79.70554,8.93738],[-79.70487,8.94458],[-79.70898,8.94955],[-79.70531,8.95469],[-79.709,8.96371],[-79.70476,8.96467],[-79.70287,8.97059],[-79.69728,8.97421],[-79.69496,8.96619],[-79.68881,8.96419],[-79.68597,8.95841],[-79.68809,8.95198],[-79.67882,8.95368],[-79.67013,8.94946]]]}},{"type":"Feature","properties":{"corregimiento":"Nuevo Emperador","distrito":"Arraiján","provincia":"Panamá Oeste","bbox":[-79.7756,8.95421,-79.6472,9.11898]},"geometry":{"type":"Polygon","coordinates":[[[-79.74183,9.11898],[-79.72803,9.11091],[-79.72593,9.11598],[-79.72201,9.11653],[-79.72023,9.11485],[-79.72475,9.11041],[-79.72285,9.10622],[-79.71903,9.11486],[-79.70539,9.1136],[-79.70457,9.10329],[-79.70231,9.10937],[-79.69484,9.10833],[-79.68058,9.08757],[-79.67218,9.06787],[-79.6472,9.0409],[-79.65069,9.03849],[-79.66394,9.03981],[-79.66891,9.03379],[-79.67196,9.0345],[-79.68238,9.00517],[-79.68875,9.00099],[-79.69867,9.00414],[-79.70222,9.01047],[-79.70378,9.00964],[-79.70179,9.00441],[-79.70537,9.0003],[-79.70457,8.98759],[-79.71952,8.98],[-79.72794,8.98454],[-79.73144,8.97828],[-79.72849,8.9728],[-79.73273,8.964],[-79.73041,8.9623],[-79.7306,8.95421],[-79.74144,8.9635],[-79.74981,8.9604],[-79.75338,8.96182],[-79.7525,8.97437],[-79.77418,8.98996],[-79.7756,8.99442],[-79.77248,8.99634],[-79.77284,9.00087],[-79.76811,9.00351],[-79.76631,9.01108],[-79.7569,9.01874],[-79.75775,9.02562],[-79.74848,9.02876],[-79.73788,9.02497],[-79.72576,9.04237],[-79.73074,9.04522],[-79.7311,9.04866],[-79.72473,9.04969],[-79.72346,9.05603],[-79.71349,9.05631],[-79.70993,9.06144],[-79.71221,9.06675],[-79.71726,9.06387],[-79.72424,9.0668],[-79.72816,9.08665],[-79.73675,9.09212],[-79.73656,9.09656],[-79.75273,9.10286],[-79.75649,9.11195],[-79.75512,9.11649],[-79.75293,9.11877],[-79.75021,9.11705],[-79.75399,9.1133],[-79.75404,9.1109],[-79.7512,9.11254],[-79.75118,9.10857],[-79.74641,9.10638],[-79.74474,9.10768],[-79.74817,9.11141],[-79.74253,9.10867],[-79.7451,9.11841],[-79.74183,9.11898]]]}},{"type":"Feature","properties":{"corregimiento":"Santa Clara","distrito":"Arraiján","provincia":"Panamá Oeste","bbox":[-79.81473,9.02497,-79.70996,9.11864]},"geometry":{"type":"Polygon","coordinates":[[[-79.75352,9.11864],[-79.75649,9.11195],[-79.75248,9.10245],[-79.73677,9.09675],[-79.73675,9.09212],[-79.72825,9.08685],[-79.72424,9.0668],[-79.71726,9.06387],[-79.71221,9.06675],[-79.70996,9.06251],[-79.71349,9.05631],[-79.72346,9.05603],[-79.72473,9.04969],[-79.73122,9.0485],[-79.73074,9.04522],[-79.72576,9.04237],[-79.73788,9.02497],[-79.74848,9.02876],[-79.75953,9.02601],[-79.76375,9.03392],[-79.76881,9.0362],[-79.76643,9.05261],[-79.76976,9.05712],[-79.78124,9.06014],[-79.78253,9.06503],[-79.78614,9.06613],[-79.78987,9.07265],[-79.78871,9.07967],[-79.79317,9.08411],[-79.78983,9.08283],[-79.78883,9.08412],[-79.79331,9.0868],[-79.80055,9.08158],[-79.80379,9.08473],[-79.80786,9.07953],[-79.8089,9.08382],[-79.81307,9.085],[-79.80964,9.08813],[-79.81473,9.08729],[-79.81212,9.09105],[-79.8138,9.0946],[-79.80893,9.09777],[-79.80569,9.09699],[-79.80788,9.08847],[-79.80114,9.09113],[-79.80533,9.09414],[-79.80426,9.09777],[-79.79804,9.09954],[-79.80015,9.10157],[-79.79704,9.10458],[-79.79978,9.10651],[-79.7981,9.1092],[-79.80095,9.11117],[-79.79689,9.11216],[-79.79971,9.11669],[-79.79339,9.11378],[-79.79361,9.10813],[-79.79744,9.10769],[-79.79486,9.10522],[-79.79705,9.10066],[-79.79538,9.09925],[-79.79468,9.10228],[-79.79337,9.09909],[-79.7964,9.09668],[-79.79727,9.09076],[-79.79547,9.09188],[-79.79388,9.08809],[-79.79428,9.09711],[-79.79116,9.09512],[-79.79259,9.09818],[-79.79096,9.09872],[-79.78739,9.09457],[-79.79063,9.09975],[-79.78498,9.10104],[-79.7837,9.09855],[-79.78286,9.0989],[-79.78918,9.1098],[-79.78437,9.11372],[-79.78098,9.11014],[-79.77941,9.11257],[-79.77532,9.11165],[-79.77379,9.10762],[-79.77742,9.1073],[-79.77386,9.10453],[-79.77461,9.09811],[-79.76902,9.10593],[-79.76538,9.10435],[-79.76702,9.10032],[-79.76058,9.09981],[-79.76288,9.09537],[-79.76087,9.09653],[-79.75989,9.09385],[-79.75957,9.10213],[-79.75346,9.09655],[-79.7529,9.10023],[-79.75751,9.10279],[-79.75996,9.11136],[-79.75352,9.11864]]]}}]}