{"type":"FeatureCollection","features":[{"type":"Feature","properties":{"corregimiento":"Cirí Grande","distrito":"Capira","provincia":"Panamá Oeste","bbox":[-80.16626,8.63541,-80.00089,8.8833]},"geometry":{"type":"Polygon","coordinates":[[[-80.01007,8.83054],[-80.02988,8.82151],[-80.03298,8.81843],[-80.03103,8.81575],[-80.03422,8.80967],[-80.03989,8.81755],[-80.04802,8.81913],[-80.06934,8.81177],[-80.05635,8.78673],[-80.06006,8.77622],[-80.08591,8.76818],[-80.09222,8.74547],[-80.08582,8.74292],[-80.08359,8.73326],[-80.08527,8.70618],[-80.08068,8.69354],[-80.08183,8.68601],[-80.08626,8.68038],[-80.08478,8.66259],[-80.07483,8.65409],[-80.07647,8.64925],[-80.10389,8.63578],[-80.10968,8.63541],[-80.11261,8.64013],[-80.11025,8.64848],[-80.11868,8.66098],[-80.11931,8.66853],[-80.10995,8.69305],[-80.11492,8.70632],[-80.1126,8.71454],[-80.11777,8.72009],[-80.1141,8.72499],[-80.11556,8.73095],[-80.12153,8.73287],[-80.12677,8.76196],[-80.14507,8.77308],[-80.15354,8.78615],[-80.1498,8.78863],[-80.15324,8.79264],[-80.1587,8.79293],[-80.15756,8.79854],[-80.16227,8.80535],[-80.15846,8.80884],[-80.16591,8.81689],[-80.16626,8.82171],[-80.15067,8.82162],[-80.15038,8.83263],[-80.13662,8.82406],[-80.12371,8.83078],[-80.11752,8.82216],[-80.11401,8.8235],[-80.10241,8.81925],[-80.10122,8.81094],[-80.09147,8.81056],[-80.09025,8.81466],[-80.07872,8.82233],[-80.0775,8.82676],[-80.06842,8.82877],[-80.06283,8.83339],[-80.06025,8.8453],[-80.05461,8.85251],[-80.05805,8.85913],[-80.04739,8.87242],[-80.05226,8.87425],[-80.05613,8.88182],[-80.04354,8.8833],[-80.01463,8.86486],[-80.00089,8.8488],[-80.00417,8.84205],[-80.00711,8.84439],[-80.00941,8.84174],[-80.00981,8.83772],[-80.00675,8.8374],[-80.01007,8.83054]]]}},{"type":"Feature","properties":{"corregimiento":"El Cacao","distrito":"Capira","provincia":"Panamá Oeste","bbox":[-80.09222,8.65409,-79.93962,8.83054]},"geometry":{"type":"Polygon","coordinates":[[[-79.97856,8.77272],[-79.96237,8.75283],[-79.96062,8.74265],[-79.96269,8.73734],[-79.93962,8.7213],[-79.94977,8.70871],[-79.95085,8.70041],[-79.95652,8.70252],[-79.97344,8.69295],[-79.99436,8.70236],[-80.00597,8.70399],[-80.01345,8.70072],[-80.02077,8.70418],[-80.03001,8.69366],[-80.04009,8.69307],[-80.04982,8.6748],[-80.06376,8.66011],[-80.07483,8.65409],[-80.08394,8.65994],[-80.08626,8.68038],[-80.08183,8.68601],[-80.08068,8.69354],[-80.08527,8.70618],[-80.08359,8.73326],[-80.08582,8.74292],[-80.09222,8.74547],[-80.08591,8.76818],[-80.06006,8.77622],[-80.05635,8.78673],[-80.06934,8.81177],[-80.04802,8.81913],[-80.03989,8.81755],[-80.03422,8.80967],[-80.03103,8.81575],[-80.03284,8.81868],[-80.01705,8.82896],[-80.01007,8.83054],[-79.997,8.82799],[-79.99871,8.82325],[-79.99424,8.81354],[-79.99741,8.80735],[-79.98464,8.80239],[-79.97856,8.77272]]]}},{"type":"Feature","properties":{"corregimiento":"Santa Rosa","distrito":"Capira","provincia":"Panamá Oeste","bbox":[-80.17549,8.81056,-80.04739,8.91495]},"geometry":{"type":"Polygon","coordinates":[[[-80.14872,8.91243],[-80.15277,8.90116],[-80.14476,8.88526],[-80.13376,8.88119],[-80.11636,8.88676],[-80.11321,8.88083],[-80.10605,8.87881],[-80.10125,8.86999],[-80.08196,8.88583],[-80.08533,8.8943],[-80.07955,8.90996],[-80.07023,8.91107],[-80.06384,8.90823],[-80.05985,8.91042],[-80.05612,8.90398],[-80.05659,8.89707],[-80.05415,8.89608],[-80.05489,8.89985],[-80.05286,8.89908],[-80.05348,8.89524],[-80.0584,8.89144],[-80.05109,8.8857],[-80.05622,8.87959],[-80.04739,8.87242],[-80.05805,8.85913],[-80.05502,8.85091],[-80.06025,8.8453],[-80.06287,8.83335],[-80.06842,8.82877],[-80.0775,8.82676],[-80.07872,8.82233],[-80.09025,8.81466],[-80.09147,8.81056],[-80.10122,8.81094],[-80.10241,8.81925],[-80.11401,8.8235],[-80.11752,8.82216],[-80.12371,8.83078],[-80.13662,8.82406],[-80.15038,8.83263],[-80.15067,8.82162],[-80.16399,8.82293],[-80.16504,8.82943],[-80.16893,8.83334],[-80.16757,8.83856],[-80.17549,8.84471],[-80.16981,8.84911],[-80.16639,8.85718],[-80.16917,8.85791],[-80.16817,8.87101],[-80.17097,8.87745],[-80.16654,8.87689],[-80.17005,8.88242],[-80.17055,8.89306],[-80.17368,8.89467],[-80.169,8.89777],[-80.16924,8.90046],[-80.16565,8.89768],[-80.16101,8.90662],[-80.15751,8.90732],[-80.15894,8.91176],[-80.1526,8.91495],[-80.14872,8.91243]]]}},{"type":"Feature","properties":{"corregimiento":"Capira (Cabecera)","distrito":"Capira","provincia":"Panamá Oeste","bbox":[-79.89797,8.72274,-79.78268,8.80535]},"geometry":{"type":"Polygon","coordinates":[[[-79.78268,8.77527],[-79.79691,8.7728],[-79.80511,8.76508],[-79.81785,8.76608],[-79.82013,8.75343],[-79.82817,8.74218],[-79.83707,8.74813],[-79.85624,8.74751],[-79.86009,8.75132],[-79.86563,8.74258],[-79.8718,8.74009],[-79.86798,8.73409],[-79.86911,8.72887],[-79.8756,8.72446],[-79.88892,8.72274],[-79.89537,8.72682],[-79.89797,8.73446],[-79.889,8.76916],[-79.88339,8.77551],[-79.8784,8.76375],[-79.87433,8.76915],[-79.85442,8.77796],[-79.85201,8.77619],[-79.83909,8.7813],[-79.83737,8.78717],[-79.84052,8.79439],[-79.83499,8.79744],[-79.83443,8.80325],[-79.83127,8.80535],[-79.8206,8.80017],[-79.82053,8.79587],[-79.81502,8.79518],[-79.79928,8.80459],[-79.79458,8.79935],[-79.79678,8.79708],[-79.79196,8.79414],[-79.79181,8.78587],[-79.78268,8.77527]]]}},{"type":"Feature","properties":{"corregimiento":"Campana","distrito":"Capira","provincia":"Panamá Oeste","bbox":[-79.9509,8.64024,-79.79332,8.73446]},"geometry":{"type":"Polygon","coordinates":[[[-79.89541,8.72698],[-79.88892,8.72274],[-79.8756,8.72446],[-79.86911,8.72887],[-79.86065,8.7287],[-79.86043,8.72198],[-79.84257,8.71592],[-79.84067,8.71338],[-79.84247,8.70865],[-79.83353,8.70023],[-79.81458,8.69578],[-79.81238,8.67978],[-79.80794,8.68017],[-79.80018,8.68696],[-79.79459,8.68601],[-79.79332,8.68089],[-79.79766,8.66468],[-79.80472,8.65409],[-79.80788,8.65223],[-79.81673,8.65705],[-79.82107,8.65644],[-79.83515,8.64024],[-79.84192,8.64812],[-79.85339,8.65422],[-79.84705,8.66117],[-79.85007,8.67298],[-79.84607,8.67404],[-79.84732,8.67608],[-79.84367,8.67947],[-79.85601,8.69354],[-79.86896,8.68863],[-79.87186,8.69243],[-79.88175,8.69052],[-79.8854,8.68364],[-79.89227,8.68176],[-79.90259,8.67249],[-79.91637,8.67147],[-79.93735,8.69261],[-79.94305,8.69341],[-79.9509,8.70036],[-79.94977,8.70871],[-79.93962,8.7213],[-79.92951,8.71403],[-79.91615,8.72345],[-79.90421,8.72793],[-79.89797,8.73446],[-79.89541,8.72698]]]}},{"type":"Feature","properties":{"corregimiento":"Lídice","distrito":"Capira","provincia":"Panamá Oeste","bbox":[-79.97856,8.71403,-79.89024,8.78875]},"geometry":{"type":"Polygon","coordinates":[[[-79.93448,8.78305],[-79.92431,8.77947],[-79.91342,8.76605],[-79.90447,8.761],[-79.89824,8.76076],[-79.89065,8.76598],[-79.89024,8.7642],[-79.89936,8.73216],[-79.92951,8.71403],[-79.96269,8.73734],[-79.96062,8.74265],[-79.96237,8.75283],[-79.97856,8.77272],[-79.95887,8.77587],[-79.94864,8.77245],[-79.94806,8.78875],[-79.9385,8.78166],[-79.93448,8.78305]]]}},{"type":"Feature","properties":{"corregimiento":"Las Ollas Arriba","distrito":"Capira","provincia":"Panamá Oeste","bbox":[-79.93448,8.76603,-79.8633,8.8233]},"geometry":{"type":"Polygon","coordinates":[[[-79.8633,8.81432],[-79.87183,8.81004],[-79.87483,8.81125],[-79.88522,8.80112],[-79.89052,8.79103],[-79.89376,8.77334],[-79.90291,8.76843],[-79.90888,8.77035],[-79.91338,8.76603],[-79.92421,8.77939],[-79.93448,8.78304],[-79.93383,8.79911],[-79.92549,8.82145],[-79.91284,8.80982],[-79.90643,8.81146],[-79.90148,8.82086],[-79.88351,8.8233],[-79.8633,8.81432]]]}},{"type":"Feature","properties":{"corregimiento":"Villa Rosario","distrito":"Capira","provincia":"Panamá Oeste","bbox":[-79.91124,8.76076,-79.83121,8.83576]},"geometry":{"type":"Polygon","coordinates":[[[-79.8405,8.83576],[-79.83976,8.82181],[-79.84272,8.82053],[-79.83121,8.8054],[-79.83443,8.80325],[-79.83499,8.79744],[-79.84052,8.79439],[-79.83737,8.78717],[-79.83909,8.7813],[-79.85201,8.77619],[-79.85442,8.77796],[-79.87433,8.76915],[-79.8784,8.76375],[-79.88339,8.77551],[-79.89204,8.76435],[-79.89824,8.76076],[-79.91124,8.76493],[-79.90888,8.77035],[-79.90308,8.76837],[-79.89381,8.77325],[-79.88666,8.79888],[-79.88367,8.79351],[-79.87373,8.78969],[-79.86678,8.79166],[-79.85113,8.82014],[-79.8518,8.8302],[-79.8405,8.83576]]]}},{"type":"Feature","properties":{"corregimiento":"Cermeño","distrito":"Capira","provincia":"Panamá Oeste","bbox":[-79.8718,8.66468,-79.74279,8.78244]},"geometry":{"type":"Polygon","coordinates":[[[-79.77446,8.78244],[-79.76819,8.77102],[-79.76269,8.76903],[-79.76195,8.76151],[-79.76471,8.75799],[-79.75833,8.75423],[-79.75726,8.74924],[-79.76048,8.74436],[-79.75516,8.73918],[-79.75606,8.73676],[-79.75314,8.73837],[-79.75241,8.73539],[-79.74714,8.73411],[-79.75321,8.73087],[-79.75261,8.72704],[-79.74669,8.72869],[-79.74279,8.72421],[-79.75323,8.71827],[-79.74532,8.71153],[-79.74979,8.71155],[-79.75035,8.70739],[-79.75822,8.70711],[-79.76013,8.69705],[-79.75271,8.69242],[-79.76536,8.67788],[-79.79766,8.66468],[-79.79418,8.68564],[-79.79998,8.68702],[-79.80827,8.67998],[-79.81262,8.67994],[-79.81458,8.69578],[-79.8337,8.70036],[-79.84247,8.70865],[-79.84067,8.71338],[-79.84257,8.71592],[-79.8603,8.72187],[-79.86044,8.7286],[-79.86911,8.72887],[-79.86798,8.73409],[-79.8718,8.74009],[-79.86563,8.74258],[-79.86009,8.75132],[-79.85624,8.74751],[-79.83707,8.74813],[-79.82817,8.74218],[-79.82013,8.75343],[-79.81785,8.76608],[-79.80518,8.76506],[-79.79404,8.77399],[-79.78808,8.7728],[-79.78144,8.77753],[-79.77976,8.77431],[-79.77997,8.7791],[-79.77676,8.77603],[-79.77391,8.77854],[-79.77784,8.78131],[-79.77446,8.78244]]]}},{"type":"Feature","properties":{"corregimiento":"Caimito","distrito":"Capira","provincia":"Panamá Oeste","bbox":[-80.01007,8.77245,-79.92549,8.84389]},"geometry":{"type":"Polygon","coordinates":[[[-79.97183,8.84042],[-79.96165,8.84221],[-79.95917,8.83492],[-79.95224,8.83288],[-79.94193,8.84032],[-79.93948,8.8324],[-79.94183,8.82254],[-79.92549,8.82145],[-79.93383,8.79911],[-79.93432,8.7832],[-79.9385,8.78166],[-79.94806,8.78875],[-79.94864,8.77245],[-79.95887,8.77587],[-79.97856,8.77272],[-79.98464,8.80239],[-79.99741,8.80735],[-79.99424,8.81354],[-79.99871,8.82325],[-79.997,8.82799],[-80.01007,8.83054],[-79.97241,8.84389],[-79.97183,8.84042]]]}},{"type":"Feature","properties":{"corregimiento":"La Trinidad","distrito":"Capira","provincia":"Panamá Oeste","bbox":[-80.06693,8.83054,-79.97183,8.97294]},"geometry":{"type":"Polygon","coordinates":[[[-79.97275,8.93606],[-79.97337,8.92669],[-79.98552,8.9238],[-79.97289,8.90687],[-79.98174,8.89108],[-79.97379,8.87242],[-79.9767,8.86687],[-79.974,8.85983],[-79.97183,8.84042],[-79.97241,8.84389],[-80.01007,8.83054],[-80.00675,8.8374],[-80.00981,8.83772],[-80.00941,8.84174],[-80.00711,8.84439],[-80.00417,8.84205],[-80.00082,8.84865],[-80.01463,8.86486],[-80.04354,8.8833],[-80.05595,8.88197],[-80.05109,8.8857],[-80.0584,8.89144],[-80.05348,8.89524],[-80.05269,8.89843],[-80.05476,8.89997],[-80.05409,8.89613],[-80.05652,8.89696],[-80.05612,8.90398],[-80.06044,8.9093],[-80.05669,8.91847],[-80.06646,8.93441],[-80.06436,8.94363],[-80.06693,8.95078],[-80.05916,8.95093],[-80.05437,8.95559],[-80.05441,8.96242],[-79.98761,8.97294],[-79.97275,8.93606]]]}},{"type":"Feature","properties":{"corregimiento":"Villa Carmen","distrito":"Capira","provincia":"Panamá Oeste","bbox":[-79.88498,8.78956,-79.85113,8.82415]},"geometry":{"type":"Polygon","coordinates":[[[-79.85288,8.82415],[-79.85113,8.82014],[-79.86678,8.79166],[-79.8733,8.78956],[-79.88367,8.79351],[-79.88498,8.80138],[-79.87483,8.81125],[-79.87183,8.81004],[-79.86289,8.81445],[-79.85945,8.82234],[-79.85288,8.82415]]]}},{"type":"Feature","properties":{"corregimiento":"Cirí de Los Sotos","distrito":"Capira","provincia":"Panamá Oeste","bbox":[-80.15277,8.86999,-80.05437,8.99678]},"geometry":{"type":"Polygon","coordinates":[[[-80.08689,8.99678],[-80.05441,8.96242],[-80.05437,8.95559],[-80.05916,8.95093],[-80.06695,8.95059],[-80.06436,8.94363],[-80.06646,8.93441],[-80.05669,8.91847],[-80.06226,8.90878],[-80.07966,8.90988],[-80.08533,8.8943],[-80.08196,8.88583],[-80.10125,8.86999],[-80.10605,8.87881],[-80.11321,8.88083],[-80.11636,8.88676],[-80.13376,8.88119],[-80.14436,8.88497],[-80.15277,8.90116],[-80.15267,8.90669],[-80.14793,8.91381],[-80.14834,8.92398],[-80.14456,8.91903],[-80.14079,8.92716],[-80.14076,8.92325],[-80.13699,8.92402],[-80.13654,8.92752],[-80.13909,8.92887],[-80.13419,8.93073],[-80.1343,8.93608],[-80.14146,8.93388],[-80.13939,8.93818],[-80.14455,8.94032],[-80.1398,8.94486],[-80.14204,8.94642],[-80.13223,8.96579],[-80.08689,8.99678]]]}}]}