{"type":"FeatureCollection","features":[{"type":"Feature","properties":{"corregimiento":"Chame (Cabecera)","distrito":"Chame","provincia":"Panamá Oeste","bbox":[-79.90348,8.56044,-79.80339,8.61648]},"geometry":{"type":"Polygon","coordinates":[[[-79.81273,8.58802],[-79.80339,8.57543],[-79.80659,8.56945],[-79.8352,8.56044],[-79.84268,8.56076],[-79.84953,8.57133],[-79.85563,8.57423],[-79.86193,8.57327],[-79.8601,8.57674],[-79.86267,8.57846],[-79.8672,8.57354],[-79.87569,8.57511],[-79.8742,8.56844],[-79.87791,8.56901],[-79.87648,8.57132],[-79.87877,8.57238],[-79.89534,8.57393],[-79.89899,8.57771],[-79.89579,8.58483],[-79.90149,8.58708],[-79.90348,8.59288],[-79.89857,8.58891],[-79.8851,8.59389],[-79.87854,8.59297],[-79.87461,8.59812],[-79.86501,8.6023],[-79.86613,8.6079],[-79.85721,8.61208],[-79.85435,8.61648],[-79.8524,8.60157],[-79.83421,8.59872],[-79.81273,8.58802]]]}},{"type":"Feature","properties":{"corregimiento":"Bejuco","distrito":"Chame","provincia":"Panamá Oeste","bbox":[-79.94247,8.57696,-79.82929,8.67173]},"geometry":{"type":"Polygon","coordinates":[[[-79.85339,8.65422],[-79.84041,8.64679],[-79.83515,8.64024],[-79.8355,8.63217],[-79.82929,8.62807],[-79.83329,8.62519],[-79.83766,8.62671],[-79.83799,8.62306],[-79.85324,8.61767],[-79.85721,8.61208],[-79.86613,8.6079],[-79.86501,8.6023],[-79.87461,8.59812],[-79.87854,8.59297],[-79.8851,8.59389],[-79.89857,8.58891],[-79.90348,8.59288],[-79.90149,8.58708],[-79.89582,8.58488],[-79.89732,8.58041],[-79.90764,8.58063],[-79.91063,8.57696],[-79.91467,8.57877],[-79.91972,8.58914],[-79.92577,8.58524],[-79.93769,8.59068],[-79.93752,8.59456],[-79.92826,8.59648],[-79.92647,8.60109],[-79.92864,8.60144],[-79.9201,8.61255],[-79.90267,8.61931],[-79.91481,8.62518],[-79.92651,8.65328],[-79.94247,8.64489],[-79.92508,8.66238],[-79.92151,8.66252],[-79.91132,8.67173],[-79.91319,8.66347],[-79.90622,8.65758],[-79.90253,8.64988],[-79.89542,8.6476],[-79.88735,8.65064],[-79.87861,8.65879],[-79.87169,8.65457],[-79.87021,8.64689],[-79.87267,8.64727],[-79.87341,8.64679],[-79.87101,8.64536],[-79.8694,8.64675],[-79.8687,8.6503],[-79.86178,8.65237],[-79.85904,8.64987],[-79.85339,8.65422]]]}},{"type":"Feature","properties":{"corregimiento":"Buenos Aires","distrito":"Chame","provincia":"Panamá Oeste","bbox":[-79.98701,8.59283,-79.90267,8.70252]},"geometry":{"type":"Polygon","coordinates":[[[-79.94247,8.64489],[-79.92651,8.65328],[-79.91481,8.62518],[-79.90267,8.61931],[-79.9201,8.61255],[-79.92864,8.60144],[-79.92647,8.60109],[-79.92826,8.59648],[-79.9391,8.59283],[-79.94131,8.59976],[-79.9594,8.60341],[-79.96952,8.61287],[-79.96741,8.61777],[-79.96204,8.62077],[-79.96356,8.63389],[-79.95837,8.64256],[-79.95831,8.64923],[-79.96053,8.65177],[-79.96377,8.65042],[-79.96467,8.65378],[-79.97388,8.64748],[-79.98353,8.65139],[-79.98054,8.66213],[-79.98701,8.67354],[-79.98372,8.68822],[-79.98575,8.69528],[-79.973,8.69302],[-79.95652,8.70252],[-79.95244,8.6944],[-79.96563,8.68577],[-79.96156,8.67631],[-79.96285,8.66524],[-79.94247,8.64489]]]}},{"type":"Feature","properties":{"corregimiento":"Cabuya","distrito":"Chame","provincia":"Panamá Oeste","bbox":[-80.01423,8.54984,-79.89499,8.61203]},"geometry":{"type":"Polygon","coordinates":[[[-79.9684,8.61144],[-79.9594,8.60341],[-79.94131,8.59976],[-79.94145,8.5948],[-79.92906,8.58604],[-79.92432,8.58533],[-79.91959,8.58907],[-79.91379,8.57794],[-79.9094,8.57704],[-79.90876,8.58027],[-79.89922,8.5821],[-79.89703,8.57989],[-79.89854,8.57619],[-79.89499,8.57375],[-79.90433,8.56579],[-79.91092,8.56551],[-79.91806,8.54984],[-79.92674,8.552],[-79.94463,8.56629],[-79.95806,8.56269],[-79.953,8.55856],[-79.94547,8.55782],[-79.93805,8.55008],[-79.95051,8.5503],[-79.95788,8.55597],[-79.97196,8.55856],[-79.9754,8.56272],[-79.98102,8.56163],[-79.9844,8.56801],[-79.99439,8.5731],[-80.00224,8.60183],[-80.01175,8.60612],[-80.01423,8.61201],[-79.9929,8.60394],[-79.98707,8.6063],[-79.98456,8.61203],[-79.97715,8.60818],[-79.9684,8.61144]]]}},{"type":"Feature","properties":{"corregimiento":"Chicá","distrito":"Chame","provincia":"Panamá Oeste","bbox":[-79.96563,8.64489,-79.91132,8.70252]},"geometry":{"type":"Polygon","coordinates":[[[-79.95652,8.70252],[-79.94305,8.69341],[-79.93735,8.69261],[-79.91744,8.67202],[-79.91132,8.67173],[-79.92151,8.66252],[-79.92508,8.66238],[-79.94247,8.64489],[-79.96286,8.6653],[-79.96156,8.67631],[-79.96563,8.68577],[-79.95244,8.6944],[-79.95652,8.70252]]]}},{"type":"Feature","properties":{"corregimiento":"El Líbano","distrito":"Chame","provincia":"Panamá Oeste","bbox":[-79.85435,8.58145,-79.7515,8.63779]},"geometry":{"type":"Polygon","coordinates":[[[-79.7515,8.61194],[-79.7591,8.60751],[-79.76275,8.60822],[-79.76339,8.60289],[-79.77034,8.6],[-79.76975,8.59705],[-79.78239,8.59351],[-79.79811,8.59388],[-79.80566,8.58145],[-79.81273,8.58802],[-79.83421,8.59872],[-79.8524,8.60157],[-79.85435,8.61648],[-79.83792,8.62311],[-79.83766,8.62671],[-79.83329,8.62519],[-79.82929,8.62807],[-79.8355,8.63217],[-79.83624,8.6349],[-79.83533,8.63779],[-79.78263,8.61152],[-79.76055,8.61725],[-79.75563,8.61673],[-79.7515,8.61194]]]}},{"type":"Feature","properties":{"corregimiento":"Las Lajas","distrito":"Chame","provincia":"Panamá Oeste","bbox":[-79.95806,8.52191,-79.87722,8.56589]},"geometry":{"type":"Polygon","coordinates":[[[-79.91296,8.55712],[-79.90353,8.56067],[-79.89828,8.55641],[-79.89986,8.54351],[-79.89356,8.53689],[-79.87722,8.53006],[-79.9004,8.52191],[-79.90687,8.52525],[-79.90976,8.53279],[-79.91728,8.53498],[-79.91895,8.53897],[-79.92856,8.54303],[-79.9299,8.54638],[-79.93333,8.54489],[-79.93574,8.55141],[-79.95806,8.56269],[-79.94315,8.56589],[-79.9373,8.55898],[-79.922,8.54946],[-79.91806,8.54984],[-79.91296,8.55712]]]}},{"type":"Feature","properties":{"corregimiento":"Nueva Gorgona","distrito":"Chame","provincia":"Panamá Oeste","bbox":[-79.91296,8.53001,-79.83586,8.57852]},"geometry":{"type":"Polygon","coordinates":[[[-79.83586,8.5603],[-79.86748,8.55284],[-79.86823,8.54853],[-79.87843,8.54204],[-79.87625,8.53001],[-79.89356,8.53689],[-79.89986,8.54351],[-79.89828,8.55641],[-79.90353,8.56067],[-79.91296,8.55712],[-79.91092,8.56551],[-79.90433,8.56579],[-79.89716,8.57385],[-79.87919,8.57249],[-79.8765,8.57139],[-79.87791,8.56901],[-79.8742,8.56844],[-79.87569,8.57511],[-79.8672,8.57354],[-79.86323,8.57852],[-79.86013,8.57684],[-79.86188,8.57323],[-79.85563,8.57423],[-79.85024,8.5717],[-79.84309,8.56092],[-79.83586,8.5603]]]}},{"type":"Feature","properties":{"corregimiento":"Punta Chame","distrito":"Chame","provincia":"Panamá Oeste","bbox":[-79.80659,8.56945,-79.69809,8.65671]},"geometry":{"type":"Polygon","coordinates":[[[-79.80659,8.56945],[-79.80339,8.57543],[-79.80566,8.58145],[-79.79811,8.59388],[-79.78239,8.59351],[-79.76975,8.59705],[-79.77034,8.6],[-79.76339,8.60289],[-79.76275,8.60822],[-79.74821,8.61109],[-79.74449,8.61489],[-79.74573,8.62288],[-79.73359,8.62727],[-79.72611,8.63662],[-79.71399,8.64197],[-79.69809,8.65671],[-79.69874,8.64881],[-79.70256,8.64408],[-79.74378,8.60825],[-79.75119,8.60466],[-79.76522,8.58996],[-79.78685,8.5757],[-79.80659,8.56945]]]}},{"type":"Feature","properties":{"corregimiento":"Sajalices","distrito":"Chame","provincia":"Panamá Oeste","bbox":[-79.91319,8.64536,-79.84367,8.6936]},"geometry":{"type":"Polygon","coordinates":[[[-79.84705,8.66117],[-79.85904,8.64987],[-79.86178,8.65237],[-79.8687,8.6503],[-79.8694,8.64675],[-79.87101,8.64536],[-79.87341,8.64679],[-79.87021,8.64689],[-79.87169,8.65457],[-79.87861,8.65879],[-79.88735,8.65064],[-79.89674,8.6478],[-79.90255,8.6499],[-79.90622,8.65758],[-79.91319,8.66347],[-79.91132,8.67173],[-79.90259,8.67249],[-79.89227,8.68176],[-79.8854,8.68364],[-79.88175,8.69052],[-79.87186,8.69243],[-79.86896,8.68863],[-79.85614,8.6936],[-79.84367,8.67947],[-79.84732,8.67608],[-79.84607,8.67404],[-79.85007,8.67298],[-79.84705,8.66117]]]}},{"type":"Feature","properties":{"corregimiento":"Sorá","distrito":"Chame","provincia":"Panamá Oeste","bbox":[-80.07677,8.60394,-79.95824,8.70415]},"geometry":{"type":"Polygon","coordinates":[[[-79.98024,8.6943],[-79.98593,8.69461],[-79.98372,8.68822],[-79.98701,8.67354],[-79.98054,8.66213],[-79.98353,8.65139],[-79.97388,8.64748],[-79.96467,8.65378],[-79.96377,8.65042],[-79.96053,8.65177],[-79.95824,8.64882],[-79.95837,8.64256],[-79.96356,8.63389],[-79.962,8.62089],[-79.96861,8.61628],[-79.9684,8.61144],[-79.97715,8.60818],[-79.98456,8.61203],[-79.98707,8.6063],[-79.9929,8.60394],[-80.01674,8.6121],[-80.0227,8.63045],[-80.02832,8.63879],[-80.04763,8.64288],[-80.05069,8.64032],[-80.05956,8.64113],[-80.06408,8.64869],[-80.07677,8.64955],[-80.07606,8.65363],[-80.05516,8.66816],[-80.04009,8.69307],[-80.03001,8.69366],[-80.02084,8.70415],[-80.01345,8.70072],[-80.00597,8.70399],[-79.99436,8.70236],[-79.98024,8.6943]]]}}]}