{"type":"FeatureCollection","features":[{"type":"Feature","properties":{"corregimiento":"Feuillet","distrito":"La Chorrera","provincia":"Panamá Oeste","bbox":[-79.8985,8.81433,-79.8405,8.86942]},"geometry":{"type":"Polygon","coordinates":[[[-79.8405,8.83576],[-79.85171,8.83034],[-79.85262,8.82436],[-79.85963,8.8222],[-79.86312,8.81433],[-79.88351,8.8233],[-79.8985,8.82037],[-79.89673,8.83399],[-79.89153,8.8439],[-79.88089,8.84959],[-79.87288,8.84951],[-79.87258,8.85624],[-79.87044,8.85482],[-79.85723,8.86942],[-79.85358,8.86293],[-79.84634,8.86233],[-79.84577,8.86053],[-79.85245,8.86036],[-79.85513,8.85549],[-79.8405,8.83576]]]}},{"type":"Feature","properties":{"corregimiento":"Guadalupe","distrito":"La Chorrera","provincia":"Panamá Oeste","bbox":[-79.85801,8.82437,-79.78733,8.885]},"geometry":{"type":"Polygon","coordinates":[[[-79.80094,8.86989],[-79.78861,8.86259],[-79.78733,8.85552],[-79.79341,8.84949],[-79.80578,8.84813],[-79.81009,8.84285],[-79.81229,8.83125],[-79.81865,8.83151],[-79.82319,8.82437],[-79.83029,8.83106],[-79.83984,8.83168],[-79.84259,8.83949],[-79.85513,8.85549],[-79.85245,8.86036],[-79.84625,8.86214],[-79.85674,8.86504],[-79.85801,8.87531],[-79.85369,8.8824],[-79.84195,8.885],[-79.83737,8.87698],[-79.83429,8.87905],[-79.82751,8.87555],[-79.83184,8.86859],[-79.82937,8.86455],[-79.82174,8.86361],[-79.81225,8.86772],[-79.80466,8.86283],[-79.80094,8.86989]]]}},{"type":"Feature","properties":{"corregimiento":"Playa Leona","distrito":"La Chorrera","provincia":"Panamá Oeste","bbox":[-79.84271,8.77426,-79.74321,8.86848]},"geometry":{"type":"Polygon","coordinates":[[[-79.76562,8.86467],[-79.77061,8.85508],[-79.7699,8.84638],[-79.75967,8.84872],[-79.74321,8.84352],[-79.74711,8.84256],[-79.74878,8.83811],[-79.74647,8.82694],[-79.75332,8.82936],[-79.75124,8.81933],[-79.75505,8.81684],[-79.7592,8.81807],[-79.75692,8.814],[-79.76655,8.80438],[-79.76559,8.80127],[-79.7691,8.79578],[-79.76701,8.79235],[-79.77157,8.7861],[-79.77007,8.78205],[-79.77715,8.78229],[-79.77691,8.77902],[-79.77392,8.77841],[-79.77713,8.77597],[-79.77997,8.7791],[-79.7793,8.77652],[-79.77989,8.77426],[-79.78104,8.77739],[-79.78335,8.77531],[-79.7823,8.77748],[-79.78798,8.77955],[-79.78995,8.78325],[-79.78817,8.78401],[-79.7935,8.78935],[-79.79196,8.79414],[-79.79678,8.79708],[-79.79458,8.79935],[-79.79928,8.80459],[-79.81474,8.79521],[-79.82047,8.79585],[-79.8208,8.80033],[-79.82789,8.80548],[-79.83316,8.80571],[-79.8345,8.81173],[-79.83681,8.81031],[-79.84271,8.82067],[-79.83979,8.8217],[-79.83885,8.8311],[-79.83029,8.83106],[-79.82319,8.82437],[-79.81865,8.83151],[-79.81229,8.83125],[-79.81009,8.84285],[-79.80578,8.84813],[-79.79341,8.84949],[-79.78733,8.85552],[-79.78854,8.8625],[-79.79232,8.86545],[-79.78235,8.86449],[-79.77001,8.86848],[-79.76562,8.86467]]]}},{"type":"Feature","properties":{"corregimiento":"Puerto Caimito","distrito":"La Chorrera","provincia":"Panamá Oeste","bbox":[-79.77061,8.84356,-79.70383,8.90926]},"geometry":{"type":"Polygon","coordinates":[[[-79.72801,8.90606],[-79.72406,8.90567],[-79.72437,8.90784],[-79.72156,8.90108],[-79.71681,8.90223],[-79.71006,8.89734],[-79.71178,8.89495],[-79.70856,8.89507],[-79.7122,8.89322],[-79.70716,8.88752],[-79.7121,8.88502],[-79.70383,8.877],[-79.70856,8.87412],[-79.71242,8.86541],[-79.71104,8.8609],[-79.70622,8.85944],[-79.70535,8.85595],[-79.71948,8.86276],[-79.72788,8.85742],[-79.73173,8.84964],[-79.73999,8.85002],[-79.74064,8.84356],[-79.75967,8.84872],[-79.7699,8.84638],[-79.77061,8.85508],[-79.76459,8.86557],[-79.77001,8.86848],[-79.73668,8.90549],[-79.73222,8.90716],[-79.73183,8.90292],[-79.72748,8.90926],[-79.72801,8.90606]]]}},{"type":"Feature","properties":{"corregimiento":"Barrio Balboa","distrito":"La Chorrera","provincia":"Panamá Oeste","bbox":[-79.80909,8.86468,-79.76767,8.89625]},"geometry":{"type":"Polygon","coordinates":[[[-79.78897,8.89436],[-79.79003,8.88954],[-79.77786,8.87424],[-79.76767,8.87148],[-79.77126,8.86746],[-79.79529,8.86468],[-79.80144,8.87031],[-79.79678,8.87327],[-79.80909,8.88864],[-79.80196,8.89625],[-79.79837,8.893],[-79.79675,8.89519],[-79.78897,8.89436]]]}},{"type":"Feature","properties":{"corregimiento":"Barrio Colón","distrito":"La Chorrera","provincia":"Panamá Oeste","bbox":[-79.79003,8.87148,-79.73668,8.91461]},"geometry":{"type":"Polygon","coordinates":[[[-79.73668,8.90549],[-79.76767,8.87148],[-79.77768,8.87407],[-79.79003,8.88954],[-79.78543,8.90192],[-79.77917,8.90122],[-79.77765,8.90509],[-79.77533,8.90306],[-79.76419,8.90624],[-79.75716,8.91461],[-79.74686,8.91424],[-79.7465,8.91041],[-79.74158,8.91128],[-79.74269,8.90725],[-79.73668,8.90549]]]}},{"type":"Feature","properties":{"corregimiento":"El Arado","distrito":"La Chorrera","provincia":"Panamá Oeste","bbox":[-79.81023,8.90122,-79.74683,9.08262]},"geometry":{"type":"Polygon","coordinates":[[[-79.79217,9.08262],[-79.78871,9.07967],[-79.78906,9.07045],[-79.78253,9.06503],[-79.78137,9.06027],[-79.76976,9.05712],[-79.76643,9.05261],[-79.76886,9.0363],[-79.76375,9.03392],[-79.75612,9.02022],[-79.76631,9.01108],[-79.76811,9.00351],[-79.77284,9.00087],[-79.77248,8.99634],[-79.7756,8.99442],[-79.77418,8.98996],[-79.7525,8.97437],[-79.75408,8.96286],[-79.7489,8.96098],[-79.74683,8.95292],[-79.76034,8.94581],[-79.76271,8.9357],[-79.7714,8.93449],[-79.77026,8.9295],[-79.77297,8.92464],[-79.7687,8.91428],[-79.75692,8.91477],[-79.76413,8.90628],[-79.77533,8.90306],[-79.77765,8.90509],[-79.77917,8.90122],[-79.78769,8.90202],[-79.79039,8.92547],[-79.80383,8.93627],[-79.80557,8.94322],[-79.79666,8.96035],[-79.79503,8.97475],[-79.7909,8.98218],[-79.79821,8.99046],[-79.79728,9.00321],[-79.81023,9.02031],[-79.80384,9.02288],[-79.79678,9.02017],[-79.79141,9.02358],[-79.79221,9.02733],[-79.79773,9.02864],[-79.79984,9.03356],[-79.80021,9.04575],[-79.80279,9.04896],[-79.80065,9.05523],[-79.80495,9.05667],[-79.8093,9.0656],[-79.80373,9.06849],[-79.80937,9.07147],[-79.80391,9.07175],[-79.80676,9.07327],[-79.80645,9.07593],[-79.80161,9.07688],[-79.80439,9.07755],[-79.80123,9.07888],[-79.80396,9.08032],[-79.79217,9.08262]]]}},{"type":"Feature","properties":{"corregimiento":"El Coco","distrito":"La Chorrera","provincia":"Panamá Oeste","bbox":[-79.85374,8.86283,-79.79658,8.90577]},"geometry":{"type":"Polygon","coordinates":[[[-79.81234,8.89378],[-79.79658,8.87275],[-79.80105,8.87084],[-79.80466,8.86283],[-79.81225,8.86772],[-79.82174,8.86361],[-79.82937,8.86455],[-79.83184,8.86859],[-79.82759,8.87567],[-79.83429,8.87905],[-79.83682,8.87699],[-79.83737,8.87698],[-79.84195,8.885],[-79.85084,8.88149],[-79.85374,8.88902],[-79.84535,8.89616],[-79.8393,8.89716],[-79.83618,8.8949],[-79.83394,8.90169],[-79.82415,8.90577],[-79.81779,8.90094],[-79.8181,8.89606],[-79.81234,8.89378]]]}},{"type":"Feature","properties":{"corregimiento":"Herrera","distrito":"La Chorrera","provincia":"Panamá Oeste","bbox":[-79.90035,8.88858,-79.78582,9.00493]},"geometry":{"type":"Polygon","coordinates":[[[-79.79666,8.96068],[-79.80542,8.94134],[-79.80329,8.93567],[-79.79039,8.92547],[-79.78582,8.90025],[-79.78857,8.89448],[-79.79675,8.89519],[-79.79837,8.893],[-79.80201,8.89623],[-79.80878,8.88858],[-79.81234,8.89378],[-79.8181,8.89606],[-79.81779,8.90094],[-79.82274,8.90559],[-79.83237,8.90137],[-79.84088,8.9109],[-79.86261,8.91637],[-79.87065,8.92551],[-79.90035,8.9452],[-79.89526,8.94703],[-79.89443,8.96951],[-79.88682,8.98043],[-79.87621,8.98142],[-79.86676,8.99414],[-79.86084,8.99043],[-79.85672,8.99258],[-79.83812,8.98951],[-79.83276,9.00249],[-79.82833,9.00168],[-79.82468,9.00493],[-79.82546,8.98869],[-79.82057,8.97465],[-79.80756,8.96209],[-79.80492,8.96425],[-79.79666,8.96068]]]}},{"type":"Feature","properties":{"corregimiento":"Hurtado","distrito":"La Chorrera","provincia":"Panamá Oeste","bbox":[-79.94726,8.87648,-79.83325,8.9452]},"geometry":{"type":"Polygon","coordinates":[[[-79.83325,8.90187],[-79.83618,8.8949],[-79.84526,8.89619],[-79.84763,8.89228],[-79.85338,8.89073],[-79.85103,8.88125],[-79.85338,8.88253],[-79.85667,8.87912],[-79.86836,8.87648],[-79.87325,8.88378],[-79.87706,8.88027],[-79.88471,8.88518],[-79.89268,8.88603],[-79.89483,8.88974],[-79.90186,8.88997],[-79.90769,8.89892],[-79.92417,8.89551],[-79.93092,8.90831],[-79.94548,8.90685],[-79.94726,8.91348],[-79.9442,8.92489],[-79.93648,8.92118],[-79.94138,8.92683],[-79.93569,8.92832],[-79.93338,8.93634],[-79.93057,8.93671],[-79.92737,8.93],[-79.92094,8.92999],[-79.91644,8.93553],[-79.90779,8.93646],[-79.90035,8.9452],[-79.87065,8.92551],[-79.86286,8.91652],[-79.84088,8.9109],[-79.83325,8.90187]]]}},{"type":"Feature","properties":{"corregimiento":"Los Díaz","distrito":"La Chorrera","provincia":"Panamá Oeste","bbox":[-79.94883,8.81071,-79.89153,8.88832]},"geometry":{"type":"Polygon","coordinates":[[[-79.89153,8.8439],[-79.89673,8.83399],[-79.89825,8.82065],[-79.90318,8.81968],[-79.90749,8.81071],[-79.915,8.81082],[-79.92549,8.82145],[-79.94183,8.82254],[-79.94039,8.83852],[-79.94883,8.86156],[-79.94177,8.86723],[-79.94285,8.87791],[-79.93846,8.88075],[-79.93707,8.88677],[-79.93241,8.88832],[-79.92806,8.88341],[-79.92443,8.88338],[-79.92517,8.87873],[-79.92083,8.86845],[-79.9191,8.87046],[-79.91515,8.86637],[-79.91643,8.8608],[-79.90908,8.86075],[-79.90824,8.85516],[-79.90247,8.84837],[-79.89879,8.84891],[-79.89836,8.84526],[-79.89153,8.8439]]]}},{"type":"Feature","properties":{"corregimiento":"Obaldía","distrito":"La Chorrera","provincia":"Panamá Oeste","bbox":[-79.98552,8.83288,-79.93861,8.93606]},"geometry":{"type":"Polygon","coordinates":[[[-79.9442,8.92489],[-79.95047,8.89871],[-79.94265,8.89253],[-79.94478,8.88407],[-79.93861,8.88057],[-79.94285,8.87791],[-79.94177,8.86723],[-79.94883,8.86156],[-79.94193,8.84032],[-79.95224,8.83288],[-79.95917,8.83492],[-79.96165,8.84221],[-79.97183,8.84042],[-79.9767,8.86687],[-79.97379,8.87242],[-79.98174,8.89108],[-79.97289,8.90687],[-79.98552,8.9238],[-79.97337,8.92669],[-79.97275,8.93606],[-79.96431,8.93122],[-79.96169,8.9343],[-79.95484,8.93433],[-79.95512,8.91705],[-79.9442,8.92489]]]}},{"type":"Feature","properties":{"corregimiento":"Santa Rita","distrito":"La Chorrera","provincia":"Panamá Oeste","bbox":[-79.9502,8.8439,-79.8564,8.90929]},"geometry":{"type":"Polygon","coordinates":[[[-79.8564,8.87927],[-79.85723,8.86942],[-79.87044,8.85482],[-79.87258,8.85624],[-79.87288,8.84951],[-79.88089,8.84959],[-79.89153,8.8439],[-79.89785,8.84505],[-79.8986,8.84876],[-79.90098,8.84711],[-79.90824,8.85516],[-79.90908,8.86075],[-79.91643,8.8608],[-79.91515,8.86637],[-79.9191,8.87046],[-79.92083,8.86845],[-79.92517,8.87873],[-79.92443,8.88338],[-79.92806,8.88341],[-79.93252,8.88834],[-79.93737,8.8864],[-79.93861,8.88057],[-79.94471,8.88398],[-79.94265,8.89253],[-79.9502,8.89718],[-79.94989,8.9017],[-79.94737,8.90877],[-79.94407,8.90659],[-79.93383,8.90929],[-79.92771,8.90511],[-79.92417,8.89551],[-79.90769,8.89892],[-79.90186,8.88997],[-79.89483,8.88974],[-79.89268,8.88603],[-79.88471,8.88518],[-79.87706,8.88027],[-79.87325,8.88378],[-79.86888,8.87659],[-79.8564,8.87927]]]}},{"type":"Feature","properties":{"corregimiento":"Amador","distrito":"La Chorrera","provincia":"Panamá Oeste","bbox":[-79.94868,8.97409,-79.81895,9.18043]},"geometry":{"type":"MultiPolygon","coordinates":[[[[-79.84325,9.17929],[-79.84181,9.16878],[-79.83981,9.17346],[-79.83348,9.17466],[-79.83775,9.16752],[-79.83573,9.16342],[-79.83158,9.16568],[-79.83247,9.16287],[-79.82893,9.16222],[-79.82465,9.16555],[-79.81895,9.16012],[-79.8225,9.15303],[-79.82761,9.15154],[-79.82507,9.14578],[-79.82806,9.13958],[-79.82986,9.14883],[-79.8337,9.1461],[-79.83627,9.14876],[-79.83781,9.14815],[-79.8392,9.149],[-79.84001,9.14883],[-79.83632,9.14673],[-79.83597,9.14203],[-79.83861,9.14539],[-79.84215,9.14243],[-79.8425,9.14343],[-79.83971,9.14606],[-79.8402,9.14656],[-79.84384,9.14417],[-79.84251,9.13955],[-79.84371,9.1374],[-79.84563,9.13905],[-79.84398,9.13535],[-79.8475,9.13262],[-79.8521,9.13793],[-79.85157,9.14037],[-79.85033,9.14111],[-79.84964,9.14301],[-79.86099,9.13955],[-79.85966,9.14078],[-79.86372,9.14164],[-79.86212,9.14344],[-79.86577,9.14218],[-79.86544,9.14538],[-79.86794,9.14501],[-79.86621,9.14693],[-79.8703,9.14878],[-79.86793,9.15151],[-79.86942,9.15893],[-79.86667,9.16138],[-79.86912,9.16328],[-79.86731,9.16545],[-79.86764,9.16379],[-79.86442,9.16374],[-79.86575,9.16983],[-79.8703,9.17122],[-79.86544,9.17463],[-79.86442,9.17165],[-79.86294,9.17571],[-79.86083,9.17254],[-79.86322,9.17097],[-79.86133,9.1699],[-79.86362,9.16945],[-79.8615,9.16829],[-79.86294,9.16548],[-79.85928,9.16523],[-79.85906,9.16986],[-79.85437,9.1692],[-79.85514,9.16762],[-79.85416,9.16661],[-79.85298,9.16866],[-79.85609,9.17066],[-79.85393,9.17133],[-79.85693,9.17613],[-79.85442,9.17684],[-79.8485,9.17009],[-79.84811,9.1742],[-79.84552,9.17278],[-79.84543,9.17942],[-79.84325,9.17929]]],[[[-79.88435,9.18043],[-79.88005,9.17452],[-79.88459,9.17295],[-79.88414,9.17094],[-79.88911,9.1712],[-79.88854,9.16566],[-79.88199,9.16352],[-79.88514,9.1673],[-79.88181,9.16732],[-79.8799,9.16336],[-79.88296,9.15772],[-79.88078,9.15478],[-79.88278,9.14585],[-79.87728,9.14689],[-79.87692,9.14934],[-79.87492,9.14576],[-79.8699,9.14516],[-79.87241,9.14284],[-79.86903,9.14159],[-79.87382,9.14075],[-79.87291,9.13822],[-79.87584,9.13631],[-79.87751,9.14001],[-79.87556,9.14271],[-79.87989,9.14328],[-79.87983,9.13831],[-79.88295,9.13785],[-79.87772,9.13224],[-79.88049,9.12776],[-79.87407,9.12677],[-79.87809,9.12393],[-79.87674,9.1211],[-79.87069,9.12211],[-79.8757,9.11876],[-79.87074,9.11859],[-79.8723,9.11596],[-79.86976,9.11507],[-79.87395,9.11308],[-79.86789,9.11489],[-79.86427,9.11166],[-79.86157,9.11652],[-79.86428,9.11859],[-79.86074,9.11754],[-79.86477,9.12876],[-79.86075,9.13218],[-79.85716,9.12769],[-79.85449,9.12843],[-79.85669,9.12713],[-79.85438,9.12458],[-79.85242,9.12947],[-79.84956,9.12838],[-79.85283,9.12496],[-79.84635,9.12037],[-79.84436,9.12585],[-79.8386,9.12421],[-79.83919,9.12734],[-79.83713,9.12744],[-79.83678,9.12193],[-79.83373,9.12029],[-79.83598,9.11873],[-79.83293,9.1191],[-79.83394,9.11772],[-79.83216,9.11542],[-79.83172,9.12479],[-79.83754,9.13428],[-79.83274,9.13144],[-79.83032,9.13421],[-79.81907,9.11693],[-79.8232,9.11176],[-79.82277,9.1055],[-79.82711,9.10883],[-79.83069,9.09982],[-79.85747,9.09658],[-79.85969,9.0875],[-79.85658,9.0781],[-79.86517,9.06875],[-79.86821,9.0698],[-79.86791,9.07177],[-79.86872,9.07502],[-79.87117,9.06971],[-79.87508,9.07196],[-79.87478,9.07534],[-79.87771,9.07461],[-79.87652,9.07177],[-79.87997,9.07401],[-79.88047,9.07106],[-79.8736,9.07021],[-79.87566,9.06545],[-79.87389,9.06466],[-79.87661,9.06283],[-79.87426,9.05819],[-79.8765,9.05401],[-79.87794,9.05682],[-79.88024,9.05492],[-79.88226,9.05702],[-79.88913,9.04959],[-79.89075,9.04379],[-79.88753,9.03881],[-79.8933,9.02793],[-79.89467,9.01792],[-79.88533,8.99813],[-79.88766,8.99163],[-79.87898,8.99647],[-79.875,8.9923],[-79.86847,8.99261],[-79.8685,8.99011],[-79.87344,8.98793],[-79.87621,8.98142],[-79.88671,8.9805],[-79.89204,8.97409],[-79.90369,8.98677],[-79.90839,8.99818],[-79.90751,9.00547],[-79.90195,9.00812],[-79.90546,9.01117],[-79.90698,9.0204],[-79.91566,9.01516],[-79.92495,9.01911],[-79.93055,9.04049],[-79.92724,9.04526],[-79.92169,9.0465],[-79.9204,9.05032],[-79.93267,9.05116],[-79.93002,9.05565],[-79.93163,9.06679],[-79.92647,9.0656],[-79.92533,9.06668],[-79.93409,9.07393],[-79.93824,9.07315],[-79.93748,9.07569],[-79.94081,9.07815],[-79.93596,9.07898],[-79.93635,9.0815],[-79.94231,9.08013],[-79.94676,9.08409],[-79.94146,9.08628],[-79.94528,9.09002],[-79.94259,9.09011],[-79.94336,9.09746],[-79.94868,9.10268],[-79.94247,9.10159],[-79.94206,9.09623],[-79.93902,9.09785],[-79.93925,9.09504],[-79.94231,9.09471],[-79.93648,9.09388],[-79.93407,9.08871],[-79.93613,9.09393],[-79.93371,9.09336],[-79.93202,9.09365],[-79.93719,9.095],[-79.93693,9.09743],[-79.92806,9.09364],[-79.92614,9.09687],[-79.92627,9.09238],[-79.93009,9.09122],[-79.9287,9.08615],[-79.92598,9.09085],[-79.92689,9.08605],[-79.92344,9.08581],[-79.92613,9.08372],[-79.92256,9.0826],[-79.92194,9.07203],[-79.91944,9.07262],[-79.91978,9.08144],[-79.91768,9.07691],[-79.91525,9.08228],[-79.91151,9.07831],[-79.91155,9.08262],[-79.90762,9.0826],[-79.90591,9.08642],[-79.90427,9.08335],[-79.89901,9.08316],[-79.90332,9.08604],[-79.90234,9.08819],[-79.90684,9.08862],[-79.90995,9.08558],[-79.91119,9.08821],[-79.9117,9.08494],[-79.91426,9.0864],[-79.91253,9.08786],[-79.91499,9.08851],[-79.91552,9.09347],[-79.91602,9.08941],[-79.92042,9.08858],[-79.91828,9.09848],[-79.92439,9.09696],[-79.92619,9.10258],[-79.92928,9.10263],[-79.92055,9.1037],[-79.92809,9.10674],[-79.92953,9.11306],[-79.91857,9.10413],[-79.92345,9.10917],[-79.91868,9.10893],[-79.92202,9.11191],[-79.91918,9.11208],[-79.92019,9.11431],[-79.91581,9.1142],[-79.91674,9.10911],[-79.91318,9.10719],[-79.91441,9.11264],[-79.91248,9.10995],[-79.90956,9.10771],[-79.9136,9.11422],[-79.90474,9.11035],[-79.90388,9.11045],[-79.90313,9.11122],[-79.90131,9.11043],[-79.89951,9.11099],[-79.90255,9.11159],[-79.90451,9.11053],[-79.91151,9.11616],[-79.91591,9.11609],[-79.91086,9.1198],[-79.91698,9.11665],[-79.91891,9.11983],[-79.91662,9.12134],[-79.92247,9.12088],[-79.9174,9.12363],[-79.91693,9.12731],[-79.92074,9.12385],[-79.92082,9.12774],[-79.92944,9.12448],[-79.9318,9.12665],[-79.92913,9.12863],[-79.93114,9.13151],[-79.92739,9.12731],[-79.91507,9.13022],[-79.91728,9.13164],[-79.91402,9.13393],[-79.91289,9.13625],[-79.91292,9.13753],[-79.92175,9.13017],[-79.92227,9.13658],[-79.9247,9.13222],[-79.92677,9.13329],[-79.92362,9.14067],[-79.92769,9.13816],[-79.93093,9.14008],[-79.93041,9.13802],[-79.93116,9.13684],[-79.93255,9.14241],[-79.93475,9.14093],[-79.93879,9.1436],[-79.93377,9.14353],[-79.93647,9.14584],[-79.93393,9.14802],[-79.93591,9.15113],[-79.9295,9.14857],[-79.93192,9.14804],[-79.93067,9.14523],[-79.92888,9.14729],[-79.92797,9.14548],[-79.92723,9.1453],[-79.92859,9.1499],[-79.9218,9.14633],[-79.91829,9.14592],[-79.9287,9.15231],[-79.9247,9.15415],[-79.92661,9.15594],[-79.9245,9.15614],[-79.92198,9.15921],[-79.92228,9.16099],[-79.93287,9.15527],[-79.9315,9.16067],[-79.93506,9.16264],[-79.92487,9.16428],[-79.92734,9.16555],[-79.92542,9.16973],[-79.92364,9.16856],[-79.9244,9.17177],[-79.92132,9.16962],[-79.92441,9.17447],[-79.92048,9.1779],[-79.91818,9.16737],[-79.91438,9.17016],[-79.91493,9.16614],[-79.90904,9.1671],[-79.91245,9.16466],[-79.91018,9.16361],[-79.91421,9.16317],[-79.9099,9.16122],[-79.91247,9.1611],[-79.91321,9.16062],[-79.90857,9.16086],[-79.90935,9.16321],[-79.90506,9.16043],[-79.91226,9.15929],[-79.91194,9.15725],[-79.90592,9.15923],[-79.91059,9.15683],[-79.9094,9.15513],[-79.90323,9.15655],[-79.90326,9.15348],[-79.90615,9.15551],[-79.90895,9.15338],[-79.90668,9.15233],[-79.90995,9.153],[-79.91053,9.15485],[-79.91196,9.15287],[-79.9062,9.15133],[-79.91061,9.15075],[-79.90752,9.14842],[-79.91269,9.14856],[-79.90688,9.1476],[-79.9068,9.14505],[-79.91122,9.14551],[-79.91076,9.1437],[-79.90713,9.14469],[-79.9068,9.1405],[-79.9039,9.1416],[-79.90679,9.14421],[-79.90436,9.15216],[-79.90227,9.15244],[-79.90495,9.14795],[-79.90331,9.14251],[-79.90056,9.14256],[-79.90184,9.14458],[-79.89966,9.14433],[-79.89851,9.14851],[-79.89203,9.14301],[-79.89871,9.15248],[-79.89796,9.15307],[-79.89777,9.15158],[-79.89584,9.15151],[-79.89659,9.15727],[-79.89431,9.15837],[-79.89626,9.16007],[-79.89298,9.15936],[-79.89219,9.16155],[-79.89464,9.1608],[-79.8953,9.16456],[-79.88832,9.16298],[-79.89117,9.16657],[-79.8946,9.16656],[-79.89523,9.1681],[-79.89084,9.16753],[-79.89401,9.16945],[-79.89197,9.17132],[-79.89101,9.1696],[-79.89003,9.16951],[-79.89067,9.1711],[-79.88709,9.17415],[-79.89119,9.17423],[-79.88664,9.17614],[-79.8884,9.17721],[-79.88418,9.17554],[-79.88267,9.17799],[-79.88722,9.17946],[-79.88435,9.18043]]]]}},{"type":"Feature","properties":{"corregimiento":"Arosemena","distrito":"La Chorrera","provincia":"Panamá Oeste","bbox":[-79.99096,8.91705,-79.91969,8.99658]},"geometry":{"type":"Polygon","coordinates":[[[-79.96082,8.99658],[-79.96514,8.99116],[-79.9639,8.98936],[-79.96755,8.98831],[-79.96907,8.99179],[-79.96794,8.9885],[-79.96999,8.98756],[-79.96416,8.9886],[-79.96296,8.98438],[-79.95731,8.98054],[-79.95405,8.97131],[-79.93812,8.96552],[-79.92969,8.95627],[-79.92907,8.96564],[-79.91969,8.96409],[-79.92035,8.95736],[-79.93045,8.94369],[-79.93046,8.93688],[-79.93545,8.93435],[-79.93579,8.92821],[-79.94138,8.92683],[-79.93648,8.92118],[-79.9442,8.92489],[-79.95512,8.91705],[-79.95481,8.9343],[-79.96169,8.9343],[-79.96431,8.93122],[-79.97275,8.93606],[-79.98767,8.97337],[-79.99096,8.97508],[-79.99053,8.97907],[-79.98348,8.98109],[-79.98251,8.98775],[-79.97728,8.984],[-79.97428,8.98723],[-79.9749,8.993],[-79.97146,8.99153],[-79.96917,8.99464],[-79.96635,8.99181],[-79.96082,8.99658]]]}},{"type":"Feature","properties":{"corregimiento":"Iturralde","distrito":"La Chorrera","provincia":"Panamá Oeste","bbox":[-79.9653,8.92999,-79.89248,9.09469]},"geometry":{"type":"Polygon","coordinates":[[[-79.9612,9.09469],[-79.95668,9.08863],[-79.95171,9.09302],[-79.95021,9.09032],[-79.95302,9.08966],[-79.94896,9.08793],[-79.94915,9.08536],[-79.95304,9.08813],[-79.95644,9.08622],[-79.9566,9.08425],[-79.9534,9.08564],[-79.94926,9.08263],[-79.95396,9.08093],[-79.95387,9.0758],[-79.95094,9.07961],[-79.94788,9.07839],[-79.9489,9.07623],[-79.94697,9.07723],[-79.94678,9.08114],[-79.94345,9.07807],[-79.94515,9.07576],[-79.94171,9.07555],[-79.93899,9.0692],[-79.94368,9.06427],[-79.93542,9.06849],[-79.9361,9.06343],[-79.93232,9.06224],[-79.93296,9.06532],[-79.93064,9.0635],[-79.93006,9.05531],[-79.93267,9.05116],[-79.9204,9.05032],[-79.92169,9.0465],[-79.92724,9.04526],[-79.93055,9.04049],[-79.93036,9.03482],[-79.92699,9.03325],[-79.92697,9.02419],[-79.92437,9.01819],[-79.91577,9.01516],[-79.90698,9.0204],[-79.90546,9.01117],[-79.90195,9.00812],[-79.90751,9.00547],[-79.90839,8.99818],[-79.90211,8.98457],[-79.89248,8.97621],[-79.89603,8.96196],[-79.8953,8.94691],[-79.90009,8.94571],[-79.90779,8.93646],[-79.91644,8.93553],[-79.92094,8.92999],[-79.92812,8.93061],[-79.93048,8.94359],[-79.92035,8.95736],[-79.91969,8.96409],[-79.92907,8.96564],[-79.92969,8.95627],[-79.93812,8.96552],[-79.95405,8.97131],[-79.95731,8.98054],[-79.96348,8.98527],[-79.95896,8.984],[-79.96228,8.98657],[-79.95897,8.99444],[-79.95916,9.00129],[-79.96213,9.00418],[-79.95508,9.01011],[-79.95647,9.02197],[-79.95308,9.02292],[-79.95435,9.01904],[-79.95178,9.02009],[-79.95323,9.01753],[-79.95162,9.01693],[-79.95047,9.02096],[-79.94717,9.02079],[-79.95114,9.02291],[-79.95199,9.02755],[-79.94668,9.02767],[-79.94888,9.03333],[-79.93858,9.02962],[-79.93728,9.02664],[-79.93581,9.03087],[-79.94116,9.03066],[-79.94777,9.03552],[-79.94242,9.03641],[-79.94018,9.03978],[-79.94408,9.03791],[-79.94456,9.04068],[-79.94113,9.04178],[-79.95085,9.03923],[-79.95203,9.04288],[-79.94742,9.04371],[-79.94858,9.04582],[-79.94487,9.04692],[-79.94464,9.04977],[-79.9496,9.04646],[-79.95392,9.04813],[-79.94988,9.05384],[-79.95196,9.05454],[-79.95517,9.05112],[-79.95663,9.05129],[-79.95626,9.05418],[-79.95399,9.05389],[-79.95602,9.05604],[-79.95199,9.05653],[-79.95367,9.05899],[-79.95054,9.06013],[-79.9561,9.0676],[-79.96096,9.06682],[-79.95864,9.07026],[-79.96179,9.07308],[-79.95666,9.07285],[-79.96052,9.07458],[-79.95954,9.07832],[-79.96215,9.07647],[-79.9653,9.07892],[-79.96136,9.07987],[-79.96267,9.08487],[-79.95826,9.08559],[-79.9612,9.09469]]]}},{"type":"Feature","properties":{"corregimiento":"La Represa","distrito":"La Chorrera","provincia":"Panamá Oeste","bbox":[-79.84814,8.96068,-79.7909,9.08163]},"geometry":{"type":"Polygon","coordinates":[[[-79.80192,9.05467],[-79.79984,9.03356],[-79.79773,9.02864],[-79.79221,9.02733],[-79.79141,9.02358],[-79.79678,9.02017],[-79.80384,9.02288],[-79.81023,9.02031],[-79.79728,9.00321],[-79.79821,8.99046],[-79.7909,8.98223],[-79.79503,8.97475],[-79.79666,8.96068],[-79.80492,8.96425],[-79.80756,8.96209],[-79.82012,8.97397],[-79.82463,8.98377],[-79.82425,9.00451],[-79.83027,9.01489],[-79.82895,9.0215],[-79.83289,9.02308],[-79.84161,9.02073],[-79.84149,9.02653],[-79.84776,9.03121],[-79.84814,9.03471],[-79.8463,9.04222],[-79.84388,9.03766],[-79.84526,9.04736],[-79.84164,9.04673],[-79.84255,9.05259],[-79.84008,9.0479],[-79.83989,9.05238],[-79.83503,9.05379],[-79.83316,9.05087],[-79.8331,9.04812],[-79.83779,9.04637],[-79.83288,9.04003],[-79.83477,9.03613],[-79.82443,9.03972],[-79.82733,9.05108],[-79.83197,9.055],[-79.82578,9.06215],[-79.82648,9.0509],[-79.82522,9.05523],[-79.82163,9.05558],[-79.82409,9.05668],[-79.82178,9.06177],[-79.82401,9.07161],[-79.81994,9.06649],[-79.81845,9.07043],[-79.82372,9.07498],[-79.8229,9.07718],[-79.82038,9.07477],[-79.8196,9.07471],[-79.82146,9.07776],[-79.81911,9.08134],[-79.81636,9.08163],[-79.81657,9.07757],[-79.81095,9.07883],[-79.8129,9.07288],[-79.80902,9.07602],[-79.8113,9.06873],[-79.80818,9.06977],[-79.81056,9.06551],[-79.81378,9.06558],[-79.80876,9.06398],[-79.80745,9.06098],[-79.80918,9.06104],[-79.80997,9.05983],[-79.80192,9.05467]]]}},{"type":"Feature","properties":{"corregimiento":"Mendoza","distrito":"La Chorrera","provincia":"Panamá Oeste","bbox":[-79.89469,8.98955,-79.80393,9.1222]},"geometry":{"type":"MultiPolygon","coordinates":[[[[-79.86438,9.0696],[-79.85658,9.0781],[-79.85969,9.0875],[-79.85725,9.09679],[-79.83147,9.09945],[-79.82833,9.1072],[-79.82332,9.10448],[-79.82426,9.10092],[-79.82163,9.10185],[-79.82158,9.11353],[-79.81405,9.1222],[-79.80934,9.12043],[-79.80942,9.11282],[-79.80568,9.11043],[-79.80901,9.10814],[-79.80393,9.10097],[-79.81777,9.09421],[-79.82254,9.09742],[-79.82163,9.09289],[-79.82558,9.09122],[-79.81768,9.08875],[-79.81901,9.08395],[-79.82567,9.07849],[-79.8283,9.08108],[-79.82661,9.08435],[-79.82996,9.08534],[-79.83267,9.08412],[-79.83455,9.08786],[-79.83317,9.08305],[-79.83929,9.08345],[-79.83601,9.08256],[-79.83749,9.08073],[-79.83723,9.07995],[-79.82887,9.08325],[-79.8294,9.08074],[-79.82744,9.07898],[-79.83165,9.08037],[-79.83467,9.07744],[-79.83378,9.07284],[-79.83186,9.07634],[-79.83025,9.07411],[-79.82881,9.07808],[-79.82587,9.07741],[-79.82843,9.07055],[-79.82565,9.06819],[-79.82709,9.06385],[-79.83019,9.06385],[-79.82988,9.07173],[-79.83278,9.07022],[-79.83185,9.06851],[-79.83241,9.06634],[-79.83789,9.07049],[-79.83884,9.07564],[-79.84047,9.07063],[-79.84342,9.07611],[-79.84274,9.07401],[-79.84541,9.07559],[-79.84296,9.07089],[-79.84537,9.07114],[-79.84197,9.0688],[-79.8426,9.06504],[-79.84456,9.06882],[-79.84801,9.06919],[-79.84564,9.07049],[-79.84676,9.07395],[-79.84849,9.07287],[-79.85095,9.07787],[-79.85113,9.07287],[-79.85448,9.07579],[-79.85495,9.07473],[-79.85446,9.06729],[-79.85743,9.07014],[-79.85744,9.0678],[-79.85988,9.06782],[-79.85883,9.06876],[-79.85957,9.07002],[-79.8587,9.07259],[-79.85904,9.07341],[-79.86241,9.06591],[-79.86438,9.0696]]],[[[-79.84999,9.04013],[-79.84776,9.03121],[-79.84149,9.02653],[-79.84161,9.02073],[-79.82905,9.02164],[-79.83027,9.01489],[-79.82562,9.00737],[-79.82819,9.00174],[-79.83324,9.00188],[-79.83806,8.98955],[-79.85672,8.99258],[-79.86084,8.99043],[-79.86661,8.99416],[-79.8712,8.99104],[-79.87898,8.99647],[-79.88766,8.99163],[-79.88533,8.99813],[-79.89469,9.01815],[-79.8933,9.02793],[-79.88753,9.03881],[-79.89092,9.04523],[-79.88711,9.05241],[-79.88218,9.05705],[-79.87627,9.05409],[-79.8719,9.0597],[-79.87417,9.05889],[-79.87467,9.06258],[-79.87129,9.06644],[-79.87032,9.06646],[-79.86463,9.05575],[-79.86863,9.05478],[-79.86696,9.0529],[-79.86945,9.04759],[-79.8618,9.04677],[-79.86493,9.0514],[-79.86163,9.05514],[-79.85982,9.05357],[-79.86199,9.04988],[-79.85965,9.05099],[-79.85903,9.04868],[-79.85591,9.05709],[-79.85311,9.05285],[-79.85527,9.05019],[-79.84976,9.05066],[-79.85289,9.04709],[-79.84971,9.04645],[-79.85365,9.04449],[-79.85027,9.0445],[-79.85026,9.04208],[-79.85424,9.04163],[-79.84999,9.04013]]]]}},{"type":"Feature","properties":{"corregimiento":"Arosemena","distrito":"La Chorrera","provincia":"Panamá Oeste","bbox":[-79.9698,8.98432,-79.96035,8.99662]},"geometry":{"type":"Polygon","coordinates":[[[-79.96035,8.99662],[-79.96275,8.98471],[-79.96279,8.98432],[-79.96362,8.98525],[-79.96358,8.98663],[-79.96309,8.98715],[-79.96421,8.98862],[-79.96562,8.98747],[-79.96973,8.98706],[-79.9698,8.98912],[-79.96794,8.9885],[-79.96911,8.99109],[-79.96907,8.99179],[-79.96523,8.98811],[-79.96357,8.99443],[-79.96035,8.99662]]]}},{"type":"Feature","properties":{"corregimiento":"El Arado","distrito":"La Chorrera","provincia":"Panamá Oeste","bbox":[-79.80991,9.05467,-79.79339,9.08393]},"geometry":{"type":"Polygon","coordinates":[[[-79.80192,9.05467],[-79.80504,9.05667],[-79.80777,9.06004],[-79.80991,9.06558],[-79.80896,9.0675],[-79.80726,9.06888],[-79.80984,9.0716],[-79.80481,9.08169],[-79.79339,9.08393],[-79.79753,9.08158],[-79.79637,9.07997],[-79.80396,9.08032],[-79.80123,9.07888],[-79.80439,9.07755],[-79.80161,9.07688],[-79.80645,9.07593],[-79.80676,9.07327],[-79.80458,9.0725],[-79.80391,9.07175],[-79.80937,9.07147],[-79.8038,9.06868],[-79.8093,9.0656],[-79.80192,9.05467]],[[-79.80286,9.08096],[-79.80166,9.08145],[-79.80235,9.08214],[-79.80286,9.08096]]]}}]}