{"type":"FeatureCollection","features":[{"type":"Feature","properties":{"corregimiento":"La Laguna","distrito":"San Carlos","provincia":"Panamá Oeste","bbox":[-80.08596,8.5712,-79.99439,8.64949]},"geometry":{"type":"Polygon","coordinates":[[[-80.01423,8.61201],[-80.01175,8.60612],[-80.00224,8.60183],[-79.99439,8.5731],[-80.01017,8.57969],[-80.02426,8.5712],[-80.05037,8.57137],[-80.05939,8.58038],[-80.05598,8.58794],[-80.06589,8.58915],[-80.07693,8.60066],[-80.08596,8.60506],[-80.0821,8.62249],[-80.07354,8.6294],[-80.07582,8.63553],[-80.08116,8.63745],[-80.08307,8.64616],[-80.06614,8.64949],[-80.05956,8.64113],[-80.05069,8.64032],[-80.04763,8.64288],[-80.02837,8.63882],[-80.0227,8.63045],[-80.01701,8.61232],[-80.01423,8.61201]]]}},{"type":"Feature","properties":{"corregimiento":"Los Llanitos","distrito":"San Carlos","provincia":"Panamá Oeste","bbox":[-80.12221,8.51965,-80.03052,8.64594]},"geometry":{"type":"Polygon","coordinates":[[[-80.05347,8.57297],[-80.04201,8.56804],[-80.0393,8.55507],[-80.03052,8.54699],[-80.03616,8.54508],[-80.03446,8.54006],[-80.05072,8.52559],[-80.06559,8.53131],[-80.07114,8.51965],[-80.07479,8.52985],[-80.07814,8.53013],[-80.07891,8.53735],[-80.08171,8.53387],[-80.0878,8.53356],[-80.08659,8.52874],[-80.0895,8.52634],[-80.09222,8.53278],[-80.09582,8.53357],[-80.09471,8.53624],[-80.0983,8.53424],[-80.09664,8.54181],[-80.10043,8.54288],[-80.10167,8.54953],[-80.10663,8.55139],[-80.11157,8.56233],[-80.10956,8.56929],[-80.11203,8.57879],[-80.12221,8.58919],[-80.11408,8.59298],[-80.10544,8.59087],[-80.10284,8.60514],[-80.09866,8.6122],[-80.10423,8.6167],[-80.10145,8.62164],[-80.10389,8.63578],[-80.08277,8.64594],[-80.08116,8.63745],[-80.07582,8.63553],[-80.07354,8.6294],[-80.0821,8.62249],[-80.08596,8.60506],[-80.07693,8.60066],[-80.06589,8.58915],[-80.05598,8.58794],[-80.05938,8.58036],[-80.05347,8.57297]]]}},{"type":"Feature","properties":{"corregimiento":"San Carlos (Cabecera)","distrito":"San Carlos","provincia":"Panamá Oeste","bbox":[-79.99253,8.45598,-79.91843,8.52081]},"geometry":{"type":"Polygon","coordinates":[[[-79.95284,8.51998],[-79.94537,8.51746],[-79.94262,8.50969],[-79.94075,8.51128],[-79.93261,8.50706],[-79.92139,8.51054],[-79.91843,8.5063],[-79.94345,8.49281],[-79.94983,8.48125],[-79.95229,8.46808],[-79.96973,8.45598],[-79.97685,8.46547],[-79.98592,8.47033],[-79.98455,8.47504],[-79.98944,8.48047],[-79.9869,8.48914],[-79.99253,8.49734],[-79.98602,8.49372],[-79.98356,8.49767],[-79.98541,8.51443],[-79.97456,8.50919],[-79.97586,8.52054],[-79.97044,8.52081],[-79.96488,8.51682],[-79.9545,8.51766],[-79.95284,8.51998]]]}},{"type":"Feature","properties":{"corregimiento":"El Espino","distrito":"San Carlos","provincia":"Panamá Oeste","bbox":[-80.06559,8.4587,-79.99428,8.54541]},"geometry":{"type":"Polygon","coordinates":[[[-79.99428,8.50644],[-80.00503,8.50283],[-80.00247,8.49829],[-80.0071,8.49234],[-80.00436,8.49095],[-80.00599,8.48625],[-80.00368,8.4834],[-80.00639,8.47762],[-80.01114,8.47839],[-80.00525,8.47147],[-80.00954,8.46635],[-80.01045,8.4587],[-80.02497,8.47678],[-80.02597,8.48232],[-80.03081,8.48347],[-80.02993,8.48618],[-80.036,8.4887],[-80.04822,8.50579],[-80.05185,8.50668],[-80.05043,8.51018],[-80.05804,8.52104],[-80.06138,8.52193],[-80.06122,8.52774],[-80.06559,8.53131],[-80.05072,8.52559],[-80.03446,8.54006],[-80.03578,8.54541],[-80.02321,8.5452],[-80.02233,8.5415],[-80.01036,8.53827],[-79.9955,8.52314],[-79.9958,8.51581],[-79.9987,8.51323],[-79.99428,8.50644]]]}},{"type":"Feature","properties":{"corregimiento":"El Higo","distrito":"San Carlos","provincia":"Panamá Oeste","bbox":[-80.07889,8.41505,-80.00089,8.5333]},"geometry":{"type":"Polygon","coordinates":[[[-80.06559,8.53131],[-80.06122,8.52774],[-80.06138,8.52193],[-80.05804,8.52104],[-80.05043,8.51018],[-80.05185,8.50668],[-80.04822,8.50579],[-80.036,8.4887],[-80.02993,8.48618],[-80.03081,8.48347],[-80.02597,8.48232],[-80.02055,8.47031],[-80.01152,8.46279],[-80.01149,8.4559],[-80.00788,8.45425],[-80.00695,8.44993],[-80.00924,8.44521],[-80.00089,8.43841],[-80.00758,8.43054],[-80.03441,8.41505],[-80.04908,8.42726],[-80.04732,8.43705],[-80.04974,8.43672],[-80.04937,8.44128],[-80.05425,8.44519],[-80.05218,8.45179],[-80.05562,8.45743],[-80.05478,8.45952],[-80.05066,8.45551],[-80.04491,8.45569],[-80.06003,8.47298],[-80.06359,8.48116],[-80.06189,8.48803],[-80.06796,8.50142],[-80.07489,8.50637],[-80.07485,8.51441],[-80.07882,8.51726],[-80.07889,8.5333],[-80.07806,8.53001],[-80.07479,8.52985],[-80.07114,8.51965],[-80.06559,8.53131]]]}},{"type":"Feature","properties":{"corregimiento":"Guayabito","distrito":"San Carlos","provincia":"Panamá Oeste","bbox":[-80.04674,8.49372,-79.95284,8.57969]},"geometry":{"type":"Polygon","coordinates":[[[-80.01017,8.57969],[-79.98172,8.56555],[-79.98559,8.56198],[-79.97658,8.55264],[-79.97169,8.53038],[-79.95284,8.51998],[-79.9545,8.51766],[-79.96488,8.51682],[-79.97044,8.52081],[-79.97586,8.52054],[-79.97456,8.50919],[-79.98541,8.51443],[-79.98352,8.49789],[-79.98598,8.49372],[-79.99164,8.50127],[-79.99026,8.5044],[-79.99866,8.51308],[-79.9958,8.51581],[-79.9955,8.52314],[-80.01036,8.53827],[-80.02233,8.5415],[-80.02321,8.5452],[-80.02976,8.54556],[-80.0393,8.55507],[-80.04201,8.56804],[-80.04674,8.57098],[-80.04145,8.57295],[-80.02426,8.5712],[-80.01017,8.57969]]]}},{"type":"Feature","properties":{"corregimiento":"La Ermita","distrito":"San Carlos","provincia":"Panamá Oeste","bbox":[-80.09945,8.40939,-80.0346,8.53735]},"geometry":{"type":"Polygon","coordinates":[[[-80.07891,8.53735],[-80.07882,8.51726],[-80.07485,8.51441],[-80.07489,8.50637],[-80.06796,8.50142],[-80.06189,8.48803],[-80.06248,8.47779],[-80.04491,8.45569],[-80.05066,8.45551],[-80.05478,8.45952],[-80.05562,8.45743],[-80.05218,8.45179],[-80.05425,8.44519],[-80.04937,8.44128],[-80.04974,8.43672],[-80.04732,8.43705],[-80.04908,8.42726],[-80.0346,8.41504],[-80.04246,8.40939],[-80.05002,8.41195],[-80.04725,8.41403],[-80.05175,8.41951],[-80.05496,8.41496],[-80.05833,8.41842],[-80.06062,8.4272],[-80.06382,8.43097],[-80.06622,8.4298],[-80.06518,8.43719],[-80.06885,8.44675],[-80.07187,8.44785],[-80.08075,8.4638],[-80.08754,8.46551],[-80.08708,8.4725],[-80.08928,8.47196],[-80.08881,8.4755],[-80.09322,8.47577],[-80.09673,8.48442],[-80.09495,8.48745],[-80.09945,8.48913],[-80.09496,8.50075],[-80.09653,8.5121],[-80.09319,8.51437],[-80.09092,8.52695],[-80.08659,8.52874],[-80.08865,8.53237],[-80.08171,8.53387],[-80.07891,8.53735]]]}},{"type":"Feature","properties":{"corregimiento":"Las Uvas","distrito":"San Carlos","provincia":"Panamá Oeste","bbox":[-80.01152,8.43716,-79.97016,8.50614]},"geometry":{"type":"Polygon","coordinates":[[[-79.98619,8.49389],[-79.99253,8.49734],[-79.98675,8.48851],[-79.98944,8.48047],[-79.98449,8.47487],[-79.98612,8.4707],[-79.97685,8.46547],[-79.97016,8.45611],[-79.97639,8.44948],[-80.00151,8.43716],[-80.00523,8.44372],[-80.00908,8.4449],[-80.00663,8.44708],[-80.00775,8.45392],[-80.01152,8.45606],[-80.00954,8.46635],[-80.00525,8.47147],[-80.01114,8.47839],[-80.00639,8.47762],[-80.00368,8.48335],[-80.00599,8.48625],[-80.00436,8.49095],[-80.0071,8.49234],[-80.00247,8.49829],[-80.00503,8.50283],[-79.99254,8.50614],[-79.98619,8.49389]]]}},{"type":"Feature","properties":{"corregimiento":"San José","distrito":"San Carlos","provincia":"Panamá Oeste","bbox":[-79.98559,8.5068,-79.90076,8.5636]},"geometry":{"type":"Polygon","coordinates":[[[-79.98203,8.5636],[-79.95788,8.55597],[-79.95051,8.5503],[-79.93592,8.55152],[-79.93333,8.54489],[-79.9299,8.54638],[-79.92856,8.54303],[-79.91895,8.53897],[-79.91728,8.53498],[-79.90976,8.53279],[-79.90687,8.52525],[-79.90076,8.52207],[-79.90824,8.51743],[-79.91561,8.5068],[-79.92139,8.51054],[-79.93261,8.50706],[-79.94075,8.51128],[-79.94262,8.50969],[-79.94537,8.51746],[-79.97175,8.53045],[-79.97658,8.55264],[-79.98559,8.56198],[-79.98203,8.5636]]]}}]}