{"type":"FeatureCollection","features":[{"type":"Feature","properties":{"codigo":"1-1","provincia":"Bocas del Toro","descripcion":"Changuinola, Bocas del Toro, Chiriquí Grande, Almirante y Naso Tjër Di","diputados_a_elegir":2,"poblacion_electores_2022":94567,"bbox":[-82.94349,8.81606,-81.54021,9.61711]},"geometry":{"type":"MultiPolygon","coordinates":[[[[-81.57418,9.10488],[-81.56631,9.10527],[-81.56013,9.10141],[-81.55235,9.10466],[-81.55128,9.10187],[-81.5464,9.10188],[-81.54865,9.0995],[-81.54021,9.08978],[-81.56476,9.09261],[-81.57122,9.08973],[-81.57418,9.10488]]],[[[-82.00276,8.95694],[-82.002,8.95459],[-82.01072,8.95343],[-82.01043,8.94991],[-82.0165,8.94528],[-82.01204,8.93679],[-82.01802,8.93122],[-82.01897,8.92518],[-82.01588,8.91774],[-82.01088,8.91982],[-82.01053,8.91666],[-82.01834,8.90973],[-82.02163,8.91111],[-82.02093,8.90507],[-82.02554,8.90244],[-82.02454,8.89848],[-82.02774,8.89689],[-82.03117,8.90399],[-82.031,8.90024],[-82.03599,8.8986],[-82.03517,8.89341],[-82.0401,8.89338],[-82.0426,8.89804],[-82.04105,8.90344],[-82.03627,8.9002],[-82.03389,8.90143],[-82.03604,8.90869],[-82.02714,8.90641],[-82.02629,8.90838],[-82.02344,8.90497],[-82.02213,8.91168],[-82.02704,8.91088],[-82.02725,8.91675],[-82.02337,8.91736],[-82.01894,8.91329],[-82.02227,8.92868],[-82.01615,8.93734],[-82.01868,8.94582],[-82.01455,8.95155],[-82.01565,8.95426],[-82.01059,8.95752],[-82.00276,8.95694]]],[[[-82.05142,9.18315],[-82.03849,9.16999],[-82.03032,9.16912],[-82.03121,9.16106],[-82.0223,9.15454],[-82.02219,9.14862],[-82.01319,9.14893],[-82.00705,9.14367],[-82.0146,9.14247],[-82.01966,9.13358],[-82.02869,9.13052],[-82.06025,9.1526],[-82.05361,9.16901],[-82.05374,9.18063],[-82.05142,9.18315]]],[[[-82.05609,8.93755],[-82.03737,8.93728],[-82.03141,8.92999],[-82.05403,8.90611],[-82.06433,8.90825],[-82.06369,8.9049],[-82.06749,8.90419],[-82.07316,8.90869],[-82.07395,8.91419],[-82.07063,8.91598],[-82.0685,8.91326],[-82.06431,8.91849],[-82.06098,8.9119],[-82.06314,8.91008],[-82.05621,8.91182],[-82.05359,8.91704],[-82.0548,8.92201],[-82.0614,8.92716],[-82.05609,8.93755]]],[[[-82.19939,9.36132],[-82.20069,9.35453],[-82.19268,9.34829],[-82.18581,9.35007],[-82.18404,9.34658],[-82.17336,9.34351],[-82.16438,9.34948],[-82.15469,9.34358],[-82.14553,9.34249],[-82.14042,9.33037],[-82.12839,9.31915],[-82.12021,9.31606],[-82.11,9.32019],[-82.09032,9.30871],[-82.08107,9.29044],[-82.0954,9.29276],[-82.10551,9.29099],[-82.10535,9.28886],[-82.11117,9.28974],[-82.1245,9.27844],[-82.13357,9.27739],[-82.13073,9.27466],[-82.13418,9.26973],[-82.14153,9.26998],[-82.13806,9.26556],[-82.14598,9.26233],[-82.14594,9.25655],[-82.13896,9.2539],[-82.13756,9.24912],[-82.14025,9.24638],[-82.14738,9.24777],[-82.1562,9.2601],[-82.15722,9.2573],[-82.15987,9.25981],[-82.15534,9.26402],[-82.15676,9.26819],[-82.15043,9.27263],[-82.15228,9.27963],[-82.14977,9.28178],[-82.15339,9.282],[-82.1545,9.28521],[-82.15652,9.2833],[-82.15969,9.29333],[-82.1581,9.29866],[-82.16215,9.29701],[-82.16291,9.30006],[-82.16556,9.30195],[-82.16391,9.29722],[-82.16828,9.29934],[-82.16712,9.30525],[-82.1727,9.31004],[-82.16991,9.31179],[-82.15511,9.30629],[-82.15073,9.31047],[-82.15733,9.31363],[-82.16029,9.32063],[-82.17118,9.33056],[-82.17353,9.32979],[-82.17408,9.33358],[-82.18076,9.33355],[-82.1754,9.33475],[-82.17736,9.33743],[-82.17806,9.33543],[-82.1777,9.33752],[-82.17952,9.33839],[-82.17847,9.33641],[-82.18249,9.33481],[-82.18129,9.34012],[-82.18588,9.33391],[-82.18731,9.33732],[-82.19539,9.33552],[-82.20674,9.33933],[-82.20849,9.34191],[-82.20562,9.34466],[-82.20911,9.34805],[-82.21467,9.3473],[-82.20812,9.35673],[-82.19939,9.36132]]],[[[-82.13638,9.23521],[-82.12858,9.23224],[-82.12645,9.22669],[-82.11718,9.23146],[-82.1071,9.22209],[-82.10579,9.21659],[-82.1086,9.20985],[-82.09777,9.19605],[-82.09854,9.19332],[-82.10431,9.19376],[-82.1029,9.19151],[-82.11523,9.19551],[-82.11457,9.18909],[-82.11109,9.19214],[-82.10899,9.18939],[-82.10186,9.18907],[-82.10584,9.18644],[-82.11055,9.18855],[-82.11241,9.18583],[-82.10717,9.18396],[-82.10905,9.18112],[-82.1002,9.17991],[-82.09915,9.18369],[-82.09628,9.18217],[-82.09913,9.17672],[-82.08492,9.18083],[-82.08258,9.17859],[-82.08334,9.17197],[-82.08891,9.16767],[-82.0908,9.17245],[-82.09437,9.16759],[-82.08981,9.16688],[-82.08997,9.16468],[-82.09571,9.16444],[-82.09452,9.16254],[-82.10028,9.15746],[-82.09848,9.15483],[-82.10073,9.15225],[-82.09754,9.14901],[-82.10058,9.14658],[-82.09732,9.14679],[-82.0978,9.13945],[-82.09532,9.13858],[-82.09574,9.13515],[-82.10035,9.13363],[-82.09817,9.12973],[-82.11389,9.136],[-82.11044,9.13961],[-82.11225,9.14144],[-82.11662,9.1413],[-82.11923,9.13658],[-82.12983,9.14097],[-82.13857,9.1515],[-82.14238,9.15168],[-82.14179,9.15394],[-82.15362,9.14814],[-82.15288,9.15305],[-82.1608,9.1621],[-82.15702,9.16585],[-82.15561,9.16338],[-82.1579,9.16198],[-82.15502,9.1624],[-82.1561,9.15952],[-82.15391,9.15927],[-82.15466,9.16217],[-82.15208,9.16293],[-82.15628,9.1703],[-82.15335,9.17095],[-82.15633,9.17295],[-82.15346,9.17469],[-82.15784,9.17798],[-82.15521,9.17745],[-82.15506,9.18014],[-82.1589,9.19158],[-82.15594,9.1889],[-82.15339,9.19142],[-82.15366,9.18665],[-82.15098,9.19011],[-82.15281,9.19662],[-82.15047,9.19763],[-82.14049,9.1907],[-82.13323,9.19989],[-82.14346,9.201],[-82.14033,9.20643],[-82.14353,9.20507],[-82.14603,9.20772],[-82.14323,9.2141],[-82.14836,9.21345],[-82.14892,9.21723],[-82.14624,9.21424],[-82.1451,9.21941],[-82.14255,9.21885],[-82.14216,9.22258],[-82.1442,9.22275],[-82.14228,9.22491],[-82.14479,9.2259],[-82.14549,9.22103],[-82.14631,9.22354],[-82.14663,9.22087],[-82.14932,9.22093],[-82.14702,9.22472],[-82.14018,9.22962],[-82.14164,9.23217],[-82.13828,9.23188],[-82.13638,9.23521]]],[[[-82.27032,9.09556],[-82.25152,9.08507],[-82.24756,9.08562],[-82.24693,9.09003],[-82.24445,9.0902],[-82.24367,9.08524],[-82.24678,9.0817],[-82.2485,9.06878],[-82.24876,9.01971],[-82.25444,9.01575],[-82.2608,9.01899],[-82.26561,9.0135],[-82.24894,9.00934],[-82.24331,8.99774],[-82.23759,9.00117],[-82.23057,8.99812],[-82.22177,8.99887],[-82.21434,8.99013],[-82.1854,8.99225],[-82.18745,9.00161],[-82.18172,9.0061],[-82.17845,9.00378],[-82.17853,8.99709],[-82.16757,8.99161],[-82.16033,8.99484],[-82.14686,8.98635],[-82.1391,8.99011],[-82.13038,8.97997],[-82.13134,8.96916],[-82.11651,8.95302],[-82.11102,8.95078],[-82.11493,8.95202],[-82.11634,8.95125],[-82.11169,8.94318],[-82.11035,8.9333],[-82.10305,8.9318],[-82.10165,8.92752],[-82.09692,8.93114],[-82.09627,8.92693],[-82.08669,8.92709],[-82.08545,8.92106],[-82.09232,8.91516],[-82.0907,8.90875],[-82.09367,8.90597],[-82.12512,8.90983],[-82.14837,8.90227],[-82.1601,8.89354],[-82.16068,8.88326],[-82.16748,8.88004],[-82.16849,8.86213],[-82.18073,8.85248],[-82.18297,8.85353],[-82.18352,8.86055],[-82.1904,8.86454],[-82.19099,8.87175],[-82.18428,8.88102],[-82.18738,8.89656],[-82.19246,8.90409],[-82.20678,8.90046],[-82.21833,8.90298],[-82.21426,8.9106],[-82.21463,8.92478],[-82.21041,8.92435],[-82.20883,8.92828],[-82.2059,8.9217],[-82.19868,8.92017],[-82.19709,8.92469],[-82.19982,8.92664],[-82.19414,8.92652],[-82.19644,8.93155],[-82.19231,8.93924],[-82.19738,8.93818],[-82.19861,8.94295],[-82.1897,8.94407],[-82.19084,8.9494],[-82.18753,8.95527],[-82.19877,8.95748],[-82.20202,8.96177],[-82.20818,8.95819],[-82.2079,8.96213],[-82.20094,8.9667],[-82.20945,8.96462],[-82.21172,8.96843],[-82.20747,8.97115],[-82.21028,8.97436],[-82.20641,8.97779],[-82.20709,8.98041],[-82.20902,8.9811],[-82.21447,8.97233],[-82.21868,8.97717],[-82.22336,8.9706],[-82.23369,8.98198],[-82.23997,8.97794],[-82.2576,8.98514],[-82.25859,8.99517],[-82.268,8.98085],[-82.2714,8.98416],[-82.26115,8.99396],[-82.26502,8.99412],[-82.26549,8.99653],[-82.26976,8.99492],[-82.27404,8.99869],[-82.27442,9.00269],[-82.26831,9.00795],[-82.27308,9.00981],[-82.26851,9.01292],[-82.27378,9.01678],[-82.27712,9.01538],[-82.27949,9.00794],[-82.28834,9.01578],[-82.29607,9.0008],[-82.30023,9.00654],[-82.30375,9.00197],[-82.31227,9.00934],[-82.31451,9.00615],[-82.31957,9.01346],[-82.31743,9.0196],[-82.31147,9.01901],[-82.31393,9.02613],[-82.32127,9.02745],[-82.31876,9.03572],[-82.32041,9.03802],[-82.31543,9.03923],[-82.31021,9.04606],[-82.30406,9.04077],[-82.29621,9.04352],[-82.29973,9.04375],[-82.30165,9.0498],[-82.30539,9.04925],[-82.30796,9.05439],[-82.30016,9.05874],[-82.29584,9.05755],[-82.2928,9.06702],[-82.29069,9.06562],[-82.28457,9.07087],[-82.27698,9.0704],[-82.27386,9.0753],[-82.26609,9.07568],[-82.2689,9.07983],[-82.28007,9.07755],[-82.27438,9.08458],[-82.27553,9.0926],[-82.28084,9.09141],[-82.28326,9.09473],[-82.28439,9.08741],[-82.29025,9.08643],[-82.29427,9.08801],[-82.29143,9.09673],[-82.29955,9.09719],[-82.30182,9.10002],[-82.30033,9.10351],[-82.30632,9.10273],[-82.30769,9.10604],[-82.32398,9.10953],[-82.32252,9.11362],[-82.31602,9.11542],[-82.31366,9.12195],[-82.31179,9.12166],[-82.31278,9.11418],[-82.30673,9.11166],[-82.30633,9.12156],[-82.30215,9.12779],[-82.30387,9.13068],[-82.30074,9.13051],[-82.30617,9.13636],[-82.31049,9.12972],[-82.31329,9.13229],[-82.3125,9.13961],[-82.31886,9.13959],[-82.31912,9.14167],[-82.31456,9.14756],[-82.33081,9.14295],[-82.33167,9.1473],[-82.33518,9.13746],[-82.34052,9.13334],[-82.33784,9.13345],[-82.33984,9.12796],[-82.34994,9.12763],[-82.3478,9.12177],[-82.34979,9.11818],[-82.35178,9.11558],[-82.35617,9.11711],[-82.35636,9.11175],[-82.36245,9.10717],[-82.36243,9.10424],[-82.35867,9.10452],[-82.35121,9.09559],[-82.36061,9.09081],[-82.3564,9.08172],[-82.3594,9.07835],[-82.35784,9.06508],[-82.36026,9.06257],[-82.35799,9.05599],[-82.36117,9.05464],[-82.36228,9.03846],[-82.37035,9.03471],[-82.36662,9.02463],[-82.36941,9.02201],[-82.38347,9.02105],[-82.3954,9.00952],[-82.39659,9.00387],[-82.40203,9.00298],[-82.40389,8.99933],[-82.41424,8.99771],[-82.42349,8.98491],[-82.41388,8.97381],[-82.41047,8.97562],[-82.40594,8.97069],[-82.39665,8.97115],[-82.39096,8.96758],[-82.38261,8.96843],[-82.37514,8.96515],[-82.35424,8.94533],[-82.35051,8.93825],[-82.35054,8.93046],[-82.34512,8.92358],[-82.34519,8.91297],[-82.33685,8.90676],[-82.33489,8.89024],[-82.34538,8.88455],[-82.34946,8.87914],[-82.35046,8.8451],[-82.35417,8.84238],[-82.35595,8.82788],[-82.35907,8.82353],[-82.36613,8.82348],[-82.36876,8.81768],[-82.37406,8.81606],[-82.384,8.81799],[-82.394,8.82667],[-82.40709,8.83216],[-82.41182,8.82984],[-82.42176,8.83503],[-82.42721,8.83399],[-82.43127,8.84045],[-82.43789,8.83953],[-82.4396,8.84387],[-82.45223,8.84686],[-82.4624,8.8622],[-82.47053,8.86321],[-82.47409,8.85913],[-82.47948,8.85999],[-82.4871,8.86691],[-82.50233,8.86761],[-82.51642,8.87568],[-82.52958,8.86775],[-82.53994,8.88429],[-82.5661,8.90786],[-82.58597,8.90881],[-82.59316,8.91315],[-82.60026,8.90817],[-82.61821,8.90588],[-82.62587,8.91056],[-82.62412,8.9158],[-82.62803,8.91741],[-82.63025,8.91002],[-82.6366,8.90599],[-82.64059,8.89909],[-82.64588,8.90454],[-82.65605,8.9086],[-82.6615,8.9054],[-82.67032,8.90655],[-82.67218,8.90361],[-82.69398,8.89775],[-82.69926,8.91345],[-82.70778,8.91485],[-82.71227,8.92234],[-82.71611,8.94852],[-82.73835,8.96616],[-82.7371,8.97723],[-82.74061,8.98532],[-82.76221,8.99846],[-82.78119,9.0039],[-82.80006,9.00427],[-82.80556,9.00997],[-82.80553,9.0162],[-82.81555,9.01907],[-82.81317,9.02327],[-82.81696,9.02961],[-82.82797,9.03475],[-82.83575,9.03453],[-82.83873,9.03919],[-82.8546,9.04655],[-82.85963,9.056],[-82.86884,9.05435],[-82.87706,9.06049],[-82.87807,9.0682],[-82.88702,9.08061],[-82.88855,9.08843],[-82.90527,9.08204],[-82.91924,9.08427],[-82.92439,9.07928],[-82.933,9.07894],[-82.94349,9.4728],[-82.84088,9.49713],[-82.84441,9.49936],[-82.84274,9.50482],[-82.84785,9.5086],[-82.84758,9.51489],[-82.85679,9.51118],[-82.8538,9.5157],[-82.85491,9.51972],[-82.86489,9.5182],[-82.87289,9.52598],[-82.87151,9.53314],[-82.87405,9.53887],[-82.8669,9.54521],[-82.87083,9.55204],[-82.8679,9.55336],[-82.881,9.55556],[-82.88187,9.56264],[-82.88543,9.56538],[-82.87686,9.58154],[-82.87742,9.5908],[-82.87232,9.5947],[-82.86542,9.59017],[-82.85966,9.59033],[-82.86331,9.59486],[-82.86393,9.60284],[-82.85871,9.61228],[-82.8459,9.61711],[-82.82569,9.61128],[-82.82453,9.60442],[-82.81839,9.6027],[-82.81624,9.597],[-82.80421,9.59595],[-82.79944,9.59964],[-82.78804,9.59664],[-82.77681,9.58476],[-82.7699,9.58639],[-82.76186,9.59455],[-82.75169,9.59003],[-82.74456,9.59402],[-82.74224,9.59014],[-82.74783,9.5823],[-82.74314,9.56871],[-82.73006,9.56558],[-82.72621,9.56089],[-82.72902,9.5545],[-82.71878,9.55105],[-82.71539,9.54596],[-82.71211,9.54738],[-82.71082,9.55393],[-82.70747,9.55485],[-82.70277,9.54552],[-82.69475,9.54339],[-82.69233,9.53549],[-82.6997,9.53178],[-82.70069,9.52824],[-82.69238,9.51975],[-82.69105,9.51178],[-82.68062,9.50721],[-82.67568,9.51369],[-82.67257,9.50896],[-82.67272,9.50238],[-82.66802,9.50044],[-82.66175,9.5025],[-82.66175,9.5091],[-82.65915,9.51058],[-82.64875,9.49717],[-82.63498,9.49369],[-82.63538,9.50266],[-82.61788,9.49831],[-82.61003,9.50069],[-82.60502,9.50619],[-82.60452,9.52339],[-82.59768,9.53387],[-82.60413,9.55066],[-82.6021,9.5581],[-82.58297,9.55831],[-82.57354,9.55344],[-82.5643,9.54112],[-82.56006,9.54016],[-82.55438,9.54325],[-82.55323,9.55016],[-82.56554,9.56366],[-82.56166,9.57234],[-82.51689,9.53036],[-82.5127,9.52937],[-82.44729,9.47446],[-82.4448,9.46367],[-82.43895,9.46357],[-82.38867,9.42047],[-82.37818,9.41629],[-82.36521,9.41552],[-82.35582,9.42235],[-82.35292,9.43471],[-82.34255,9.43178],[-82.34424,9.41945],[-82.35104,9.41644],[-82.35443,9.39865],[-82.35736,9.3975],[-82.35301,9.38371],[-82.36263,9.37541],[-82.36879,9.37934],[-82.3676,9.37535],[-82.37211,9.36928],[-82.37847,9.37083],[-82.38898,9.34241],[-82.38272,9.33089],[-82.34845,9.30691],[-82.34461,9.29554],[-82.35739,9.29396],[-82.35765,9.28354],[-82.36262,9.28377],[-82.3654,9.27954],[-82.3688,9.28264],[-82.37592,9.28159],[-82.38339,9.28523],[-82.38916,9.29189],[-82.39058,9.28977],[-82.39151,9.29088],[-82.39456,9.2917],[-82.38931,9.28749],[-82.39597,9.29086],[-82.39993,9.28915],[-82.40126,9.29388],[-82.40335,9.28995],[-82.39815,9.28836],[-82.39786,9.27873],[-82.39277,9.27319],[-82.39776,9.27578],[-82.39704,9.27293],[-82.40023,9.27189],[-82.39499,9.26835],[-82.39782,9.26375],[-82.39153,9.26328],[-82.38752,9.25754],[-82.38169,9.25704],[-82.37975,9.25355],[-82.37505,9.25439],[-82.37025,9.24884],[-82.36203,9.2484],[-82.36092,9.24557],[-82.37055,9.24367],[-82.36818,9.24368],[-82.36927,9.24015],[-82.3661,9.23837],[-82.36948,9.23587],[-82.36696,9.23394],[-82.36869,9.22992],[-82.36817,9.22741],[-82.36338,9.22729],[-82.36422,9.21996],[-82.35553,9.21372],[-82.35215,9.2155],[-82.35326,9.2123],[-82.35272,9.21461],[-82.35637,9.21219],[-82.35512,9.20681],[-82.34925,9.2059],[-82.33774,9.19609],[-82.33428,9.19661],[-82.32703,9.19156],[-82.31942,9.18964],[-82.31639,9.19295],[-82.31281,9.18796],[-82.30892,9.18991],[-82.3091,9.19306],[-82.30714,9.19139],[-82.31175,9.20541],[-82.28845,9.19754],[-82.28611,9.20107],[-82.28181,9.19969],[-82.28137,9.20198],[-82.29179,9.2116],[-82.29367,9.21984],[-82.29077,9.22666],[-82.28675,9.21702],[-82.28283,9.21549],[-82.28186,9.2107],[-82.27932,9.21101],[-82.279,9.21084],[-82.27861,9.20531],[-82.27341,9.20245],[-82.27632,9.19235],[-82.28096,9.19469],[-82.28112,9.18961],[-82.27355,9.18315],[-82.26835,9.18674],[-82.26215,9.17974],[-82.25671,9.18051],[-82.25592,9.18385],[-82.24875,9.18751],[-82.24789,9.19398],[-82.25356,9.19784],[-82.25142,9.19956],[-82.25525,9.20482],[-82.24892,9.1997],[-82.24765,9.20382],[-82.25239,9.20667],[-82.24803,9.21029],[-82.24196,9.20001],[-82.24592,9.19956],[-82.24532,9.19681],[-82.24247,9.19637],[-82.23944,9.18991],[-82.22952,9.18993],[-82.22669,9.19551],[-82.2221,9.19555],[-82.22068,9.19867],[-82.22519,9.20321],[-82.22362,9.20571],[-82.2298,9.20867],[-82.22857,9.21614],[-82.22091,9.22339],[-82.21415,9.22552],[-82.21774,9.21968],[-82.2154,9.22022],[-82.21401,9.21229],[-82.21018,9.2141],[-82.21015,9.20852],[-82.2085,9.21551],[-82.20351,9.21199],[-82.20692,9.22011],[-82.19741,9.21819],[-82.19888,9.21213],[-82.20502,9.20614],[-82.20001,9.20487],[-82.19989,9.20805],[-82.19336,9.20519],[-82.19214,9.19563],[-82.18845,9.19688],[-82.18708,9.19453],[-82.18941,9.19231],[-82.18843,9.18924],[-82.18609,9.19082],[-82.18717,9.18748],[-82.18307,9.18838],[-82.18532,9.19176],[-82.18359,9.19577],[-82.18219,9.19289],[-82.17404,9.19771],[-82.1717,9.19526],[-82.17419,9.19551],[-82.17652,9.18902],[-82.18064,9.19071],[-82.185,9.17679],[-82.17995,9.17635],[-82.1807,9.17151],[-82.1775,9.16563],[-82.17098,9.16783],[-82.1752,9.16378],[-82.17038,9.1567],[-82.17512,9.14915],[-82.18191,9.14935],[-82.18314,9.14649],[-82.18498,9.14655],[-82.18311,9.14974],[-82.18533,9.14842],[-82.1855,9.15113],[-82.18737,9.14995],[-82.19226,9.15443],[-82.19534,9.16155],[-82.20217,9.15934],[-82.20361,9.16324],[-82.20129,9.16654],[-82.20632,9.1676],[-82.20434,9.1707],[-82.2079,9.16768],[-82.20989,9.17116],[-82.21253,9.17027],[-82.2118,9.16811],[-82.21573,9.1659],[-82.224,9.16755],[-82.23418,9.17423],[-82.24158,9.17039],[-82.25632,9.16912],[-82.25821,9.16479],[-82.25399,9.16207],[-82.25391,9.15483],[-82.27009,9.15078],[-82.27238,9.14069],[-82.26901,9.13518],[-82.26647,9.13752],[-82.26298,9.13453],[-82.26745,9.13178],[-82.2697,9.1198],[-82.25336,9.11279],[-82.25282,9.11032],[-82.26199,9.10923],[-82.27227,9.11538],[-82.27787,9.11386],[-82.28077,9.10677],[-82.27795,9.10168],[-82.2753,9.10254],[-82.27478,9.09761],[-82.27105,9.10009],[-82.27032,9.09556]]],[[[-82.15535,9.15459],[-82.15515,9.15052],[-82.15641,9.15201],[-82.15778,9.15205],[-82.15496,9.14747],[-82.15733,9.14757],[-82.15305,9.14498],[-82.16103,9.14025],[-82.15889,9.1323],[-82.16678,9.13711],[-82.17447,9.14885],[-82.16903,9.15167],[-82.16479,9.14739],[-82.16645,9.15233],[-82.1645,9.15533],[-82.16241,9.15265],[-82.1608,9.15558],[-82.16334,9.15656],[-82.16093,9.15891],[-82.15535,9.15459]]],[[[-82.21992,9.33441],[-82.19675,9.32177],[-82.18539,9.31984],[-82.18819,9.31765],[-82.18428,9.3185],[-82.1773,9.31403],[-82.17913,9.31216],[-82.17566,9.3096],[-82.17883,9.30795],[-82.17345,9.30754],[-82.17528,9.30474],[-82.17194,9.30547],[-82.17057,9.29832],[-82.18517,9.30674],[-82.18547,9.30327],[-82.19659,9.30557],[-82.19333,9.30858],[-82.1966,9.30837],[-82.19516,9.31168],[-82.19983,9.30623],[-82.19953,9.31051],[-82.20192,9.30971],[-82.2032,9.31328],[-82.2074,9.30833],[-82.20948,9.31202],[-82.20255,9.31575],[-82.20591,9.31532],[-82.20671,9.31842],[-82.21065,9.31683],[-82.22085,9.33017],[-82.21992,9.33441]]],[[[-82.2852,9.44059],[-82.27893,9.43805],[-82.27449,9.44072],[-82.27277,9.43731],[-82.27015,9.43874],[-82.26684,9.43476],[-82.26544,9.43664],[-82.26184,9.43515],[-82.26252,9.43301],[-82.25975,9.43365],[-82.25654,9.42791],[-82.25862,9.42342],[-82.25252,9.40927],[-82.2433,9.39571],[-82.23493,9.39053],[-82.23494,9.38428],[-82.23943,9.37839],[-82.23829,9.36411],[-82.24142,9.36052],[-82.24804,9.3614],[-82.25554,9.35276],[-82.25035,9.34454],[-82.23917,9.34188],[-82.24005,9.33507],[-82.248,9.33921],[-82.24621,9.33494],[-82.25193,9.32962],[-82.2591,9.33956],[-82.25861,9.34219],[-82.25339,9.34136],[-82.25196,9.34443],[-82.25963,9.35165],[-82.25871,9.35528],[-82.26206,9.35986],[-82.2621,9.35405],[-82.26721,9.36069],[-82.26451,9.35495],[-82.26979,9.35951],[-82.26195,9.34926],[-82.27041,9.35816],[-82.27478,9.35899],[-82.27085,9.36336],[-82.27794,9.36128],[-82.27121,9.36605],[-82.27599,9.36834],[-82.27515,9.37247],[-82.27874,9.37106],[-82.28054,9.36575],[-82.28339,9.37],[-82.28098,9.36574],[-82.28338,9.36338],[-82.29038,9.3736],[-82.29792,9.37404],[-82.29623,9.37604],[-82.29898,9.37415],[-82.29363,9.38104],[-82.30284,9.37828],[-82.30172,9.38533],[-82.30053,9.38558],[-82.29994,9.38643],[-82.29854,9.38662],[-82.29976,9.38672],[-82.30188,9.38538],[-82.30509,9.38543],[-82.31151,9.39325],[-82.30918,9.39559],[-82.31203,9.39622],[-82.30947,9.39845],[-82.31046,9.40191],[-82.3155,9.40028],[-82.31763,9.40429],[-82.32019,9.40084],[-82.32395,9.40548],[-82.32758,9.40432],[-82.33236,9.41357],[-82.32224,9.41876],[-82.32367,9.42859],[-82.30818,9.42836],[-82.2852,9.44059]]],[[[-82.2916,9.29906],[-82.28516,9.29109],[-82.2896,9.28948],[-82.2901,9.28692],[-82.28776,9.2874],[-82.29063,9.28333],[-82.28679,9.28571],[-82.28558,9.28077],[-82.28472,9.28769],[-82.28249,9.28474],[-82.28073,9.28675],[-82.28188,9.28962],[-82.26958,9.28601],[-82.26955,9.2951],[-82.26221,9.29535],[-82.25604,9.2803],[-82.25825,9.2777],[-82.24956,9.27585],[-82.24962,9.26909],[-82.24383,9.26231],[-82.2454,9.26616],[-82.24477,9.26913],[-82.24168,9.26235],[-82.24266,9.25656],[-82.23985,9.25835],[-82.23585,9.25526],[-82.23995,9.25423],[-82.23675,9.25311],[-82.24078,9.25077],[-82.23997,9.24679],[-82.24182,9.245],[-82.23955,9.24519],[-82.2394,9.24241],[-82.24116,9.24446],[-82.24075,9.24165],[-82.24339,9.24084],[-82.2432,9.24672],[-82.24821,9.24139],[-82.252,9.24522],[-82.25322,9.24228],[-82.25812,9.24132],[-82.26112,9.23474],[-82.26806,9.23517],[-82.26246,9.23024],[-82.26001,9.2325],[-82.26114,9.22639],[-82.2557,9.22468],[-82.25279,9.21972],[-82.25454,9.21464],[-82.25574,9.2165],[-82.25701,9.21575],[-82.25518,9.21402],[-82.25937,9.21581],[-82.26695,9.21261],[-82.27717,9.22045],[-82.28122,9.21988],[-82.28367,9.22276],[-82.27994,9.2278],[-82.28886,9.23192],[-82.28525,9.23585],[-82.29059,9.23449],[-82.29539,9.23818],[-82.29288,9.24474],[-82.28967,9.24564],[-82.28549,9.24223],[-82.28106,9.24586],[-82.29426,9.24925],[-82.29545,9.25615],[-82.29905,9.25781],[-82.29191,9.26923],[-82.29689,9.27075],[-82.2943,9.27746],[-82.29683,9.28272],[-82.29315,9.28522],[-82.29314,9.29656],[-82.2916,9.29906]]]]}}]}