{"type":"FeatureCollection","features":[{"type":"Feature","properties":{"codigo":"10-1","provincia":"Comarca Guna Yala","descripcion":"Narganá, parte de Ailigandí y comarca Madungandí","diputados_a_elegir":1,"poblacion_electores_2022":14586,"bbox":[-79.27558,9.05169,-77.91624,9.56696]},"geometry":{"type":"Polygon","coordinates":[[[-78.97201,9.56655],[-78.96561,9.56088],[-78.97932,9.54674],[-78.99656,9.55215],[-78.99049,9.54548],[-78.99941,9.53758],[-79.00581,9.54037],[-79.0163,9.53787],[-79.0153,9.54081],[-79.01908,9.54019],[-79.0195,9.53774],[-79.01655,9.53781],[-79.01848,9.53669],[-79.0249,9.53635],[-79.0247,9.53851],[-79.03489,9.53668],[-79.04064,9.54253],[-79.03773,9.53611],[-79.04291,9.53943],[-79.04174,9.5353],[-79.04566,9.53497],[-79.04525,9.53739],[-79.05516,9.53314],[-79.06836,9.51665],[-79.06707,9.51341],[-79.07501,9.51308],[-79.07272,9.50904],[-79.07519,9.50082],[-79.07336,9.49691],[-79.06889,9.49681],[-79.06679,9.4907],[-79.07431,9.48372],[-79.07491,9.47989],[-79.06757,9.46675],[-79.06265,9.46422],[-79.06159,9.45916],[-79.06982,9.44891],[-79.06478,9.44802],[-79.06061,9.4406],[-79.04897,9.43884],[-79.03755,9.44845],[-79.03106,9.44794],[-79.03088,9.45077],[-79.0278,9.45122],[-79.01636,9.44217],[-79.00477,9.44169],[-78.99495,9.44414],[-78.99044,9.45001],[-78.99134,9.45523],[-78.98507,9.45576],[-78.98272,9.45941],[-78.97394,9.45438],[-78.96117,9.45898],[-78.93576,9.4467],[-78.92803,9.44697],[-78.92262,9.4515],[-78.92049,9.4517],[-78.92497,9.44712],[-78.91779,9.44387],[-78.91202,9.44494],[-78.91497,9.43914],[-78.92198,9.44453],[-78.92678,9.44367],[-78.92199,9.44252],[-78.91678,9.42977],[-78.91102,9.42589],[-78.90466,9.42686],[-78.90224,9.42175],[-78.88854,9.42794],[-78.88017,9.42629],[-78.88001,9.42936],[-78.87778,9.42982],[-78.87913,9.42674],[-78.87456,9.42628],[-78.87489,9.42242],[-78.87023,9.41872],[-78.85885,9.42278],[-78.85217,9.42072],[-78.85365,9.42967],[-78.84929,9.42967],[-78.84674,9.43194],[-78.84663,9.43906],[-78.83951,9.4419],[-78.83504,9.4412],[-78.82812,9.43117],[-78.82366,9.42944],[-78.81543,9.43666],[-78.80946,9.43557],[-78.80977,9.43827],[-78.80175,9.43329],[-78.79905,9.43637],[-78.79414,9.43566],[-78.79137,9.43901],[-78.79215,9.44708],[-78.78819,9.45306],[-78.78331,9.45036],[-78.77934,9.45193],[-78.77818,9.44957],[-78.77551,9.45206],[-78.77616,9.44708],[-78.76328,9.44474],[-78.75149,9.44696],[-78.74858,9.45109],[-78.72725,9.45868],[-78.72426,9.44965],[-78.71861,9.44781],[-78.71599,9.45144],[-78.71861,9.44452],[-78.70948,9.43958],[-78.70368,9.43982],[-78.70409,9.43749],[-78.69902,9.43864],[-78.69433,9.43454],[-78.69634,9.43732],[-78.69195,9.43635],[-78.69249,9.44017],[-78.6878,9.44124],[-78.68742,9.43905],[-78.68496,9.44319],[-78.6858,9.43649],[-78.68225,9.43234],[-78.66355,9.42359],[-78.65653,9.42662],[-78.65698,9.43468],[-78.65233,9.43023],[-78.65307,9.43422],[-78.6479,9.43653],[-78.64648,9.43484],[-78.64896,9.43281],[-78.62905,9.42989],[-78.61859,9.41827],[-78.61091,9.42215],[-78.61059,9.42677],[-78.6031,9.42235],[-78.59853,9.42536],[-78.59841,9.41937],[-78.59746,9.42491],[-78.58232,9.43429],[-78.58251,9.44201],[-78.57682,9.44407],[-78.57523,9.44021],[-78.57307,9.44311],[-78.56431,9.44012],[-78.56115,9.44249],[-78.56228,9.43931],[-78.55435,9.43922],[-78.54843,9.4309],[-78.54173,9.43231],[-78.53423,9.42941],[-78.53343,9.42433],[-78.52031,9.42201],[-78.51579,9.41784],[-78.49937,9.41456],[-78.49534,9.41975],[-78.48751,9.42041],[-78.47913,9.41456],[-78.47041,9.41638],[-78.47328,9.41144],[-78.46952,9.40567],[-78.46466,9.40788],[-78.46097,9.40554],[-78.45735,9.41111],[-78.45444,9.41055],[-78.45498,9.40639],[-78.4484,9.40651],[-78.44645,9.40368],[-78.43886,9.40623],[-78.43262,9.40492],[-78.43026,9.40014],[-78.42521,9.39851],[-78.42377,9.38688],[-78.41787,9.38264],[-78.4118,9.38154],[-78.41005,9.38484],[-78.40424,9.38436],[-78.40449,9.37948],[-78.39746,9.37428],[-78.39347,9.37686],[-78.3794,9.37488],[-78.37453,9.3646],[-78.35698,9.35802],[-78.3317,9.35677],[-78.32504,9.34829],[-78.31018,9.34116],[-78.30701,9.33494],[-78.2857,9.33049],[-78.28446,9.31912],[-78.27513,9.32645],[-78.26531,9.31952],[-78.26177,9.32102],[-78.25571,9.31826],[-78.25598,9.31246],[-78.2425,9.31337],[-78.23929,9.31186],[-78.24214,9.30962],[-78.23772,9.31065],[-78.23842,9.30726],[-78.23416,9.31016],[-78.23445,9.30141],[-78.22866,9.29915],[-78.22355,9.30354],[-78.2237,9.29881],[-78.2196,9.30046],[-78.21961,9.29519],[-78.20936,9.28996],[-78.18952,9.28793],[-78.17625,9.29258],[-78.171,9.28684],[-78.1605,9.28551],[-78.14988,9.2779],[-78.139,9.27655],[-78.13751,9.27279],[-78.13197,9.27427],[-78.12626,9.26755],[-78.12036,9.2692],[-78.12212,9.2673],[-78.11782,9.26716],[-78.12409,9.27224],[-78.12258,9.27441],[-78.11687,9.27409],[-78.11783,9.27036],[-78.11564,9.27262],[-78.1112,9.27132],[-78.10829,9.26793],[-78.11633,9.26269],[-78.11184,9.25288],[-78.10782,9.25569],[-78.10611,9.25212],[-78.09762,9.25257],[-78.09666,9.25502],[-78.08637,9.24974],[-78.08495,9.25174],[-78.07525,9.24881],[-78.07222,9.25246],[-78.07038,9.24927],[-78.06734,9.25173],[-78.04377,9.24499],[-78.03219,9.23693],[-78.03399,9.23413],[-78.03014,9.23091],[-78.03255,9.22919],[-78.02997,9.22203],[-78.02454,9.2236],[-78.02195,9.22114],[-78.02543,9.22085],[-78.02439,9.21772],[-78.01964,9.21645],[-78.02046,9.21976],[-78.01715,9.21244],[-78.01593,9.21521],[-78.00935,9.21277],[-78.00868,9.20792],[-78.00395,9.20376],[-78.0043,9.19706],[-77.99932,9.19247],[-77.98695,9.18899],[-77.98351,9.19298],[-77.97675,9.19252],[-77.9804,9.18783],[-77.97339,9.17305],[-77.96914,9.17182],[-77.96764,9.17469],[-77.95882,9.17048],[-77.94704,9.15732],[-77.94702,9.15439],[-77.95271,9.15421],[-77.95885,9.15879],[-77.96017,9.15564],[-77.95535,9.14865],[-77.94448,9.14567],[-77.93335,9.12776],[-77.92764,9.12462],[-77.92884,9.12296],[-77.92374,9.12284],[-77.91624,9.11361],[-77.9283,9.10142],[-77.92785,9.0969],[-77.93291,9.08879],[-77.93002,9.08638],[-77.93706,9.08486],[-77.93925,9.08681],[-77.94677,9.08121],[-77.94784,9.07467],[-77.95399,9.07075],[-77.95208,9.06664],[-77.95395,9.06153],[-77.97842,9.05169],[-77.97916,9.05609],[-77.98425,9.05701],[-77.98837,9.06173],[-77.98727,9.06664],[-77.99401,9.06972],[-77.99398,9.07444],[-78.00618,9.08267],[-78.01482,9.08309],[-78.02359,9.0937],[-78.03876,9.09938],[-78.0565,9.09501],[-78.06302,9.10337],[-78.06822,9.10436],[-78.0679,9.1089],[-78.08189,9.11101],[-78.08483,9.11578],[-78.08089,9.11956],[-78.08051,9.12578],[-78.07,9.12987],[-78.06732,9.13524],[-78.06435,9.13483],[-78.06897,9.14096],[-78.09106,9.14789],[-78.09184,9.16164],[-78.09533,9.16346],[-78.09374,9.16607],[-78.08728,9.16656],[-78.08713,9.17261],[-78.0974,9.1748],[-78.10936,9.18335],[-78.10998,9.18034],[-78.11619,9.17892],[-78.12776,9.18511],[-78.13012,9.1906],[-78.13496,9.19003],[-78.14618,9.19671],[-78.15756,9.19586],[-78.16374,9.20211],[-78.17383,9.20112],[-78.1845,9.20636],[-78.19483,9.20428],[-78.20753,9.20665],[-78.21086,9.20989],[-78.22095,9.2092],[-78.23389,9.21637],[-78.23722,9.21389],[-78.25227,9.21404],[-78.25648,9.21769],[-78.2566,9.22792],[-78.26549,9.22751],[-78.2659,9.21824],[-78.2715,9.22049],[-78.27938,9.21672],[-78.292,9.22477],[-78.29706,9.22407],[-78.29907,9.22894],[-78.295,9.24105],[-78.30082,9.24948],[-78.30779,9.28057],[-78.32142,9.28118],[-78.3305,9.27182],[-78.35036,9.27229],[-78.34889,9.26475],[-78.35528,9.26289],[-78.36501,9.27096],[-78.37143,9.2687],[-78.38104,9.27241],[-78.38712,9.27732],[-78.39137,9.29391],[-78.3966,9.29413],[-78.40271,9.28751],[-78.41104,9.28699],[-78.41394,9.28986],[-78.42073,9.27871],[-78.42663,9.27792],[-78.43091,9.27341],[-78.43062,9.26598],[-78.43324,9.26266],[-78.46194,9.26246],[-78.46989,9.27836],[-78.47573,9.27943],[-78.47524,9.29808],[-78.48852,9.30617],[-78.48931,9.31484],[-78.47973,9.319],[-78.47869,9.33149],[-78.48277,9.33705],[-78.49555,9.3409],[-78.50456,9.34923],[-78.49705,9.35496],[-78.50108,9.36518],[-78.5098,9.36647],[-78.51205,9.36361],[-78.5141,9.36639],[-78.52685,9.36798],[-78.52722,9.36402],[-78.5364,9.36148],[-78.53509,9.35338],[-78.53934,9.35409],[-78.54074,9.35107],[-78.55036,9.34918],[-78.55353,9.34354],[-78.56299,9.3445],[-78.57289,9.33887],[-78.58726,9.344],[-78.59616,9.34248],[-78.59831,9.33713],[-78.60961,9.33986],[-78.62326,9.33739],[-78.63002,9.34477],[-78.6314,9.35503],[-78.64581,9.35381],[-78.64696,9.35765],[-78.65569,9.35753],[-78.65557,9.36163],[-78.66471,9.36236],[-78.67059,9.37639],[-78.68853,9.38473],[-78.68941,9.38793],[-78.69707,9.39224],[-78.70035,9.3997],[-78.71138,9.39418],[-78.71626,9.3957],[-78.72351,9.39332],[-78.731,9.388],[-78.73846,9.39068],[-78.7522,9.38772],[-78.76085,9.39365],[-78.76282,9.39839],[-78.77057,9.39045],[-78.77642,9.39585],[-78.78523,9.38986],[-78.79204,9.39474],[-78.806,9.387],[-78.81805,9.3888],[-78.81505,9.38117],[-78.81772,9.36878],[-78.85433,9.37184],[-78.86178,9.36676],[-78.86737,9.37203],[-78.87396,9.36939],[-78.87742,9.37236],[-78.89267,9.37056],[-78.90035,9.36547],[-78.90476,9.35303],[-78.91633,9.35049],[-78.91564,9.33755],[-78.91284,9.33441],[-78.92245,9.3331],[-78.92302,9.32694],[-78.93332,9.3217],[-78.93261,9.31503],[-78.92229,9.31166],[-78.92527,9.30385],[-78.93264,9.30212],[-78.93896,9.30299],[-78.94196,9.30799],[-78.93534,9.31091],[-78.93911,9.31598],[-78.9358,9.32761],[-78.94095,9.32962],[-78.94333,9.33961],[-78.94704,9.33584],[-78.95789,9.34216],[-78.96241,9.34074],[-78.96598,9.34461],[-78.96878,9.34129],[-78.97571,9.34555],[-78.98202,9.34536],[-78.9836,9.3425],[-78.98651,9.34404],[-78.98883,9.34043],[-78.99128,9.34171],[-79.0003,9.33072],[-78.99954,9.31642],[-78.99393,9.31137],[-78.98444,9.30877],[-78.98722,9.30054],[-78.99605,9.29686],[-78.99991,9.30109],[-79.00804,9.29891],[-79.00958,9.2951],[-79.01269,9.29612],[-79.01554,9.2925],[-79.02566,9.29817],[-79.02786,9.29537],[-79.04169,9.29654],[-79.04383,9.30006],[-79.05225,9.29803],[-79.05652,9.30484],[-79.06988,9.3028],[-79.07426,9.29683],[-79.08557,9.29602],[-79.08805,9.29808],[-79.0967,9.2956],[-79.09778,9.30261],[-79.08627,9.31089],[-79.09711,9.3215],[-79.10173,9.3321],[-79.11958,9.3306],[-79.13362,9.32345],[-79.1373,9.32653],[-79.14959,9.32616],[-79.15374,9.33581],[-79.15529,9.33355],[-79.16333,9.33371],[-79.16849,9.32946],[-79.1822,9.33021],[-79.19104,9.32666],[-79.194,9.32146],[-79.20494,9.31969],[-79.21785,9.31094],[-79.22492,9.31608],[-79.23904,9.31082],[-79.24582,9.31593],[-79.25909,9.31276],[-79.26954,9.31553],[-79.27558,9.3219],[-79.26929,9.33071],[-79.27012,9.33453],[-79.26521,9.33349],[-79.26381,9.33961],[-79.25255,9.34512],[-79.24792,9.35208],[-79.24097,9.35415],[-79.23469,9.36279],[-79.22955,9.36187],[-79.22688,9.36462],[-79.22184,9.36173],[-79.21381,9.37161],[-79.20452,9.3739],[-79.19098,9.38231],[-79.18509,9.38344],[-79.18577,9.37997],[-79.18079,9.38191],[-79.17588,9.38094],[-79.17662,9.37849],[-79.1727,9.38137],[-79.17132,9.379],[-79.15871,9.3867],[-79.15843,9.39769],[-79.15268,9.40595],[-79.14944,9.41791],[-79.14582,9.42065],[-79.1505,9.42446],[-79.14669,9.42778],[-79.14808,9.43079],[-79.14439,9.43273],[-79.14466,9.43829],[-79.13872,9.4422],[-79.13582,9.44974],[-79.13263,9.44959],[-79.12752,9.45993],[-79.12141,9.45911],[-79.11954,9.46359],[-79.108,9.46885],[-79.10901,9.47245],[-79.09528,9.47437],[-79.09654,9.4779],[-79.0931,9.47673],[-79.09419,9.4741],[-79.09059,9.47646],[-79.08976,9.47231],[-79.09278,9.47004],[-79.09054,9.46742],[-79.08202,9.46708],[-79.08086,9.55789],[-79.07476,9.56191],[-79.06109,9.56114],[-79.05375,9.56459],[-79.03279,9.56635],[-79.02442,9.56377],[-79.02095,9.56648],[-79.01837,9.5642],[-79.00528,9.56696],[-79.00102,9.56045],[-78.99534,9.56217],[-78.99387,9.56686],[-78.98576,9.56137],[-78.97201,9.56655]]]}}]}