{"type":"FeatureCollection","features":[{"type":"Feature","properties":{"codigo":"10-2","provincia":"Comarca Guna Yala","descripcion":"Resto de Ailigandí, Tubualá, Puerto Obaldía y comarca Wargandí","diputados_a_elegir":1,"poblacion_electores_2022":12978,"bbox":[-78.16106,8.58723,-77.4344,9.11612]},"geometry":{"type":"Polygon","coordinates":[[[-77.77202,8.88154],[-77.77611,8.87482],[-77.76554,8.85539],[-77.76978,8.85396],[-77.76967,8.84568],[-77.77624,8.8375],[-77.78595,8.83853],[-77.78498,8.83382],[-77.78808,8.83098],[-77.78338,8.82802],[-77.7847,8.82447],[-77.7801,8.81738],[-77.78947,8.81177],[-77.78789,8.80706],[-77.79229,8.8059],[-77.79079,8.80119],[-77.79503,8.80179],[-77.79585,8.7952],[-77.80046,8.79821],[-77.79959,8.79262],[-77.80416,8.78882],[-77.80879,8.79391],[-77.81136,8.78895],[-77.8185,8.78865],[-77.81777,8.78021],[-77.82349,8.7775],[-77.82574,8.7697],[-77.82672,8.77686],[-77.82935,8.77763],[-77.83899,8.76973],[-77.83763,8.77919],[-77.84498,8.77672],[-77.84403,8.78235],[-77.85149,8.79442],[-77.85514,8.79056],[-77.85969,8.79116],[-77.86121,8.80039],[-77.86818,8.79945],[-77.86918,8.8041],[-77.87502,8.80451],[-77.87768,8.80909],[-77.88238,8.80797],[-77.88219,8.81432],[-77.88638,8.81462],[-77.88758,8.81122],[-77.89859,8.81306],[-77.89926,8.8088],[-77.90875,8.80877],[-77.90688,8.8051],[-77.90907,8.79876],[-77.91701,8.79432],[-77.91124,8.79192],[-77.91089,8.78798],[-77.91589,8.78532],[-77.91767,8.78924],[-77.92093,8.78466],[-77.91979,8.77931],[-77.91434,8.77899],[-77.91788,8.76974],[-77.92964,8.76399],[-77.92579,8.76138],[-77.929,8.76173],[-77.9291,8.75928],[-77.93479,8.76228],[-77.93628,8.75915],[-77.93823,8.76029],[-77.93846,8.75571],[-77.94567,8.7566],[-77.94639,8.75164],[-77.94942,8.75099],[-77.95576,8.75096],[-77.95907,8.7569],[-77.96522,8.75723],[-77.96272,8.75421],[-77.96804,8.74906],[-77.97164,8.74799],[-77.97238,8.75045],[-77.97538,8.74667],[-77.97818,8.74834],[-77.98303,8.74557],[-77.98785,8.73086],[-78.00175,8.73436],[-78.00668,8.73282],[-78.023,8.74509],[-78.02132,8.75949],[-78.02475,8.76374],[-78.03131,8.76366],[-78.03747,8.7688],[-78.05596,8.7691],[-78.06309,8.77588],[-78.07105,8.77706],[-78.07398,8.79158],[-78.0698,8.79911],[-78.07131,8.80413],[-78.07911,8.80982],[-78.0771,8.8204],[-78.08127,8.83661],[-78.0928,8.84628],[-78.11287,8.84931],[-78.11464,8.85921],[-78.12447,8.85969],[-78.12775,8.86421],[-78.12799,8.88237],[-78.11719,8.89992],[-78.12337,8.90349],[-78.12898,8.9172],[-78.14429,8.92302],[-78.15077,8.92003],[-78.1558,8.92105],[-78.16106,8.92986],[-78.14294,8.95351],[-78.13481,8.95072],[-78.13196,8.94359],[-78.12233,8.94309],[-78.1159,8.95268],[-78.11653,8.9567],[-78.11242,8.95788],[-78.11706,8.9678],[-78.12168,8.96743],[-78.12041,8.97882],[-78.12579,8.98171],[-78.12569,8.98475],[-78.13052,8.98592],[-78.13541,8.99885],[-78.12614,9.01229],[-78.12109,9.01383],[-78.11919,9.02144],[-78.11125,9.02837],[-78.09586,9.03387],[-78.09773,9.04002],[-78.09131,9.04188],[-78.08961,9.0453],[-78.09173,9.05179],[-78.07404,9.05925],[-78.07006,9.07237],[-78.07449,9.07481],[-78.07417,9.08194],[-78.06761,9.09345],[-78.06909,9.09953],[-78.06853,9.10132],[-78.06899,9.10295],[-78.06855,9.10529],[-78.06302,9.10337],[-78.0565,9.09501],[-78.03876,9.09938],[-78.02359,9.0937],[-78.01482,9.08309],[-78.00618,9.08267],[-77.99398,9.07444],[-77.99401,9.06972],[-77.98727,9.06664],[-77.98837,9.06173],[-77.98425,9.05701],[-77.97916,9.05609],[-77.97842,9.05169],[-77.95395,9.06153],[-77.95208,9.06664],[-77.95399,9.07075],[-77.94784,9.07467],[-77.94677,9.08121],[-77.93925,9.08681],[-77.93706,9.08486],[-77.93002,9.08638],[-77.93291,9.08879],[-77.92785,9.0969],[-77.9283,9.10142],[-77.91624,9.11361],[-77.90291,9.10193],[-77.90059,9.10282],[-77.9012,9.09856],[-77.89531,9.09712],[-77.89366,9.09099],[-77.89917,9.08621],[-77.89525,9.08749],[-77.89299,9.08414],[-77.89249,9.08753],[-77.89019,9.08434],[-77.88935,9.09196],[-77.88866,9.09316],[-77.88668,9.09334],[-77.88548,9.08874],[-77.88781,9.08498],[-77.88562,9.08339],[-77.89171,9.0771],[-77.88757,9.07437],[-77.88539,9.07749],[-77.87992,9.07473],[-77.87838,9.07008],[-77.87065,9.06877],[-77.87457,9.06425],[-77.86893,9.06164],[-77.86957,9.05808],[-77.86483,9.05461],[-77.86836,9.06467],[-77.86174,9.06152],[-77.86057,9.05785],[-77.86055,9.0612],[-77.8568,9.06139],[-77.86054,9.06391],[-77.8645,9.07541],[-77.86974,9.07656],[-77.87369,9.08185],[-77.87398,9.08801],[-77.87024,9.09331],[-77.87251,9.09494],[-77.871,9.09921],[-77.87719,9.10576],[-77.87463,9.10865],[-77.87807,9.11535],[-77.87523,9.11612],[-77.86764,9.11119],[-77.86783,9.10807],[-77.86254,9.10726],[-77.85974,9.10193],[-77.86324,9.09683],[-77.85671,9.09769],[-77.85425,9.09475],[-77.85713,9.09507],[-77.8587,9.09402],[-77.85935,9.09238],[-77.8573,9.09435],[-77.85228,9.09289],[-77.84845,9.08504],[-77.85063,9.08382],[-77.84775,9.08274],[-77.84539,9.08654],[-77.84552,9.08175],[-77.84765,9.08143],[-77.84362,9.07636],[-77.83101,9.06845],[-77.8315,9.0662],[-77.81062,9.05487],[-77.80807,9.05106],[-77.81159,9.04695],[-77.81124,9.03569],[-77.80786,9.0338],[-77.80512,9.02597],[-77.7947,9.02186],[-77.77285,9.00674],[-77.77282,9.0048],[-77.77821,9.00729],[-77.78193,9.00525],[-77.77964,9.00244],[-77.77545,9.00359],[-77.77754,8.99869],[-77.78177,8.99797],[-77.77695,8.99573],[-77.77203,9.00213],[-77.76623,9.00057],[-77.77204,8.99841],[-77.77028,8.99285],[-77.76129,8.99026],[-77.76273,8.98419],[-77.75557,8.98343],[-77.75743,8.98003],[-77.76275,8.98124],[-77.76413,8.97507],[-77.75615,8.97869],[-77.75335,8.97679],[-77.7549,8.97244],[-77.75089,8.97368],[-77.7501,8.97114],[-77.74322,8.97052],[-77.74233,8.96215],[-77.74831,8.96168],[-77.75573,8.9661],[-77.76136,8.95986],[-77.76264,8.95188],[-77.75216,8.94017],[-77.74639,8.93958],[-77.74416,8.93555],[-77.7429,8.93743],[-77.74178,8.93137],[-77.72679,8.91614],[-77.73102,8.91464],[-77.72716,8.91504],[-77.72699,8.90568],[-77.71519,8.89614],[-77.71855,8.89481],[-77.71834,8.88984],[-77.70177,8.8823],[-77.70045,8.8872],[-77.69621,8.88769],[-77.69824,8.87777],[-77.69596,8.87089],[-77.68874,8.87077],[-77.68623,8.86591],[-77.67937,8.86555],[-77.66795,8.85137],[-77.66433,8.85088],[-77.66285,8.84609],[-77.65202,8.84189],[-77.65361,8.83225],[-77.65018,8.82793],[-77.64718,8.82826],[-77.64444,8.8195],[-77.63708,8.8206],[-77.63537,8.8261],[-77.62577,8.8146],[-77.62272,8.81438],[-77.61881,8.8184],[-77.62201,8.82065],[-77.6236,8.81898],[-77.63451,8.83662],[-77.63993,8.84015],[-77.63682,8.84255],[-77.63887,8.84917],[-77.63247,8.85169],[-77.63214,8.84451],[-77.62145,8.83736],[-77.61815,8.82824],[-77.61251,8.82686],[-77.61335,8.81945],[-77.60399,8.81793],[-77.59593,8.81061],[-77.59344,8.80418],[-77.57708,8.7977],[-77.57805,8.79543],[-77.57281,8.78834],[-77.57908,8.78444],[-77.57924,8.77869],[-77.58197,8.7784],[-77.57923,8.77808],[-77.58033,8.77556],[-77.57138,8.76563],[-77.56802,8.76485],[-77.56506,8.76789],[-77.56321,8.76434],[-77.5598,8.76429],[-77.55596,8.76747],[-77.556,8.77717],[-77.54595,8.77566],[-77.539,8.76601],[-77.54003,8.76098],[-77.53517,8.76101],[-77.53768,8.75861],[-77.53469,8.755],[-77.5354,8.75147],[-77.53857,8.75134],[-77.53933,8.73933],[-77.54281,8.73671],[-77.54515,8.73877],[-77.54732,8.73131],[-77.5497,8.73129],[-77.55143,8.72848],[-77.5499,8.71895],[-77.54603,8.71649],[-77.54724,8.71262],[-77.49703,8.68235],[-77.44366,8.6614],[-77.44192,8.65682],[-77.44518,8.6543],[-77.43784,8.642],[-77.4344,8.62507],[-77.44404,8.63211],[-77.44604,8.63686],[-77.45469,8.64034],[-77.45392,8.64305],[-77.45798,8.64573],[-77.45491,8.64801],[-77.45667,8.65235],[-77.46289,8.64768],[-77.46855,8.6507],[-77.47734,8.63076],[-77.49192,8.62555],[-77.49888,8.61552],[-77.50222,8.61478],[-77.50489,8.60598],[-77.50933,8.60345],[-77.51775,8.60638],[-77.53097,8.59228],[-77.5383,8.59335],[-77.54764,8.58723],[-77.55332,8.59514],[-77.56731,8.60155],[-77.57072,8.60532],[-77.57247,8.61995],[-77.58261,8.62873],[-77.58388,8.63325],[-77.5768,8.64956],[-77.5778,8.65953],[-77.57169,8.66595],[-77.57816,8.67925],[-77.58751,8.6819],[-77.6016,8.69376],[-77.62159,8.69651],[-77.62769,8.7139],[-77.63649,8.72331],[-77.6355,8.73921],[-77.6399,8.74486],[-77.64414,8.7469],[-77.65431,8.74495],[-77.66259,8.75883],[-77.67895,8.76838],[-77.68388,8.76262],[-77.69641,8.76631],[-77.70122,8.77644],[-77.69913,8.78075],[-77.70743,8.78196],[-77.70619,8.79696],[-77.71203,8.80516],[-77.70887,8.81015],[-77.71249,8.81726],[-77.70852,8.82377],[-77.71525,8.82676],[-77.71714,8.83148],[-77.7275,8.82939],[-77.73124,8.83412],[-77.74651,8.84232],[-77.7497,8.85153],[-77.74649,8.86502],[-77.75223,8.86678],[-77.75988,8.87613],[-77.76385,8.87551],[-77.77202,8.88154]]]}}]}