{"type":"FeatureCollection","features":[{"type":"Feature","properties":{"codigo":"12-1","provincia":"Comarca Ngäbe-Buglé","descripcion":"Kankintú, Kusapin, Jirondai y Santa Catalina","diputados_a_elegir":1,"poblacion_electores_2022":51294,"bbox":[-82.4235,8.49571,-81.15528,9.18623]},"geometry":{"type":"Polygon","coordinates":[[[-82.05042,8.63582],[-82.05907,8.63523],[-82.06359,8.63988],[-82.06983,8.64125],[-82.07655,8.63286],[-82.08076,8.63283],[-82.09878,8.64115],[-82.12116,8.64601],[-82.13143,8.65853],[-82.13096,8.66249],[-82.12421,8.66922],[-82.12563,8.67408],[-82.12213,8.68243],[-82.12924,8.6998],[-82.12606,8.70799],[-82.11778,8.712],[-82.11327,8.72398],[-82.11335,8.72898],[-82.11783,8.7305],[-82.11239,8.74465],[-82.11513,8.75183],[-82.11182,8.76275],[-82.11899,8.76941],[-82.12652,8.76676],[-82.16406,8.76993],[-82.16751,8.76616],[-82.17431,8.76724],[-82.18172,8.76395],[-82.18495,8.77131],[-82.19643,8.77101],[-82.21756,8.78652],[-82.22821,8.78567],[-82.23142,8.77794],[-82.23643,8.77422],[-82.25371,8.78131],[-82.2683,8.77978],[-82.27774,8.78402],[-82.30697,8.78448],[-82.31779,8.79206],[-82.3202,8.79856],[-82.33129,8.79841],[-82.34149,8.80259],[-82.34413,8.79996],[-82.3524,8.81154],[-82.35236,8.81597],[-82.35913,8.82028],[-82.35415,8.84244],[-82.35046,8.8451],[-82.34946,8.87914],[-82.34538,8.88455],[-82.33489,8.89024],[-82.33686,8.90682],[-82.34519,8.91297],[-82.34512,8.92358],[-82.35054,8.93046],[-82.35051,8.93825],[-82.35424,8.94533],[-82.37514,8.96515],[-82.38261,8.96843],[-82.39096,8.96758],[-82.39665,8.97115],[-82.40594,8.97069],[-82.41047,8.97562],[-82.41388,8.97381],[-82.4235,8.98474],[-82.41424,8.99771],[-82.40389,8.99933],[-82.40203,9.00298],[-82.39659,9.00387],[-82.3954,9.00952],[-82.38347,9.02105],[-82.36941,9.02201],[-82.36662,9.02463],[-82.37035,9.03471],[-82.36228,9.03846],[-82.36117,9.05464],[-82.35799,9.05599],[-82.36026,9.06257],[-82.35784,9.06508],[-82.3594,9.07835],[-82.3564,9.08172],[-82.36061,9.09081],[-82.35121,9.09559],[-82.35867,9.10452],[-82.36243,9.10424],[-82.36245,9.10717],[-82.35636,9.11175],[-82.35617,9.11711],[-82.35178,9.11558],[-82.34979,9.11818],[-82.3478,9.12177],[-82.34994,9.12763],[-82.33984,9.12796],[-82.33784,9.13345],[-82.34052,9.13334],[-82.33518,9.13746],[-82.33167,9.1473],[-82.33081,9.14295],[-82.31456,9.14756],[-82.31912,9.14167],[-82.31886,9.13959],[-82.3125,9.13961],[-82.31329,9.13229],[-82.31049,9.12972],[-82.30617,9.13636],[-82.30074,9.13051],[-82.30387,9.13068],[-82.30215,9.12779],[-82.30633,9.12156],[-82.30673,9.11166],[-82.31278,9.11418],[-82.31179,9.12166],[-82.31366,9.12195],[-82.31602,9.11542],[-82.32252,9.11362],[-82.32398,9.10953],[-82.30769,9.10604],[-82.30632,9.10273],[-82.30033,9.10351],[-82.30182,9.10002],[-82.29955,9.09719],[-82.29143,9.09673],[-82.29427,9.08801],[-82.29025,9.08643],[-82.28439,9.08741],[-82.28326,9.09473],[-82.28084,9.09141],[-82.27553,9.0926],[-82.27438,9.08458],[-82.28007,9.07755],[-82.2689,9.07983],[-82.26609,9.07568],[-82.27386,9.0753],[-82.27698,9.0704],[-82.28457,9.07087],[-82.29069,9.06562],[-82.2928,9.06702],[-82.29584,9.05755],[-82.30016,9.05874],[-82.30796,9.05439],[-82.30539,9.04925],[-82.30165,9.0498],[-82.29973,9.04375],[-82.29621,9.04352],[-82.30406,9.04077],[-82.31021,9.04606],[-82.31543,9.03923],[-82.32041,9.03802],[-82.31876,9.03572],[-82.32127,9.02745],[-82.31393,9.02613],[-82.31147,9.01901],[-82.31743,9.0196],[-82.31957,9.01346],[-82.31451,9.00615],[-82.31227,9.00934],[-82.30375,9.00197],[-82.30023,9.00654],[-82.29607,9.0008],[-82.28834,9.01578],[-82.27949,9.00794],[-82.27712,9.01538],[-82.27378,9.01678],[-82.26851,9.01292],[-82.27308,9.00981],[-82.26831,9.00795],[-82.27442,9.00269],[-82.27404,8.99869],[-82.26976,8.99492],[-82.26549,8.99653],[-82.26502,8.99412],[-82.26115,8.99396],[-82.2714,8.98416],[-82.268,8.98085],[-82.25859,8.99517],[-82.2576,8.98514],[-82.23997,8.97794],[-82.23369,8.98198],[-82.22336,8.9706],[-82.21868,8.97717],[-82.21447,8.97233],[-82.20902,8.9811],[-82.20709,8.98041],[-82.20641,8.97779],[-82.21028,8.97436],[-82.20747,8.97115],[-82.21172,8.96843],[-82.20945,8.96462],[-82.20094,8.9667],[-82.2079,8.96213],[-82.20818,8.95819],[-82.20202,8.96177],[-82.19877,8.95748],[-82.18753,8.95527],[-82.19084,8.9494],[-82.1897,8.94407],[-82.19861,8.94295],[-82.19738,8.93818],[-82.19231,8.93924],[-82.19644,8.93155],[-82.19414,8.92652],[-82.19982,8.92664],[-82.19709,8.92469],[-82.19868,8.92017],[-82.2059,8.9217],[-82.20883,8.92828],[-82.21041,8.92435],[-82.21463,8.92478],[-82.21426,8.9106],[-82.21833,8.90298],[-82.20678,8.90046],[-82.19246,8.90409],[-82.18738,8.89656],[-82.18428,8.88102],[-82.19099,8.87175],[-82.19036,8.86435],[-82.18412,8.86136],[-82.18073,8.85248],[-82.16849,8.86213],[-82.1667,8.86809],[-82.16946,8.87485],[-82.16743,8.88011],[-82.16068,8.88326],[-82.1601,8.89354],[-82.14837,8.90227],[-82.12512,8.90983],[-82.09223,8.90695],[-82.09245,8.91487],[-82.08563,8.92073],[-82.08628,8.92653],[-82.09627,8.92693],[-82.09692,8.93114],[-82.10165,8.92752],[-82.10404,8.92971],[-82.10254,8.93204],[-82.08447,8.93398],[-82.08657,8.93296],[-82.08408,8.92985],[-82.08574,8.93077],[-82.08674,8.92982],[-82.08408,8.92493],[-82.07749,8.92303],[-82.07005,8.9284],[-82.07227,8.93323],[-82.06054,8.93882],[-82.05761,8.93277],[-82.06139,8.92685],[-82.0548,8.92201],[-82.05443,8.91372],[-82.06314,8.91008],[-82.06098,8.9119],[-82.06431,8.91849],[-82.0685,8.91326],[-82.07063,8.91598],[-82.07426,8.91327],[-82.07316,8.90869],[-82.06749,8.90419],[-82.06369,8.9049],[-82.06433,8.90825],[-82.0542,8.90605],[-82.0313,8.93066],[-82.03737,8.93728],[-82.05179,8.9366],[-82.0564,8.94143],[-82.03241,8.94494],[-82.01585,8.95387],[-82.01455,8.95155],[-82.01868,8.94582],[-82.01615,8.93734],[-82.02227,8.92868],[-82.01894,8.91329],[-82.02702,8.91712],[-82.02704,8.91088],[-82.02213,8.91168],[-82.02344,8.90497],[-82.02629,8.90838],[-82.02714,8.90641],[-82.0351,8.90927],[-82.0344,8.9004],[-82.04105,8.90344],[-82.0426,8.89804],[-82.03704,8.89285],[-82.03592,8.89878],[-82.03085,8.90048],[-82.03134,8.90387],[-82.02822,8.90194],[-82.02774,8.89689],[-82.02454,8.89848],[-82.02554,8.90244],[-82.02093,8.90507],[-82.02163,8.91111],[-82.01834,8.90973],[-82.01053,8.91666],[-82.01088,8.91982],[-82.01588,8.91774],[-82.01897,8.92518],[-82.01802,8.93122],[-82.01204,8.93679],[-82.0165,8.94528],[-82.01053,8.94977],[-82.00931,8.95441],[-81.99668,8.95637],[-81.98021,8.94126],[-81.97151,8.94463],[-81.96617,8.9411],[-81.96193,8.94376],[-81.9568,8.9406],[-81.95267,8.94241],[-81.95037,8.9387],[-81.9493,8.94218],[-81.93361,8.94654],[-81.92526,8.95548],[-81.92205,8.96443],[-81.92221,8.97215],[-81.93106,8.97853],[-81.92381,8.99119],[-81.92007,8.9906],[-81.91325,8.98263],[-81.89987,8.9805],[-81.89304,8.9735],[-81.89088,8.96863],[-81.89953,8.97693],[-81.9001,8.97188],[-81.89612,8.96726],[-81.90174,8.95779],[-81.89924,8.95777],[-81.90137,8.95722],[-81.89997,8.95538],[-81.89367,8.95621],[-81.89155,8.95991],[-81.8794,8.95943],[-81.86682,8.96564],[-81.85807,8.96555],[-81.85119,8.9607],[-81.83084,8.9598],[-81.81173,8.94485],[-81.82237,8.94507],[-81.82046,8.94081],[-81.8087,8.94162],[-81.80593,8.93622],[-81.7842,8.94509],[-81.77295,8.96191],[-81.76989,8.97244],[-81.77052,8.98185],[-81.77654,8.98549],[-81.77373,8.99368],[-81.77596,9.00188],[-81.78294,9.00868],[-81.79175,9.0096],[-81.79349,9.01337],[-81.80242,9.01481],[-81.80549,9.01846],[-81.8282,9.02344],[-81.84223,9.03644],[-81.84397,9.04285],[-81.86487,9.05815],[-81.86202,9.06939],[-81.86458,9.07429],[-81.87215,9.07809],[-81.87558,9.08886],[-81.88563,9.09599],[-81.89086,9.09633],[-81.88974,9.10143],[-81.89858,9.10556],[-81.90047,9.1111],[-81.9111,9.11674],[-81.91277,9.11375],[-81.91385,9.11386],[-81.92292,9.12496],[-81.93213,9.12757],[-81.94757,9.13801],[-81.94504,9.1472],[-81.93942,9.15133],[-81.93706,9.15042],[-81.94007,9.14598],[-81.93878,9.14265],[-81.9293,9.14362],[-81.9224,9.15028],[-81.91501,9.14229],[-81.90639,9.13811],[-81.90234,9.14013],[-81.90585,9.14393],[-81.90347,9.14625],[-81.89215,9.14344],[-81.89226,9.13951],[-81.88066,9.13856],[-81.87838,9.14398],[-81.8815,9.14697],[-81.87265,9.14792],[-81.87015,9.15426],[-81.88401,9.15862],[-81.8933,9.15839],[-81.89613,9.16156],[-81.90585,9.15753],[-81.91603,9.16343],[-81.92094,9.18265],[-81.91234,9.18586],[-81.90496,9.18288],[-81.89353,9.18623],[-81.88679,9.18214],[-81.88112,9.18393],[-81.87217,9.17239],[-81.87198,9.1684],[-81.86722,9.16691],[-81.86661,9.16039],[-81.85583,9.14974],[-81.85384,9.14326],[-81.84154,9.13624],[-81.83432,9.1364],[-81.82793,9.12606],[-81.81811,9.12551],[-81.82102,9.12178],[-81.83207,9.11918],[-81.83335,9.11602],[-81.84198,9.11783],[-81.84862,9.11501],[-81.84272,9.11096],[-81.83857,9.11171],[-81.83656,9.09804],[-81.82836,9.09653],[-81.83106,9.08946],[-81.82613,9.0834],[-81.82641,9.07547],[-81.82237,9.06853],[-81.82627,9.06629],[-81.8236,9.06335],[-81.82093,9.06312],[-81.82109,9.06654],[-81.81612,9.06401],[-81.80678,9.0744],[-81.80927,9.06961],[-81.80563,9.06541],[-81.7942,9.06373],[-81.78794,9.06727],[-81.77927,9.06269],[-81.7618,9.06366],[-81.75999,9.05447],[-81.74856,9.04453],[-81.7401,9.044],[-81.73254,9.03545],[-81.72215,9.03784],[-81.72166,9.03332],[-81.71719,9.02931],[-81.71485,9.01301],[-81.6527,8.93333],[-81.61305,8.88826],[-81.56908,8.84436],[-81.51672,8.80655],[-81.4976,8.79915],[-81.48755,8.80194],[-81.48566,8.80651],[-81.47849,8.80878],[-81.46682,8.80435],[-81.46317,8.80748],[-81.42652,8.79466],[-81.41616,8.79648],[-81.41096,8.80329],[-81.3827,8.80007],[-81.37038,8.791],[-81.35134,8.78268],[-81.3455,8.78522],[-81.33551,8.78283],[-81.33071,8.78626],[-81.32358,8.7866],[-81.29556,8.78167],[-81.28498,8.79206],[-81.25634,8.79223],[-81.2444,8.79613],[-81.22632,8.79444],[-81.21816,8.79081],[-81.23099,8.78476],[-81.23326,8.7798],[-81.23029,8.77086],[-81.22131,8.7617],[-81.2305,8.75391],[-81.22726,8.74805],[-81.22142,8.74806],[-81.22016,8.74168],[-81.22316,8.7296],[-81.21994,8.72153],[-81.21593,8.72043],[-81.22027,8.70986],[-81.20944,8.7067],[-81.20637,8.70116],[-81.20934,8.6952],[-81.20652,8.68912],[-81.21862,8.68683],[-81.22176,8.67678],[-81.217,8.67292],[-81.2202,8.66717],[-81.2142,8.66278],[-81.22388,8.6549],[-81.2193,8.64369],[-81.22161,8.63787],[-81.21878,8.63489],[-81.22039,8.62887],[-81.21133,8.61619],[-81.21826,8.59905],[-81.21547,8.59336],[-81.21739,8.58947],[-81.21228,8.58813],[-81.21314,8.58384],[-81.19598,8.57011],[-81.19539,8.56531],[-81.1895,8.56103],[-81.18581,8.55203],[-81.17294,8.55276],[-81.16667,8.54963],[-81.15528,8.5174],[-81.15812,8.51309],[-81.17096,8.51053],[-81.17491,8.5025],[-81.18072,8.50032],[-81.1912,8.5004],[-81.19512,8.50324],[-81.21215,8.50163],[-81.22344,8.50916],[-81.23043,8.52085],[-81.23602,8.52334],[-81.24999,8.52525],[-81.26402,8.51852],[-81.27433,8.51826],[-81.28472,8.52983],[-81.28864,8.54158],[-81.29829,8.55397],[-81.3186,8.56986],[-81.32477,8.57225],[-81.33456,8.57118],[-81.34633,8.58151],[-81.35677,8.57699],[-81.36967,8.55425],[-81.37557,8.55919],[-81.38304,8.55915],[-81.38931,8.55561],[-81.39226,8.55783],[-81.39856,8.5554],[-81.41905,8.55799],[-81.4261,8.5728],[-81.43703,8.5803],[-81.463,8.58842],[-81.46854,8.5938],[-81.49054,8.59346],[-81.49531,8.5972],[-81.50035,8.61083],[-81.50766,8.611],[-81.51124,8.60815],[-81.51116,8.61718],[-81.5149,8.62044],[-81.52699,8.61824],[-81.55159,8.61988],[-81.55727,8.61738],[-81.55898,8.62235],[-81.57755,8.62963],[-81.58089,8.62765],[-81.57415,8.62275],[-81.58304,8.6152],[-81.58288,8.60475],[-81.61653,8.58837],[-81.61858,8.57334],[-81.62587,8.56166],[-81.65762,8.56614],[-81.66639,8.56067],[-81.67727,8.56154],[-81.68244,8.55007],[-81.68244,8.53891],[-81.69196,8.52631],[-81.69419,8.51651],[-81.70187,8.50783],[-81.71262,8.50508],[-81.71855,8.50982],[-81.72493,8.50938],[-81.73967,8.50356],[-81.7452,8.50804],[-81.75653,8.49653],[-81.76688,8.49571],[-81.7719,8.49727],[-81.77192,8.50093],[-81.78003,8.50686],[-81.79158,8.5124],[-81.79529,8.52786],[-81.82705,8.55355],[-81.83657,8.57582],[-81.84429,8.57861],[-81.86055,8.59663],[-81.86772,8.59343],[-81.88372,8.59802],[-81.88165,8.60744],[-81.87751,8.61033],[-81.87748,8.61737],[-81.88192,8.62178],[-81.87679,8.63032],[-81.87893,8.63479],[-81.8752,8.64239],[-81.88691,8.66127],[-81.90052,8.65693],[-81.91219,8.64296],[-81.92167,8.6417],[-81.93033,8.63669],[-81.9502,8.63563],[-81.95635,8.64105],[-81.95773,8.64748],[-81.96208,8.64313],[-81.96707,8.64373],[-81.9783,8.63862],[-81.98632,8.63998],[-81.99081,8.64427],[-82.0115,8.63889],[-82.03014,8.64493],[-82.05042,8.63582]]]}}]}