{"type":"FeatureCollection","features":[{"type":"Feature","properties":{"codigo":"12-2","provincia":"Comarca Ngäbe-Buglé","descripcion":"Besiko, Mironó y Nole Duima","diputados_a_elegir":1,"poblacion_electores_2022":47495,"bbox":[-82.18279,8.26272,-81.73493,8.76944]},"geometry":{"type":"Polygon","coordinates":[[[-81.94633,8.32652],[-81.94598,8.33316],[-81.95537,8.32499],[-81.9574,8.31768],[-81.96103,8.3181],[-81.95936,8.32292],[-81.9738,8.32018],[-81.97709,8.32613],[-81.98174,8.31359],[-81.98645,8.31355],[-81.98621,8.31778],[-81.9911,8.31668],[-81.99018,8.31333],[-81.9979,8.31565],[-81.99864,8.3232],[-81.99344,8.32025],[-81.99072,8.32289],[-81.98519,8.31902],[-81.98559,8.32658],[-81.98771,8.32589],[-81.98841,8.33005],[-81.9942,8.33334],[-81.99567,8.33144],[-82.0014,8.33366],[-82.00456,8.3307],[-82.00719,8.34046],[-82.01555,8.34282],[-82.01423,8.34605],[-82.0179,8.34549],[-82.0218,8.35394],[-82.02784,8.35904],[-82.02006,8.36578],[-82.03201,8.36925],[-82.02302,8.37508],[-82.02256,8.37885],[-82.01396,8.38469],[-82.01075,8.39162],[-82.03341,8.38354],[-82.03772,8.39007],[-82.03579,8.39323],[-82.03825,8.39769],[-82.03399,8.39713],[-82.02669,8.40118],[-82.02604,8.40582],[-82.0219,8.40621],[-82.02654,8.41106],[-82.0211,8.41551],[-82.02358,8.41898],[-82.02015,8.4212],[-82.02814,8.42687],[-82.03206,8.4198],[-82.04239,8.41498],[-82.04644,8.40963],[-82.04326,8.42446],[-82.04826,8.42217],[-82.05335,8.42506],[-82.05418,8.42902],[-82.04884,8.43478],[-82.05659,8.44151],[-82.05827,8.45578],[-82.06273,8.45528],[-82.06728,8.46105],[-82.06528,8.46656],[-82.07004,8.4686],[-82.06757,8.47636],[-82.06381,8.47718],[-82.06546,8.47985],[-82.06926,8.47844],[-82.07714,8.48522],[-82.08194,8.47785],[-82.09102,8.47342],[-82.08324,8.47044],[-82.0871,8.47001],[-82.07919,8.46409],[-82.07569,8.46602],[-82.0772,8.4602],[-82.08447,8.45463],[-82.08633,8.45579],[-82.08317,8.46291],[-82.08478,8.46753],[-82.08787,8.46914],[-82.09184,8.46029],[-82.09559,8.46948],[-82.1007,8.45749],[-82.10982,8.4587],[-82.11101,8.45423],[-82.11663,8.45287],[-82.11871,8.45809],[-82.12567,8.45298],[-82.13394,8.45545],[-82.13493,8.45096],[-82.14039,8.45445],[-82.1447,8.45085],[-82.15385,8.45374],[-82.15824,8.44887],[-82.1635,8.44902],[-82.16358,8.4446],[-82.17549,8.45256],[-82.18135,8.45196],[-82.18026,8.45554],[-82.18279,8.45866],[-82.17612,8.46511],[-82.1785,8.46981],[-82.1721,8.47144],[-82.1661,8.46924],[-82.16934,8.47735],[-82.17793,8.47502],[-82.18023,8.47754],[-82.17782,8.47856],[-82.17972,8.48203],[-82.1772,8.49237],[-82.16111,8.5041],[-82.15826,8.51434],[-82.15097,8.51568],[-82.14831,8.51914],[-82.15106,8.52699],[-82.15758,8.5317],[-82.15723,8.53594],[-82.14855,8.53815],[-82.14365,8.55452],[-82.13675,8.55612],[-82.13855,8.56101],[-82.13117,8.563],[-82.13109,8.55804],[-82.12793,8.55826],[-82.12584,8.56836],[-82.1269,8.57151],[-82.13396,8.57182],[-82.14412,8.56273],[-82.14726,8.56527],[-82.1465,8.5705],[-82.15094,8.57421],[-82.16034,8.57145],[-82.16432,8.55698],[-82.15939,8.54059],[-82.16269,8.54015],[-82.16362,8.53084],[-82.16757,8.53217],[-82.17487,8.5534],[-82.1622,8.57441],[-82.16295,8.57899],[-82.15915,8.58044],[-82.16058,8.58635],[-82.15215,8.58846],[-82.15185,8.59945],[-82.14936,8.60246],[-82.15369,8.61138],[-82.15918,8.61201],[-82.15732,8.76825],[-82.12642,8.76676],[-82.11907,8.76944],[-82.11185,8.76293],[-82.11513,8.75183],[-82.11239,8.74465],[-82.11783,8.7305],[-82.11335,8.72898],[-82.1133,8.72385],[-82.11778,8.712],[-82.12606,8.70799],[-82.12941,8.69888],[-82.12213,8.68243],[-82.12563,8.67408],[-82.12421,8.66922],[-82.13152,8.6588],[-82.12116,8.64601],[-82.09878,8.64115],[-82.08049,8.63277],[-82.07655,8.63286],[-82.06989,8.64124],[-82.05501,8.63503],[-82.04197,8.63801],[-82.03014,8.64493],[-82.0115,8.63889],[-81.99081,8.64427],[-81.98632,8.63998],[-81.97824,8.63863],[-81.96707,8.64373],[-81.96208,8.64313],[-81.95773,8.64748],[-81.95635,8.64105],[-81.95026,8.63565],[-81.93835,8.63577],[-81.91232,8.64289],[-81.90052,8.65693],[-81.88718,8.66139],[-81.8752,8.64239],[-81.87893,8.63479],[-81.87679,8.63032],[-81.88192,8.62178],[-81.87748,8.61737],[-81.87751,8.61033],[-81.88165,8.60744],[-81.88369,8.59798],[-81.86772,8.59343],[-81.86055,8.59663],[-81.84429,8.57861],[-81.83657,8.57582],[-81.82705,8.55355],[-81.81267,8.54024],[-81.79789,8.53126],[-81.79165,8.51248],[-81.77196,8.50097],[-81.7719,8.49727],[-81.75653,8.49653],[-81.74419,8.50773],[-81.76242,8.47713],[-81.75885,8.47202],[-81.75761,8.45816],[-81.74283,8.44572],[-81.73877,8.43625],[-81.73493,8.40952],[-81.75861,8.39401],[-81.76918,8.39759],[-81.77294,8.39434],[-81.77657,8.38246],[-81.78359,8.37539],[-81.78802,8.35076],[-81.78502,8.33909],[-81.78643,8.33059],[-81.778,8.32543],[-81.77682,8.31712],[-81.76456,8.30607],[-81.76605,8.30412],[-81.76084,8.29806],[-81.75576,8.28444],[-81.75201,8.28479],[-81.75249,8.28217],[-81.74698,8.28026],[-81.76094,8.28326],[-81.76039,8.2804],[-81.76829,8.27197],[-81.77464,8.26968],[-81.76908,8.26707],[-81.77227,8.26272],[-81.78291,8.26783],[-81.77601,8.27045],[-81.77711,8.273],[-81.792,8.28023],[-81.79105,8.2735],[-81.79558,8.27454],[-81.79534,8.27763],[-81.79867,8.27547],[-81.80681,8.27777],[-81.80903,8.28103],[-81.8187,8.27831],[-81.8256,8.29486],[-81.81734,8.305],[-81.81826,8.30726],[-81.82618,8.3097],[-81.83356,8.30489],[-81.83471,8.31072],[-81.83942,8.30968],[-81.83922,8.31487],[-81.84204,8.31585],[-81.83408,8.32894],[-81.83268,8.33673],[-81.82951,8.33669],[-81.82847,8.3401],[-81.83589,8.34118],[-81.83294,8.34549],[-81.83654,8.35089],[-81.8395,8.34956],[-81.83656,8.34185],[-81.85722,8.34203],[-81.86769,8.33539],[-81.87042,8.33582],[-81.87061,8.33981],[-81.87477,8.3371],[-81.87615,8.33999],[-81.8814,8.33767],[-81.88771,8.33413],[-81.8846,8.33099],[-81.88529,8.32665],[-81.8903,8.32709],[-81.88796,8.32216],[-81.90116,8.32566],[-81.89693,8.32931],[-81.89794,8.3338],[-81.90621,8.33946],[-81.91307,8.33507],[-81.92079,8.3361],[-81.92276,8.32676],[-81.93374,8.32977],[-81.93296,8.31961],[-81.93479,8.3162],[-81.9413,8.31717],[-81.93795,8.32228],[-81.93523,8.31999],[-81.93479,8.32244],[-81.94633,8.32652]]]}}]}