{"type":"FeatureCollection","features":[{"type":"Feature","properties":{"codigo":"12-3","provincia":"Comarca Ngäbe-Buglé","descripcion":"Müna y Ñürüm","diputados_a_elegir":1,"poblacion_electores_2022":41158,"bbox":[-81.78802,8.13674,-81.13786,8.62953]},"geometry":{"type":"MultiPolygon","coordinates":[[[[-81.60004,8.36626],[-81.60256,8.35981],[-81.60021,8.35442],[-81.60613,8.34646],[-81.61688,8.34433],[-81.61706,8.32672],[-81.621,8.32242],[-81.61691,8.31973],[-81.62387,8.30334],[-81.62691,8.30471],[-81.62838,8.30227],[-81.62775,8.2964],[-81.62141,8.29254],[-81.62246,8.28418],[-81.62823,8.27881],[-81.63007,8.28491],[-81.62686,8.28817],[-81.6289,8.29163],[-81.63365,8.28904],[-81.64257,8.29493],[-81.64654,8.28472],[-81.65519,8.28042],[-81.65686,8.27647],[-81.65446,8.27306],[-81.65659,8.27125],[-81.66346,8.27052],[-81.66621,8.27353],[-81.66756,8.28068],[-81.6632,8.28947],[-81.67079,8.29166],[-81.67544,8.28628],[-81.67542,8.29462],[-81.68362,8.29229],[-81.68709,8.2858],[-81.68927,8.29027],[-81.69292,8.28941],[-81.69514,8.28415],[-81.6985,8.29381],[-81.70173,8.29563],[-81.69852,8.29671],[-81.69483,8.29139],[-81.68938,8.29169],[-81.68613,8.29727],[-81.689,8.30346],[-81.69352,8.29823],[-81.70285,8.29885],[-81.703,8.28959],[-81.70582,8.287],[-81.70207,8.28422],[-81.70438,8.2788],[-81.7029,8.27317],[-81.70827,8.27295],[-81.71198,8.27791],[-81.70695,8.28266],[-81.7102,8.29392],[-81.7036,8.29712],[-81.70625,8.3006],[-81.69631,8.3028],[-81.69672,8.30798],[-81.69315,8.31255],[-81.69412,8.31764],[-81.70111,8.31791],[-81.70636,8.30335],[-81.71165,8.30224],[-81.71561,8.29763],[-81.71865,8.29984],[-81.72518,8.2981],[-81.72073,8.29082],[-81.72686,8.28821],[-81.72729,8.28313],[-81.71924,8.27844],[-81.71756,8.27216],[-81.72001,8.26311],[-81.72403,8.26296],[-81.72497,8.2772],[-81.73987,8.27514],[-81.74893,8.28256],[-81.75249,8.28217],[-81.75191,8.28474],[-81.75565,8.28434],[-81.76605,8.30412],[-81.76456,8.30607],[-81.77682,8.31712],[-81.778,8.32543],[-81.78654,8.33088],[-81.78502,8.33909],[-81.78802,8.35076],[-81.78501,8.37045],[-81.77346,8.38845],[-81.77313,8.3941],[-81.76918,8.39759],[-81.75861,8.39401],[-81.73493,8.40952],[-81.73877,8.43625],[-81.74283,8.44572],[-81.75761,8.45816],[-81.75885,8.47202],[-81.76242,8.47713],[-81.74419,8.50773],[-81.73967,8.50356],[-81.72493,8.50938],[-81.71855,8.50982],[-81.71262,8.50508],[-81.70187,8.50783],[-81.69419,8.51651],[-81.69196,8.52631],[-81.68244,8.53891],[-81.68244,8.55007],[-81.67727,8.56154],[-81.66639,8.56067],[-81.65762,8.56614],[-81.62587,8.56166],[-81.61858,8.57334],[-81.61653,8.58837],[-81.58288,8.60475],[-81.58304,8.6152],[-81.57415,8.62275],[-81.58085,8.62757],[-81.578,8.62953],[-81.55898,8.62235],[-81.55727,8.61738],[-81.55159,8.61988],[-81.52699,8.61824],[-81.5149,8.62044],[-81.51116,8.61718],[-81.51124,8.60815],[-81.50766,8.611],[-81.50035,8.61083],[-81.49531,8.5972],[-81.49054,8.59346],[-81.46854,8.5938],[-81.463,8.58842],[-81.43703,8.5803],[-81.426,8.57268],[-81.41923,8.55803],[-81.39856,8.5554],[-81.39226,8.55783],[-81.38931,8.55561],[-81.38304,8.55915],[-81.37557,8.55919],[-81.36967,8.55425],[-81.35677,8.57699],[-81.34639,8.58152],[-81.33456,8.57118],[-81.32477,8.57225],[-81.3186,8.56986],[-81.29829,8.55397],[-81.28864,8.54158],[-81.28472,8.52983],[-81.27401,8.5181],[-81.2639,8.51856],[-81.24999,8.52525],[-81.23615,8.52338],[-81.23048,8.52089],[-81.22352,8.50925],[-81.21232,8.50169],[-81.19512,8.50324],[-81.18445,8.49966],[-81.17504,8.50239],[-81.17096,8.51053],[-81.15812,8.51309],[-81.15528,8.5174],[-81.14737,8.5],[-81.15138,8.47479],[-81.15969,8.4655],[-81.1517,8.4551],[-81.15073,8.44426],[-81.14656,8.44218],[-81.14334,8.44384],[-81.13786,8.4338],[-81.14593,8.41854],[-81.14872,8.41911],[-81.15301,8.43443],[-81.16037,8.43326],[-81.16573,8.4395],[-81.16893,8.43671],[-81.16951,8.45518],[-81.17879,8.45537],[-81.18375,8.4506],[-81.18956,8.45358],[-81.19237,8.44928],[-81.19359,8.45236],[-81.20043,8.45215],[-81.2026,8.44835],[-81.20651,8.45274],[-81.21002,8.44913],[-81.2172,8.45358],[-81.21033,8.44727],[-81.21527,8.44742],[-81.22151,8.44163],[-81.23121,8.44208],[-81.22238,8.44479],[-81.22243,8.44966],[-81.22403,8.45492],[-81.22941,8.45281],[-81.22878,8.45123],[-81.22918,8.44962],[-81.23559,8.45136],[-81.23801,8.45811],[-81.23643,8.4667],[-81.24087,8.47067],[-81.23892,8.47736],[-81.24079,8.48286],[-81.23426,8.48724],[-81.23298,8.49919],[-81.24474,8.50047],[-81.24689,8.49833],[-81.24865,8.50404],[-81.25355,8.50358],[-81.25539,8.50026],[-81.24841,8.48877],[-81.26256,8.48617],[-81.25114,8.46555],[-81.25345,8.45841],[-81.24978,8.45182],[-81.24988,8.44851],[-81.25821,8.45532],[-81.27025,8.45704],[-81.27589,8.46186],[-81.27714,8.46691],[-81.28352,8.47079],[-81.29066,8.45868],[-81.30069,8.45083],[-81.30525,8.46089],[-81.30065,8.46615],[-81.30027,8.48686],[-81.29107,8.49041],[-81.28188,8.50238],[-81.29912,8.50793],[-81.30141,8.51221],[-81.30277,8.50775],[-81.30602,8.50859],[-81.3114,8.50468],[-81.31177,8.49746],[-81.30829,8.49241],[-81.32531,8.48785],[-81.33445,8.4799],[-81.34483,8.48164],[-81.34387,8.48639],[-81.3373,8.48699],[-81.32186,8.50552],[-81.33002,8.50973],[-81.33182,8.51861],[-81.33845,8.52149],[-81.34185,8.51852],[-81.34055,8.51368],[-81.34334,8.50678],[-81.35439,8.50128],[-81.35668,8.49535],[-81.36064,8.49582],[-81.36133,8.48117],[-81.36365,8.47966],[-81.36196,8.47435],[-81.35739,8.46724],[-81.34364,8.47534],[-81.33355,8.46851],[-81.33427,8.46532],[-81.32384,8.46298],[-81.31665,8.46719],[-81.313,8.45654],[-81.31427,8.45331],[-81.32481,8.45765],[-81.33408,8.45422],[-81.33715,8.45624],[-81.35592,8.45425],[-81.35647,8.44016],[-81.35334,8.43694],[-81.34861,8.43963],[-81.35081,8.44715],[-81.33231,8.43898],[-81.33348,8.43579],[-81.34373,8.43805],[-81.34341,8.42112],[-81.3497,8.42372],[-81.35241,8.42034],[-81.35774,8.42774],[-81.36051,8.42529],[-81.3717,8.42728],[-81.36497,8.43221],[-81.36341,8.43621],[-81.36667,8.43924],[-81.36408,8.44432],[-81.36884,8.45147],[-81.37233,8.45184],[-81.37107,8.45521],[-81.37867,8.46142],[-81.38157,8.46931],[-81.38815,8.474],[-81.38913,8.46967],[-81.39502,8.46926],[-81.40133,8.46473],[-81.40381,8.44648],[-81.41789,8.44096],[-81.40475,8.41204],[-81.40688,8.40713],[-81.41417,8.4112],[-81.41256,8.41366],[-81.41485,8.41556],[-81.42866,8.41697],[-81.41987,8.41095],[-81.41687,8.38931],[-81.42483,8.38654],[-81.43022,8.38097],[-81.44224,8.37866],[-81.44284,8.38287],[-81.44793,8.38692],[-81.44721,8.39333],[-81.44043,8.39795],[-81.43559,8.38954],[-81.42946,8.39546],[-81.42995,8.41155],[-81.4356,8.4133],[-81.4322,8.41616],[-81.44342,8.41624],[-81.44634,8.4192],[-81.4489,8.41441],[-81.45877,8.41722],[-81.45886,8.41094],[-81.45521,8.40653],[-81.44922,8.40858],[-81.44821,8.40448],[-81.4485,8.40017],[-81.45235,8.40098],[-81.45732,8.39479],[-81.45629,8.38824],[-81.46721,8.387],[-81.4737,8.39582],[-81.47199,8.3977],[-81.47814,8.39554],[-81.48706,8.39863],[-81.49156,8.39626],[-81.51853,8.39627],[-81.51803,8.39248],[-81.52787,8.38974],[-81.5257,8.38515],[-81.52755,8.38263],[-81.52206,8.37727],[-81.52157,8.36706],[-81.5294,8.36744],[-81.52814,8.36008],[-81.53182,8.35446],[-81.53936,8.35755],[-81.54123,8.35324],[-81.55587,8.34757],[-81.55713,8.35636],[-81.56418,8.35299],[-81.56445,8.34976],[-81.57019,8.34686],[-81.56805,8.34266],[-81.57142,8.33224],[-81.5638,8.32509],[-81.5601,8.32623],[-81.5568,8.33111],[-81.55634,8.34321],[-81.55103,8.34469],[-81.55448,8.33783],[-81.55046,8.32731],[-81.53559,8.31647],[-81.54268,8.31238],[-81.54448,8.30537],[-81.54259,8.30289],[-81.53799,8.30336],[-81.53518,8.30771],[-81.53796,8.29924],[-81.52908,8.29709],[-81.51992,8.28875],[-81.52187,8.28292],[-81.51692,8.27776],[-81.51889,8.2745],[-81.51503,8.27168],[-81.51754,8.26816],[-81.51119,8.26583],[-81.50598,8.26775],[-81.50099,8.26264],[-81.4929,8.26438],[-81.4955,8.2712],[-81.49235,8.27343],[-81.49283,8.27871],[-81.48829,8.28874],[-81.49098,8.29249],[-81.48494,8.29646],[-81.48411,8.28799],[-81.47901,8.28976],[-81.47679,8.28733],[-81.47794,8.28112],[-81.46992,8.27651],[-81.4651,8.28165],[-81.45278,8.27907],[-81.4455,8.29095],[-81.44038,8.29349],[-81.43652,8.29182],[-81.43551,8.28746],[-81.42814,8.28599],[-81.42623,8.28917],[-81.4228,8.28873],[-81.42208,8.28214],[-81.42819,8.28444],[-81.43018,8.28246],[-81.43557,8.28627],[-81.44127,8.28679],[-81.4437,8.28427],[-81.44802,8.27493],[-81.43751,8.26817],[-81.44744,8.26625],[-81.44747,8.25754],[-81.45464,8.25395],[-81.45503,8.24506],[-81.46492,8.24087],[-81.46853,8.24446],[-81.46942,8.2373],[-81.47279,8.23366],[-81.47885,8.23752],[-81.47969,8.24661],[-81.47627,8.25232],[-81.4805,8.25336],[-81.48467,8.25008],[-81.47993,8.24412],[-81.48575,8.24254],[-81.49184,8.23442],[-81.49453,8.23441],[-81.49713,8.24078],[-81.49282,8.24434],[-81.50261,8.24829],[-81.50279,8.25122],[-81.49888,8.25015],[-81.50084,8.25412],[-81.50532,8.2505],[-81.50789,8.25244],[-81.51127,8.25031],[-81.50464,8.25646],[-81.50982,8.25862],[-81.50861,8.26195],[-81.51148,8.26528],[-81.51344,8.26308],[-81.51612,8.26505],[-81.51949,8.25598],[-81.52957,8.25838],[-81.52866,8.25419],[-81.53145,8.25277],[-81.53487,8.25641],[-81.53871,8.25597],[-81.53241,8.26292],[-81.53451,8.26403],[-81.54037,8.26306],[-81.54073,8.25968],[-81.54496,8.25817],[-81.54152,8.26297],[-81.54522,8.26486],[-81.53993,8.26636],[-81.54819,8.2704],[-81.54439,8.27418],[-81.54569,8.27586],[-81.55263,8.27049],[-81.54593,8.2608],[-81.55109,8.25921],[-81.55335,8.2688],[-81.55705,8.26817],[-81.55659,8.26445],[-81.56135,8.26478],[-81.56267,8.27474],[-81.55598,8.28115],[-81.56074,8.28928],[-81.55407,8.28578],[-81.5441,8.29494],[-81.55068,8.30293],[-81.54785,8.30751],[-81.5573,8.31222],[-81.56505,8.31185],[-81.57364,8.30307],[-81.57114,8.29858],[-81.57635,8.28484],[-81.56807,8.2818],[-81.56853,8.27893],[-81.57148,8.28034],[-81.57149,8.27727],[-81.58254,8.2782],[-81.58828,8.29045],[-81.58604,8.2948],[-81.58014,8.29105],[-81.58027,8.29469],[-81.5754,8.2938],[-81.57725,8.30262],[-81.58727,8.29686],[-81.58752,8.3008],[-81.59059,8.30006],[-81.59258,8.29545],[-81.60043,8.29777],[-81.60113,8.29524],[-81.59749,8.29438],[-81.60163,8.29062],[-81.60247,8.2982],[-81.59881,8.30203],[-81.60355,8.30264],[-81.61109,8.31552],[-81.60112,8.31478],[-81.59626,8.31007],[-81.59093,8.31066],[-81.58566,8.29948],[-81.58331,8.30306],[-81.57774,8.30304],[-81.57594,8.30545],[-81.57971,8.32078],[-81.58554,8.3255],[-81.57206,8.33791],[-81.57781,8.33981],[-81.5757,8.3492],[-81.57897,8.35253],[-81.5821,8.35161],[-81.58462,8.35666],[-81.58141,8.36026],[-81.58684,8.36191],[-81.58721,8.36663],[-81.59011,8.36504],[-81.58999,8.36959],[-81.60004,8.36626]]],[[[-81.3454,8.36023],[-81.33264,8.36275],[-81.32581,8.3604],[-81.31655,8.3745],[-81.31978,8.3672],[-81.31912,8.35687],[-81.31083,8.34931],[-81.32085,8.3528],[-81.32727,8.34313],[-81.33372,8.34959],[-81.33649,8.34584],[-81.33336,8.34065],[-81.33869,8.33346],[-81.33553,8.33252],[-81.3425,8.32638],[-81.34691,8.32538],[-81.35167,8.32821],[-81.35206,8.31636],[-81.35817,8.31708],[-81.35818,8.32169],[-81.36486,8.3328],[-81.35955,8.33579],[-81.36247,8.34088],[-81.35971,8.34334],[-81.36041,8.34801],[-81.36346,8.34721],[-81.3646,8.33627],[-81.37366,8.3283],[-81.36813,8.31763],[-81.3785,8.31543],[-81.38317,8.32326],[-81.38696,8.31753],[-81.38328,8.30931],[-81.39493,8.30465],[-81.39996,8.30723],[-81.39808,8.31269],[-81.39337,8.31362],[-81.399,8.31994],[-81.39355,8.32398],[-81.39926,8.32556],[-81.39702,8.32857],[-81.39265,8.32912],[-81.39049,8.32502],[-81.38795,8.32779],[-81.38419,8.33925],[-81.38581,8.34329],[-81.38853,8.34332],[-81.3924,8.34999],[-81.39718,8.34992],[-81.40436,8.32738],[-81.41271,8.32345],[-81.41589,8.32498],[-81.4145,8.32809],[-81.41947,8.32772],[-81.41881,8.32473],[-81.42589,8.32163],[-81.42944,8.32478],[-81.42876,8.33821],[-81.42568,8.33936],[-81.42027,8.33564],[-81.41755,8.33914],[-81.43053,8.34461],[-81.43058,8.34886],[-81.43352,8.34868],[-81.43265,8.34327],[-81.43589,8.3424],[-81.44253,8.35923],[-81.44131,8.3629],[-81.43672,8.36437],[-81.42781,8.36004],[-81.42375,8.36269],[-81.40993,8.36038],[-81.41109,8.35767],[-81.42732,8.3579],[-81.4283,8.35527],[-81.41674,8.35044],[-81.4214,8.34548],[-81.41171,8.34407],[-81.40944,8.3476],[-81.40057,8.34899],[-81.39655,8.3637],[-81.40094,8.36954],[-81.39435,8.36594],[-81.39289,8.37186],[-81.38727,8.37052],[-81.38856,8.37422],[-81.39378,8.37473],[-81.38357,8.37989],[-81.38278,8.38449],[-81.37685,8.37448],[-81.38082,8.37114],[-81.37751,8.36784],[-81.37679,8.36078],[-81.37111,8.36897],[-81.35448,8.37132],[-81.3454,8.36023]]],[[[-81.50019,8.18293],[-81.5069,8.18177],[-81.50769,8.18475],[-81.51019,8.18054],[-81.50708,8.17493],[-81.49839,8.17364],[-81.49864,8.16995],[-81.50434,8.16946],[-81.50286,8.16559],[-81.49751,8.16501],[-81.50221,8.16001],[-81.49696,8.1529],[-81.49997,8.15066],[-81.50793,8.15142],[-81.51161,8.14703],[-81.51495,8.14756],[-81.51962,8.13993],[-81.5234,8.1418],[-81.53079,8.13674],[-81.53463,8.14673],[-81.5422,8.14709],[-81.54229,8.15148],[-81.54399,8.14857],[-81.5456,8.15196],[-81.55205,8.14683],[-81.57072,8.14776],[-81.57495,8.14439],[-81.57468,8.14866],[-81.57822,8.15172],[-81.57495,8.15392],[-81.57618,8.15762],[-81.58227,8.16209],[-81.58327,8.16843],[-81.5798,8.17166],[-81.58399,8.17311],[-81.57036,8.17465],[-81.57023,8.17197],[-81.57816,8.16835],[-81.56697,8.1577],[-81.56447,8.1628],[-81.56705,8.16355],[-81.56536,8.16575],[-81.56854,8.17099],[-81.56781,8.17382],[-81.5636,8.17151],[-81.56069,8.17352],[-81.56039,8.17637],[-81.56312,8.17473],[-81.56207,8.17943],[-81.54972,8.17871],[-81.54487,8.1819],[-81.54323,8.17083],[-81.53605,8.17192],[-81.53337,8.1771],[-81.52932,8.17718],[-81.52391,8.18669],[-81.52884,8.1894],[-81.53503,8.18225],[-81.53957,8.18568],[-81.54038,8.18959],[-81.53617,8.19226],[-81.5354,8.19801],[-81.52996,8.19673],[-81.52977,8.19275],[-81.52723,8.19426],[-81.52885,8.19011],[-81.52495,8.18891],[-81.52209,8.19137],[-81.51804,8.18899],[-81.51388,8.17818],[-81.51001,8.17981],[-81.51319,8.18323],[-81.50931,8.18704],[-81.51017,8.18744],[-81.51132,8.18834],[-81.51188,8.18952],[-81.51196,8.1903],[-81.51618,8.19196],[-81.51201,8.19373],[-81.51665,8.19978],[-81.51105,8.20149],[-81.51155,8.18886],[-81.50019,8.18293]]],[[[-81.52864,8.21739],[-81.53136,8.21127],[-81.52859,8.20907],[-81.53334,8.20892],[-81.53398,8.21078],[-81.53132,8.21065],[-81.53399,8.21346],[-81.53399,8.21512],[-81.5304,8.21559],[-81.53137,8.22263],[-81.53347,8.22487],[-81.54041,8.22393],[-81.54156,8.22991],[-81.53625,8.23274],[-81.53154,8.22703],[-81.5242,8.22833],[-81.51872,8.22398],[-81.5201,8.23247],[-81.51355,8.24548],[-81.51725,8.24442],[-81.52177,8.25105],[-81.5178,8.25405],[-81.5187,8.25806],[-81.5154,8.25769],[-81.51531,8.25011],[-81.51089,8.24865],[-81.51445,8.24024],[-81.51258,8.23701],[-81.51237,8.24192],[-81.50886,8.24314],[-81.50948,8.23066],[-81.51271,8.22421],[-81.52864,8.21739]]],[[[-81.56429,8.24212],[-81.56751,8.23998],[-81.5717,8.24337],[-81.57549,8.24004],[-81.56633,8.23461],[-81.56543,8.23108],[-81.57303,8.23127],[-81.56348,8.22443],[-81.57028,8.22415],[-81.57014,8.22184],[-81.58188,8.22111],[-81.58227,8.22524],[-81.58953,8.22696],[-81.58116,8.23207],[-81.58065,8.2299],[-81.57705,8.2312],[-81.57603,8.2367],[-81.58317,8.23784],[-81.58531,8.23025],[-81.59099,8.23595],[-81.59594,8.23582],[-81.59171,8.22907],[-81.59831,8.22701],[-81.60135,8.23823],[-81.59277,8.24414],[-81.58907,8.24092],[-81.58285,8.2411],[-81.58255,8.24429],[-81.57552,8.24374],[-81.56939,8.24913],[-81.56429,8.24212]]],[[[-81.60893,8.24182],[-81.60911,8.25221],[-81.611,8.24281],[-81.61303,8.24727],[-81.62011,8.25087],[-81.61942,8.2537],[-81.61489,8.25491],[-81.61287,8.25272],[-81.61067,8.26299],[-81.6142,8.26411],[-81.61949,8.2577],[-81.62417,8.26424],[-81.62253,8.26678],[-81.60923,8.26426],[-81.60987,8.26739],[-81.60439,8.2681],[-81.59923,8.27448],[-81.6031,8.27446],[-81.6032,8.28092],[-81.59984,8.27953],[-81.59426,8.28235],[-81.59254,8.27846],[-81.59763,8.27368],[-81.59527,8.26539],[-81.60441,8.26567],[-81.60686,8.26001],[-81.59873,8.25325],[-81.59712,8.25874],[-81.59101,8.25779],[-81.59581,8.25012],[-81.60074,8.2532],[-81.60695,8.2413],[-81.60893,8.24182]]]]}}]}