{"type":"FeatureCollection","features":[{"type":"Feature","properties":{"codigo":"13-1","provincia":"Panamá Oeste","descripcion":"Distrito de Arraiján","diputados_a_elegir":3,"poblacion_electores_2022":172102,"bbox":[-79.81472,8.85906,-79.55961,9.11955]},"geometry":{"type":"Polygon","coordinates":[[[-79.75801,9.02592],[-79.76375,9.03392],[-79.76886,9.0363],[-79.76604,9.05116],[-79.7678,9.05505],[-79.78124,9.06014],[-79.78253,9.06503],[-79.78906,9.07045],[-79.78871,9.07967],[-79.79317,9.08411],[-79.78983,9.08283],[-79.78883,9.08412],[-79.79331,9.0868],[-79.80055,9.08158],[-79.80379,9.08473],[-79.80786,9.07953],[-79.8089,9.08382],[-79.81307,9.085],[-79.80964,9.08813],[-79.81472,9.08725],[-79.81212,9.09105],[-79.8138,9.0946],[-79.80893,9.09777],[-79.80569,9.09699],[-79.80788,9.08847],[-79.80114,9.09113],[-79.80533,9.09414],[-79.80426,9.09777],[-79.79804,9.09954],[-79.80015,9.10157],[-79.79704,9.10458],[-79.79978,9.10651],[-79.7981,9.1092],[-79.80095,9.11117],[-79.79689,9.11216],[-79.79978,9.11662],[-79.79339,9.11378],[-79.79361,9.10813],[-79.79744,9.10769],[-79.79486,9.10522],[-79.79705,9.10066],[-79.79538,9.09925],[-79.79468,9.10228],[-79.79337,9.09909],[-79.7964,9.09668],[-79.79727,9.09076],[-79.79547,9.09188],[-79.79388,9.08809],[-79.79428,9.09711],[-79.79116,9.09512],[-79.79259,9.09818],[-79.79096,9.09872],[-79.78739,9.09457],[-79.79063,9.09975],[-79.78498,9.10104],[-79.7837,9.09855],[-79.78286,9.0989],[-79.78918,9.1098],[-79.78437,9.11372],[-79.78098,9.11014],[-79.77941,9.11257],[-79.77532,9.11165],[-79.77379,9.10762],[-79.77742,9.1073],[-79.77386,9.10453],[-79.77461,9.09811],[-79.77136,9.10505],[-79.76663,9.10565],[-79.76705,9.10035],[-79.76145,9.1012],[-79.76293,9.09545],[-79.76087,9.09653],[-79.76,9.09381],[-79.75965,9.1021],[-79.7544,9.09609],[-79.75224,9.09798],[-79.75751,9.10279],[-79.75996,9.11136],[-79.75382,9.11859],[-79.74998,9.11549],[-79.75399,9.1133],[-79.75404,9.1109],[-79.7512,9.11254],[-79.75218,9.10986],[-79.74654,9.10638],[-79.74474,9.10768],[-79.74844,9.11017],[-79.74771,9.11238],[-79.74315,9.10849],[-79.74165,9.1109],[-79.74494,9.11576],[-79.74287,9.11955],[-79.72803,9.11091],[-79.72593,9.11598],[-79.72201,9.11653],[-79.72023,9.11485],[-79.72475,9.11041],[-79.72285,9.10622],[-79.71903,9.11486],[-79.70539,9.1136],[-79.70457,9.10329],[-79.70231,9.10937],[-79.69484,9.10833],[-79.68122,9.08869],[-79.67045,9.06562],[-79.65951,9.05671],[-79.64276,9.03603],[-79.625,9.02447],[-79.63132,9.02722],[-79.62486,9.0211],[-79.62252,9.02335],[-79.61486,9.01844],[-79.59819,8.99821],[-79.59517,8.99743],[-79.59506,8.99965],[-79.58453,8.98708],[-79.58018,8.97601],[-79.58105,8.96953],[-79.57329,8.95585],[-79.57697,8.95249],[-79.573,8.95017],[-79.57445,8.94333],[-79.56663,8.94303],[-79.56897,8.94069],[-79.56479,8.94064],[-79.57167,8.93114],[-79.55961,8.92234],[-79.56492,8.90284],[-79.57192,8.89703],[-79.58188,8.89664],[-79.58365,8.89099],[-79.58132,8.88749],[-79.59291,8.89077],[-79.59404,8.89335],[-79.61365,8.89328],[-79.6272,8.88507],[-79.64475,8.88543],[-79.64665,8.87905],[-79.65475,8.88524],[-79.65495,8.89299],[-79.6586,8.88886],[-79.65991,8.8947],[-79.66186,8.89485],[-79.67169,8.88369],[-79.67051,8.86873],[-79.66579,8.86419],[-79.66633,8.8618],[-79.66836,8.86514],[-79.67466,8.86291],[-79.67262,8.85945],[-79.66604,8.85956],[-79.67236,8.85906],[-79.67975,8.86516],[-79.67922,8.87154],[-79.68254,8.87649],[-79.69008,8.87502],[-79.69645,8.86813],[-79.69846,8.87566],[-79.70128,8.87618],[-79.70259,8.87311],[-79.70328,8.87689],[-79.7121,8.88502],[-79.70716,8.88752],[-79.7122,8.89322],[-79.70862,8.89519],[-79.71178,8.89495],[-79.71006,8.89734],[-79.71681,8.90223],[-79.72156,8.90108],[-79.72437,8.90784],[-79.72406,8.90567],[-79.72774,8.9051],[-79.72815,8.9091],[-79.73197,8.90291],[-79.73222,8.90716],[-79.73544,8.90447],[-79.74263,8.90721],[-79.74148,8.91117],[-79.7465,8.91041],[-79.74694,8.91427],[-79.75605,8.91342],[-79.75823,8.9158],[-79.76749,8.91301],[-79.77297,8.92464],[-79.77026,8.9295],[-79.77134,8.93465],[-79.76271,8.9357],[-79.76034,8.94581],[-79.74683,8.95292],[-79.7489,8.96098],[-79.75408,8.96286],[-79.7525,8.97437],[-79.77418,8.98996],[-79.7756,8.99442],[-79.77248,8.99634],[-79.77284,9.00087],[-79.76811,9.00351],[-79.76631,9.01108],[-79.7569,9.01874],[-79.75801,9.02592]]]}}]}