{"type":"FeatureCollection","features":[{"type":"Feature","properties":{"codigo":"13-2","provincia":"Panamá Oeste","descripcion":"Distrito de Capira","diputados_a_elegir":1,"poblacion_electores_2022":33452,"bbox":[-80.17549,8.63578,-79.74284,8.99681]},"geometry":{"type":"Polygon","coordinates":[[[-79.79417,8.66793],[-79.80701,8.65218],[-79.81704,8.65714],[-79.82118,8.65638],[-79.83515,8.64024],[-79.84192,8.64812],[-79.85339,8.65422],[-79.84705,8.66117],[-79.85007,8.67298],[-79.84607,8.67404],[-79.84732,8.67608],[-79.84367,8.67947],[-79.85614,8.6936],[-79.86896,8.68863],[-79.87186,8.69243],[-79.88175,8.69052],[-79.8854,8.68364],[-79.89227,8.68176],[-79.90259,8.67249],[-79.91637,8.67147],[-79.93735,8.69261],[-79.94305,8.69341],[-79.95652,8.70252],[-79.97344,8.69295],[-79.99436,8.70236],[-80.00597,8.70399],[-80.01345,8.70072],[-80.02063,8.70421],[-80.03001,8.69366],[-80.04009,8.69307],[-80.05451,8.66894],[-80.06376,8.66011],[-80.07606,8.65363],[-80.07647,8.64925],[-80.10389,8.63578],[-80.11234,8.63772],[-80.11007,8.64779],[-80.11868,8.66098],[-80.11931,8.66861],[-80.10995,8.69305],[-80.11492,8.70632],[-80.1126,8.71454],[-80.11777,8.72009],[-80.1141,8.72499],[-80.11556,8.73095],[-80.12153,8.73287],[-80.12677,8.76196],[-80.14507,8.77308],[-80.15354,8.78615],[-80.1498,8.78863],[-80.15324,8.79264],[-80.1587,8.79293],[-80.15756,8.79854],[-80.16227,8.80535],[-80.15846,8.80884],[-80.16669,8.82065],[-80.1634,8.82577],[-80.16893,8.83334],[-80.1677,8.8388],[-80.17549,8.84471],[-80.16981,8.84911],[-80.16639,8.85718],[-80.16917,8.85791],[-80.16817,8.87101],[-80.17097,8.87745],[-80.16654,8.87689],[-80.17005,8.88242],[-80.17055,8.89306],[-80.17365,8.89477],[-80.169,8.89777],[-80.16924,8.90046],[-80.16565,8.89768],[-80.16101,8.90662],[-80.15751,8.90732],[-80.15894,8.91176],[-80.1526,8.91495],[-80.14846,8.91261],[-80.14829,8.92404],[-80.14492,8.91892],[-80.14076,8.92719],[-80.14076,8.92325],[-80.13653,8.92442],[-80.13909,8.92887],[-80.13429,8.93052],[-80.13411,8.93583],[-80.14146,8.93388],[-80.13939,8.93818],[-80.14455,8.94032],[-80.1398,8.94486],[-80.14204,8.94642],[-80.13223,8.96579],[-80.08683,8.99681],[-80.05441,8.96242],[-79.98761,8.97294],[-79.97275,8.93606],[-79.97337,8.92669],[-79.98552,8.9238],[-79.97289,8.90687],[-79.98174,8.89108],[-79.97379,8.87242],[-79.9767,8.86687],[-79.97183,8.84042],[-79.96165,8.84221],[-79.95917,8.83492],[-79.95224,8.83288],[-79.94193,8.84032],[-79.93948,8.8324],[-79.94183,8.82254],[-79.92549,8.82145],[-79.9115,8.80976],[-79.90632,8.81157],[-79.90148,8.82086],[-79.88351,8.8233],[-79.86302,8.81436],[-79.85963,8.8222],[-79.85262,8.82436],[-79.85171,8.83034],[-79.8405,8.83576],[-79.83976,8.82181],[-79.84272,8.82053],[-79.83681,8.81031],[-79.8345,8.81173],[-79.83575,8.80915],[-79.833,8.80556],[-79.82755,8.8053],[-79.8206,8.80017],[-79.82062,8.79594],[-79.81502,8.79518],[-79.79928,8.80459],[-79.79458,8.79935],[-79.79678,8.79708],[-79.79196,8.79414],[-79.79345,8.78918],[-79.7856,8.77711],[-79.78236,8.77752],[-79.78296,8.77522],[-79.78104,8.77739],[-79.77989,8.77426],[-79.77997,8.7791],[-79.77713,8.77597],[-79.77392,8.77841],[-79.77691,8.77902],[-79.77715,8.78229],[-79.77158,8.78063],[-79.76819,8.77102],[-79.76269,8.76903],[-79.76195,8.76151],[-79.76471,8.75799],[-79.75779,8.75304],[-79.75758,8.74748],[-79.76048,8.74436],[-79.75516,8.73918],[-79.75606,8.73676],[-79.75314,8.73837],[-79.75241,8.73539],[-79.74712,8.73405],[-79.75321,8.73087],[-79.75261,8.72704],[-79.74669,8.72869],[-79.74284,8.72575],[-79.74702,8.72034],[-79.75323,8.71827],[-79.74532,8.71153],[-79.74979,8.71155],[-79.75035,8.70739],[-79.75822,8.70711],[-79.76013,8.69705],[-79.75271,8.69242],[-79.76567,8.67757],[-79.79417,8.66793]]]}}]}