{"type":"FeatureCollection","features":[{"type":"Feature","properties":{"codigo":"13-3","provincia":"Panamá Oeste","descripcion":"Chame y San Carlos","diputados_a_elegir":1,"poblacion_electores_2022":36897,"bbox":[-80.12221,8.40938,-79.69809,8.70421]},"geometry":{"type":"Polygon","coordinates":[[[-79.95229,8.46808],[-79.97639,8.44948],[-80.00186,8.43729],[-80.02008,8.42192],[-80.04263,8.40938],[-80.0502,8.41215],[-80.04725,8.41403],[-80.05175,8.41951],[-80.05496,8.41496],[-80.05833,8.41842],[-80.06062,8.4272],[-80.06382,8.43097],[-80.06622,8.4298],[-80.06518,8.43719],[-80.06885,8.44675],[-80.07187,8.44785],[-80.08075,8.4638],[-80.08754,8.46551],[-80.08708,8.4725],[-80.08928,8.47196],[-80.08881,8.4755],[-80.09322,8.47577],[-80.09673,8.48442],[-80.09495,8.48745],[-80.09945,8.48913],[-80.09496,8.50075],[-80.09653,8.5121],[-80.09321,8.51433],[-80.09,8.52762],[-80.09222,8.53278],[-80.09582,8.53357],[-80.09471,8.53624],[-80.09833,8.53428],[-80.09664,8.54181],[-80.10043,8.54288],[-80.10167,8.54953],[-80.10663,8.55139],[-80.11157,8.56233],[-80.10956,8.56929],[-80.11203,8.57879],[-80.12221,8.58919],[-80.11408,8.59298],[-80.10544,8.59087],[-80.10284,8.60514],[-80.09866,8.6122],[-80.10423,8.6167],[-80.10145,8.62164],[-80.10389,8.63578],[-80.07647,8.64925],[-80.07606,8.65363],[-80.0623,8.66129],[-80.04982,8.6748],[-80.04009,8.69307],[-80.03001,8.69366],[-80.02063,8.70421],[-80.01345,8.70072],[-80.00597,8.70399],[-79.99436,8.70236],[-79.97344,8.69295],[-79.95652,8.70252],[-79.94305,8.69341],[-79.93735,8.69261],[-79.91637,8.67147],[-79.90259,8.67249],[-79.89227,8.68176],[-79.8854,8.68364],[-79.88175,8.69052],[-79.87186,8.69243],[-79.86896,8.68863],[-79.85614,8.6936],[-79.84367,8.67947],[-79.84732,8.67608],[-79.84607,8.67404],[-79.85007,8.67298],[-79.84705,8.66117],[-79.85339,8.65422],[-79.84041,8.64679],[-79.83515,8.64024],[-79.83544,8.63635],[-79.82349,8.63296],[-79.81579,8.62659],[-79.78257,8.61151],[-79.76055,8.61725],[-79.74814,8.61111],[-79.74446,8.61494],[-79.74573,8.62288],[-79.73359,8.62727],[-79.72611,8.63662],[-79.71399,8.64197],[-79.69809,8.65671],[-79.69874,8.64881],[-79.70317,8.64349],[-79.7812,8.57886],[-79.8352,8.56044],[-79.86748,8.55284],[-79.86823,8.54853],[-79.87843,8.54204],[-79.87574,8.53031],[-79.90097,8.52204],[-79.90824,8.51743],[-79.91543,8.50688],[-79.94336,8.49288],[-79.94841,8.48522],[-79.95229,8.46808]]]}}]}