{"type":"FeatureCollection","features":[{"type":"Feature","properties":{"codigo":"13-4","provincia":"Panamá Oeste","descripcion":"Distrito de La Chorrera","diputados_a_elegir":3,"poblacion_electores_2022":138531,"bbox":[-79.991,8.77426,-79.70383,9.18195]},"geometry":{"type":"MultiPolygon","coordinates":[[[[-79.94265,8.8404],[-79.95224,8.83288],[-79.95917,8.83492],[-79.96165,8.84221],[-79.97183,8.84042],[-79.9767,8.86687],[-79.97379,8.87242],[-79.98174,8.89108],[-79.97289,8.90687],[-79.98552,8.9238],[-79.97337,8.92669],[-79.97275,8.93606],[-79.991,8.97818],[-79.98355,8.98099],[-79.98251,8.98775],[-79.97801,8.98398],[-79.97572,8.98517],[-79.9749,8.993],[-79.97146,8.99153],[-79.96917,8.99464],[-79.96635,8.99181],[-79.96154,8.99694],[-79.96359,8.98527],[-79.95912,8.98372],[-79.96228,8.98657],[-79.95897,8.99444],[-79.95916,9.00129],[-79.96213,9.00418],[-79.95508,9.01011],[-79.95647,9.02197],[-79.95308,9.02292],[-79.95435,9.01904],[-79.95178,9.02009],[-79.95323,9.01753],[-79.95162,9.01693],[-79.95047,9.02096],[-79.94717,9.02079],[-79.95114,9.02291],[-79.95199,9.02755],[-79.94668,9.02767],[-79.94883,9.03335],[-79.93666,9.02698],[-79.93585,9.03094],[-79.94116,9.03066],[-79.94777,9.03552],[-79.94242,9.03641],[-79.94018,9.03978],[-79.94408,9.03791],[-79.94456,9.04068],[-79.94113,9.04178],[-79.95089,9.03932],[-79.95203,9.04288],[-79.94742,9.04371],[-79.94858,9.04582],[-79.94487,9.04692],[-79.94464,9.04977],[-79.9496,9.04646],[-79.95392,9.04813],[-79.94988,9.05384],[-79.95196,9.05454],[-79.95517,9.05112],[-79.95663,9.05129],[-79.95626,9.05418],[-79.95399,9.05389],[-79.95602,9.05604],[-79.95199,9.05653],[-79.95367,9.05899],[-79.95054,9.06013],[-79.9561,9.0676],[-79.96096,9.06682],[-79.95864,9.07026],[-79.96179,9.07308],[-79.95666,9.07285],[-79.96052,9.07458],[-79.95954,9.07832],[-79.96215,9.07647],[-79.9653,9.07892],[-79.96136,9.07987],[-79.96267,9.08487],[-79.95824,9.08565],[-79.96117,9.09472],[-79.95853,9.0942],[-79.95678,9.08865],[-79.95161,9.09296],[-79.95021,9.09032],[-79.95305,9.08973],[-79.94884,9.08557],[-79.95304,9.08813],[-79.95641,9.08627],[-79.95663,9.08428],[-79.95332,9.08561],[-79.94934,9.08196],[-79.95549,9.07821],[-79.95382,9.07578],[-79.94983,9.07951],[-79.94874,9.0762],[-79.94581,9.08053],[-79.9433,9.07746],[-79.94515,9.07576],[-79.94175,9.0756],[-79.9389,9.06973],[-79.94371,9.0643],[-79.93542,9.06849],[-79.93454,9.06184],[-79.93226,9.06233],[-79.93296,9.06532],[-79.92979,9.06185],[-79.93126,9.06717],[-79.92891,9.0657],[-79.92533,9.06668],[-79.93409,9.07393],[-79.93824,9.07315],[-79.93748,9.07569],[-79.94081,9.07815],[-79.93596,9.07898],[-79.93635,9.0815],[-79.94231,9.08013],[-79.94676,9.08409],[-79.94146,9.08628],[-79.94528,9.09002],[-79.94259,9.09011],[-79.94336,9.09746],[-79.94854,9.103],[-79.94247,9.10159],[-79.94206,9.09623],[-79.93902,9.09785],[-79.93925,9.09504],[-79.94231,9.09471],[-79.93648,9.09388],[-79.93407,9.08871],[-79.93613,9.09393],[-79.93371,9.09336],[-79.93202,9.09365],[-79.93719,9.095],[-79.93693,9.09743],[-79.92806,9.09364],[-79.92614,9.09687],[-79.92627,9.09238],[-79.93009,9.09122],[-79.9287,9.08615],[-79.92598,9.09085],[-79.92689,9.08605],[-79.92344,9.08581],[-79.92613,9.08372],[-79.92256,9.0826],[-79.92194,9.07203],[-79.91944,9.07262],[-79.91978,9.08144],[-79.91768,9.07691],[-79.91525,9.08228],[-79.91151,9.07831],[-79.91155,9.08262],[-79.90762,9.0826],[-79.90591,9.08642],[-79.90427,9.08335],[-79.899,9.0832],[-79.90332,9.08604],[-79.90234,9.08819],[-79.90684,9.08862],[-79.90995,9.08558],[-79.91119,9.08821],[-79.9117,9.08494],[-79.91426,9.0864],[-79.91253,9.08786],[-79.91499,9.08851],[-79.91552,9.09347],[-79.91602,9.08941],[-79.92042,9.08858],[-79.91828,9.09848],[-79.92439,9.09696],[-79.92619,9.10258],[-79.92926,9.1026],[-79.92055,9.1037],[-79.92809,9.10674],[-79.92953,9.11306],[-79.91857,9.10413],[-79.92345,9.10917],[-79.91868,9.10893],[-79.92202,9.11191],[-79.91918,9.11208],[-79.92019,9.11431],[-79.91581,9.1142],[-79.91674,9.10911],[-79.91318,9.10719],[-79.91441,9.11264],[-79.91248,9.10995],[-79.90956,9.10771],[-79.9136,9.11422],[-79.90474,9.11035],[-79.90388,9.11045],[-79.90313,9.11122],[-79.90131,9.11043],[-79.89951,9.11102],[-79.90255,9.11159],[-79.90451,9.11053],[-79.91151,9.11616],[-79.91591,9.11609],[-79.91086,9.1198],[-79.91698,9.11665],[-79.91891,9.11983],[-79.91662,9.12134],[-79.92247,9.12088],[-79.9174,9.12363],[-79.91693,9.12731],[-79.92074,9.12385],[-79.92082,9.12774],[-79.92944,9.12448],[-79.93176,9.12657],[-79.92913,9.12863],[-79.93114,9.13151],[-79.92739,9.12731],[-79.91507,9.13022],[-79.91728,9.13164],[-79.91402,9.13393],[-79.91289,9.13625],[-79.91287,9.13741],[-79.92175,9.13017],[-79.92227,9.13658],[-79.9247,9.13222],[-79.92677,9.13329],[-79.92362,9.14067],[-79.92769,9.13816],[-79.93093,9.14008],[-79.93041,9.13802],[-79.93116,9.13684],[-79.93255,9.14241],[-79.93857,9.14284],[-79.93377,9.14353],[-79.93647,9.14584],[-79.93393,9.14802],[-79.93591,9.15113],[-79.9295,9.14857],[-79.93192,9.14804],[-79.93067,9.14523],[-79.92888,9.14729],[-79.92797,9.14548],[-79.92723,9.1453],[-79.92859,9.1499],[-79.9218,9.14633],[-79.91829,9.14592],[-79.9287,9.15231],[-79.9247,9.15415],[-79.92661,9.15594],[-79.9245,9.15614],[-79.92198,9.15921],[-79.92225,9.16096],[-79.93287,9.15527],[-79.9315,9.16067],[-79.93503,9.16278],[-79.92487,9.16428],[-79.92735,9.1655],[-79.92542,9.16973],[-79.92364,9.16856],[-79.92444,9.17173],[-79.92179,9.16942],[-79.92124,9.16977],[-79.92441,9.17447],[-79.91963,9.17783],[-79.9182,9.16739],[-79.91438,9.17016],[-79.91493,9.16614],[-79.90904,9.1671],[-79.91245,9.16466],[-79.91018,9.16361],[-79.91421,9.16317],[-79.9099,9.16122],[-79.91247,9.1611],[-79.91321,9.16062],[-79.90857,9.16086],[-79.90935,9.16321],[-79.90506,9.16043],[-79.91226,9.15929],[-79.91194,9.15725],[-79.90592,9.15923],[-79.91059,9.15683],[-79.9094,9.15513],[-79.90323,9.15655],[-79.90326,9.15348],[-79.90615,9.15551],[-79.90895,9.15338],[-79.90668,9.15233],[-79.90995,9.153],[-79.91053,9.15485],[-79.91196,9.15287],[-79.9062,9.15133],[-79.91061,9.15075],[-79.90752,9.14842],[-79.91269,9.14856],[-79.90688,9.1476],[-79.9068,9.14505],[-79.91122,9.14551],[-79.91076,9.1437],[-79.90713,9.14469],[-79.9068,9.1405],[-79.9039,9.1416],[-79.90679,9.14421],[-79.90436,9.15216],[-79.90227,9.15244],[-79.90495,9.14795],[-79.90331,9.14251],[-79.90056,9.14256],[-79.90184,9.14458],[-79.89966,9.14433],[-79.89851,9.14851],[-79.89207,9.14299],[-79.89871,9.15248],[-79.89796,9.15307],[-79.89777,9.15158],[-79.89584,9.15151],[-79.89659,9.15727],[-79.89431,9.15837],[-79.89626,9.16007],[-79.89298,9.15936],[-79.89219,9.16155],[-79.89464,9.1608],[-79.8953,9.16456],[-79.88832,9.16298],[-79.89524,9.16803],[-79.89084,9.16753],[-79.89402,9.16941],[-79.89197,9.17132],[-79.89101,9.1696],[-79.89003,9.16951],[-79.89067,9.1711],[-79.88709,9.17415],[-79.89119,9.17423],[-79.88664,9.17614],[-79.8884,9.17721],[-79.8857,9.17807],[-79.88517,9.17498],[-79.88296,9.17699],[-79.88487,9.17894],[-79.887,9.17843],[-79.88502,9.18195],[-79.88003,9.17458],[-79.88459,9.17295],[-79.88414,9.17094],[-79.88903,9.17133],[-79.88884,9.16603],[-79.88199,9.16352],[-79.88514,9.1673],[-79.88181,9.16732],[-79.8799,9.16336],[-79.88296,9.15772],[-79.88078,9.15478],[-79.88278,9.14585],[-79.87728,9.14689],[-79.87692,9.14934],[-79.87492,9.14576],[-79.8699,9.14516],[-79.87241,9.14284],[-79.86903,9.14159],[-79.87382,9.14075],[-79.87291,9.13822],[-79.87584,9.13631],[-79.87751,9.14001],[-79.87556,9.14271],[-79.87989,9.14328],[-79.87983,9.13831],[-79.88295,9.13785],[-79.87772,9.13224],[-79.88049,9.12776],[-79.87407,9.12677],[-79.87809,9.12393],[-79.87674,9.1211],[-79.87069,9.12211],[-79.8757,9.11876],[-79.87074,9.11859],[-79.8723,9.11596],[-79.86976,9.11507],[-79.87395,9.11308],[-79.86789,9.11489],[-79.86427,9.11166],[-79.86157,9.11652],[-79.86428,9.11859],[-79.86074,9.11754],[-79.86477,9.12876],[-79.86075,9.13218],[-79.85716,9.12769],[-79.85449,9.12843],[-79.85669,9.12713],[-79.85438,9.12458],[-79.85242,9.12947],[-79.84956,9.12838],[-79.85283,9.12496],[-79.84635,9.12037],[-79.84436,9.12585],[-79.8386,9.12421],[-79.83919,9.12734],[-79.83713,9.12744],[-79.83678,9.12193],[-79.83373,9.12029],[-79.83598,9.11873],[-79.83293,9.1191],[-79.83394,9.11772],[-79.83216,9.11542],[-79.83172,9.12479],[-79.83811,9.13386],[-79.83274,9.13144],[-79.83068,9.13435],[-79.81907,9.11693],[-79.8232,9.11176],[-79.82277,9.1055],[-79.82706,9.10885],[-79.82921,9.1063],[-79.82975,9.10427],[-79.82931,9.10313],[-79.82659,9.10704],[-79.82327,9.10435],[-79.82426,9.10092],[-79.82155,9.1019],[-79.82215,9.11234],[-79.81405,9.1222],[-79.80878,9.11952],[-79.80942,9.11282],[-79.80568,9.11043],[-79.80901,9.10814],[-79.80386,9.10168],[-79.81777,9.09421],[-79.82254,9.09742],[-79.82163,9.09289],[-79.82558,9.09122],[-79.81768,9.08875],[-79.81901,9.08395],[-79.82567,9.07849],[-79.8283,9.08108],[-79.82661,9.08435],[-79.82996,9.08534],[-79.83267,9.08412],[-79.83455,9.08786],[-79.83317,9.08305],[-79.83929,9.08345],[-79.83601,9.08256],[-79.83749,9.08073],[-79.83723,9.07995],[-79.82887,9.08325],[-79.8294,9.08074],[-79.82744,9.07898],[-79.83165,9.08037],[-79.83467,9.07744],[-79.83378,9.07284],[-79.83186,9.07634],[-79.83025,9.07411],[-79.82881,9.07808],[-79.82587,9.07741],[-79.8275,9.06348],[-79.83019,9.06385],[-79.82979,9.07164],[-79.83278,9.07022],[-79.83185,9.06851],[-79.83241,9.06634],[-79.83789,9.07049],[-79.83898,9.07572],[-79.84047,9.07063],[-79.84122,9.07543],[-79.84541,9.07559],[-79.84289,9.07187],[-79.84488,9.06986],[-79.84169,9.06779],[-79.8426,9.06504],[-79.84456,9.06882],[-79.84801,9.06919],[-79.84564,9.07049],[-79.84676,9.07395],[-79.84849,9.07287],[-79.85095,9.07787],[-79.85113,9.07287],[-79.85448,9.07579],[-79.85495,9.07473],[-79.85438,9.06735],[-79.85743,9.07014],[-79.85744,9.0678],[-79.85988,9.06782],[-79.85883,9.06876],[-79.85957,9.07002],[-79.8587,9.07259],[-79.85904,9.07341],[-79.86241,9.06591],[-79.86404,9.06943],[-79.86821,9.0698],[-79.86791,9.07177],[-79.86868,9.07499],[-79.87157,9.06971],[-79.87508,9.07196],[-79.87487,9.07537],[-79.87771,9.07461],[-79.87647,9.07179],[-79.87983,9.07405],[-79.88059,9.07154],[-79.8736,9.07021],[-79.87605,9.05587],[-79.87383,9.0574],[-79.8719,9.0597],[-79.87417,9.05889],[-79.87467,9.06258],[-79.87129,9.06644],[-79.87032,9.06646],[-79.86463,9.05575],[-79.86857,9.05484],[-79.86703,9.0525],[-79.87016,9.04987],[-79.86666,9.04787],[-79.86754,9.04571],[-79.86171,9.04688],[-79.86492,9.05003],[-79.8622,9.055],[-79.85983,9.05364],[-79.86195,9.04982],[-79.85793,9.04953],[-79.85583,9.05704],[-79.85311,9.05285],[-79.85527,9.05019],[-79.84976,9.05066],[-79.85289,9.04709],[-79.84971,9.04645],[-79.85365,9.04449],[-79.85027,9.0445],[-79.85026,9.04208],[-79.85424,9.04163],[-79.84999,9.04013],[-79.8482,9.03469],[-79.8463,9.04222],[-79.84388,9.03766],[-79.84459,9.04897],[-79.84162,9.04678],[-79.84349,9.05178],[-79.84004,9.04791],[-79.83994,9.05235],[-79.8349,9.05375],[-79.83303,9.04822],[-79.83537,9.0483],[-79.83786,9.04536],[-79.83291,9.04013],[-79.83477,9.03613],[-79.82975,9.03632],[-79.82445,9.04146],[-79.82757,9.0448],[-79.82733,9.05108],[-79.83184,9.05567],[-79.82578,9.06215],[-79.82648,9.0509],[-79.82522,9.05523],[-79.82162,9.0556],[-79.82409,9.05668],[-79.82178,9.06177],[-79.82401,9.07161],[-79.81988,9.06651],[-79.81846,9.07047],[-79.82372,9.07498],[-79.8229,9.07718],[-79.82038,9.07477],[-79.8196,9.07471],[-79.82012,9.08048],[-79.81639,9.08166],[-79.81657,9.07757],[-79.81095,9.07883],[-79.81322,9.07308],[-79.80905,9.07606],[-79.8113,9.06873],[-79.80814,9.06985],[-79.81056,9.06551],[-79.81378,9.06558],[-79.80876,9.06398],[-79.80841,9.0621],[-79.80745,9.06098],[-79.80918,9.06104],[-79.80997,9.05983],[-79.80199,9.05467],[-79.80722,9.05915],[-79.80737,9.06114],[-79.80851,9.0642],[-79.8099,9.0655],[-79.80726,9.06873],[-79.808,9.07014],[-79.80986,9.07147],[-79.80798,9.07724],[-79.80481,9.08169],[-79.79317,9.08411],[-79.78882,9.07983],[-79.78906,9.07045],[-79.78253,9.06503],[-79.78137,9.06027],[-79.76976,9.05712],[-79.76643,9.05261],[-79.76886,9.0363],[-79.76375,9.03392],[-79.75612,9.02044],[-79.76637,9.01099],[-79.76811,9.00351],[-79.77291,9.00074],[-79.77248,8.99634],[-79.77559,8.99465],[-79.77418,8.98996],[-79.7525,8.97437],[-79.75408,8.96286],[-79.7489,8.96098],[-79.74683,8.95292],[-79.76034,8.94581],[-79.76271,8.9357],[-79.77127,8.93475],[-79.77205,8.92129],[-79.7671,8.91281],[-79.75823,8.9158],[-79.75605,8.91342],[-79.74757,8.91442],[-79.74643,8.91037],[-79.74148,8.91117],[-79.74263,8.90721],[-79.73544,8.90447],[-79.73222,8.90716],[-79.73183,8.90292],[-79.72748,8.90926],[-79.72795,8.90518],[-79.72406,8.90567],[-79.72437,8.90784],[-79.72156,8.90108],[-79.71697,8.90228],[-79.71191,8.89925],[-79.70997,8.89695],[-79.71178,8.89495],[-79.70854,8.89495],[-79.71214,8.89353],[-79.70908,8.89216],[-79.71079,8.88968],[-79.70711,8.88779],[-79.7121,8.88502],[-79.70383,8.877],[-79.70856,8.87412],[-79.71241,8.86529],[-79.71104,8.8609],[-79.70622,8.85944],[-79.70532,8.85603],[-79.71993,8.86265],[-79.72828,8.85699],[-79.73051,8.85051],[-79.73458,8.84861],[-79.73959,8.85031],[-79.74058,8.84359],[-79.74711,8.84256],[-79.74887,8.83749],[-79.74577,8.83224],[-79.74645,8.82699],[-79.75334,8.82933],[-79.75124,8.81933],[-79.75936,8.81787],[-79.7569,8.81405],[-79.76655,8.80438],[-79.76559,8.80127],[-79.7691,8.79578],[-79.76701,8.79235],[-79.77157,8.7861],[-79.77006,8.78209],[-79.77715,8.78229],[-79.77691,8.77902],[-79.77392,8.77841],[-79.77713,8.77597],[-79.77997,8.7791],[-79.7793,8.77652],[-79.77989,8.77426],[-79.78104,8.77739],[-79.78335,8.77531],[-79.7823,8.77748],[-79.78798,8.77955],[-79.78995,8.78325],[-79.78817,8.78401],[-79.7935,8.78935],[-79.79196,8.79414],[-79.79678,8.79708],[-79.79458,8.79935],[-79.79928,8.80459],[-79.81502,8.79518],[-79.82062,8.79594],[-79.8206,8.80017],[-79.82755,8.8053],[-79.83308,8.80562],[-79.83575,8.80915],[-79.8345,8.81173],[-79.83681,8.81031],[-79.84272,8.82053],[-79.83976,8.82181],[-79.8405,8.83576],[-79.85171,8.83034],[-79.85262,8.82436],[-79.85963,8.8222],[-79.86302,8.81436],[-79.88351,8.8233],[-79.90148,8.82086],[-79.90632,8.81157],[-79.91178,8.80977],[-79.92549,8.82145],[-79.94183,8.82254],[-79.93948,8.83245],[-79.94265,8.8404]]],[[[-79.84307,9.17849],[-79.84181,9.16878],[-79.83981,9.17346],[-79.83348,9.17466],[-79.83775,9.16752],[-79.83568,9.16338],[-79.83158,9.16568],[-79.83247,9.16287],[-79.82893,9.16222],[-79.82465,9.16555],[-79.81895,9.16012],[-79.8225,9.15303],[-79.82761,9.15154],[-79.82507,9.14578],[-79.82806,9.13958],[-79.82986,9.14883],[-79.8337,9.1461],[-79.83627,9.14876],[-79.83781,9.14815],[-79.8392,9.149],[-79.84001,9.14883],[-79.83632,9.14673],[-79.83597,9.14203],[-79.83861,9.14539],[-79.84215,9.14243],[-79.8425,9.14343],[-79.83971,9.14606],[-79.8402,9.14656],[-79.84384,9.14417],[-79.84251,9.13955],[-79.84371,9.1374],[-79.84563,9.13905],[-79.84398,9.13535],[-79.8475,9.13262],[-79.8521,9.13793],[-79.85157,9.14037],[-79.85033,9.14111],[-79.84964,9.14301],[-79.86099,9.13955],[-79.85966,9.14078],[-79.86372,9.14164],[-79.86212,9.14344],[-79.86577,9.14218],[-79.86544,9.14538],[-79.86794,9.14501],[-79.86621,9.14693],[-79.8703,9.14878],[-79.86793,9.15151],[-79.86942,9.15893],[-79.86667,9.16138],[-79.86912,9.16328],[-79.86731,9.16545],[-79.86764,9.16379],[-79.86442,9.16374],[-79.86575,9.16983],[-79.8703,9.17122],[-79.86544,9.17463],[-79.86442,9.17165],[-79.86355,9.17551],[-79.86152,9.17498],[-79.86299,9.16557],[-79.85963,9.16506],[-79.85909,9.16985],[-79.85437,9.1692],[-79.85514,9.16762],[-79.85418,9.16661],[-79.85298,9.16859],[-79.8561,9.17068],[-79.85393,9.17127],[-79.85765,9.17492],[-79.8562,9.17689],[-79.84925,9.17313],[-79.84875,9.17004],[-79.84811,9.1742],[-79.84552,9.17278],[-79.84543,9.17942],[-79.84307,9.17849]]]]}}]}