{"type":"FeatureCollection","features":[{"type":"Feature","properties":{"codigo":"2-1","provincia":"Coclé","descripcion":"Distrito de Penonomé","diputados_a_elegir":2,"poblacion_electores_2022":70921,"bbox":[-80.5251,8.30084,-80.10995,9.05795]},"geometry":{"type":"Polygon","coordinates":[[[-80.39765,8.34598],[-80.40628,8.35049],[-80.40961,8.3505],[-80.40578,8.34737],[-80.40987,8.34749],[-80.41061,8.3431],[-80.41644,8.34861],[-80.41801,8.34606],[-80.41516,8.34054],[-80.41735,8.33938],[-80.42043,8.34309],[-80.42176,8.33575],[-80.42557,8.34119],[-80.43055,8.34262],[-80.43144,8.33551],[-80.43418,8.33973],[-80.43653,8.33682],[-80.43968,8.34106],[-80.44205,8.339],[-80.44739,8.34108],[-80.45642,8.33384],[-80.4548,8.3302],[-80.4571,8.32737],[-80.46957,8.32756],[-80.47386,8.32475],[-80.4751,8.32778],[-80.471,8.32988],[-80.47158,8.3335],[-80.47791,8.3329],[-80.479,8.33509],[-80.47427,8.33627],[-80.47466,8.33913],[-80.47893,8.33813],[-80.48287,8.34362],[-80.47928,8.34959],[-80.48222,8.35436],[-80.47737,8.3584],[-80.47636,8.36563],[-80.47868,8.36834],[-80.47876,8.36546],[-80.48303,8.36651],[-80.48547,8.36386],[-80.48722,8.37066],[-80.48463,8.38057],[-80.48967,8.38092],[-80.48664,8.38352],[-80.49227,8.38582],[-80.49161,8.39177],[-80.49722,8.38516],[-80.49686,8.39208],[-80.49243,8.39481],[-80.5038,8.40131],[-80.4998,8.40578],[-80.50338,8.40861],[-80.49822,8.41372],[-80.49915,8.42135],[-80.50863,8.43378],[-80.50553,8.44355],[-80.50946,8.44844],[-80.50685,8.45485],[-80.51745,8.47112],[-80.52048,8.47118],[-80.5251,8.48741],[-80.4342,8.52461],[-80.4464,8.54857],[-80.44148,8.55328],[-80.43705,8.55157],[-80.43588,8.56308],[-80.42114,8.56836],[-80.40888,8.56496],[-80.40236,8.57273],[-80.40992,8.62356],[-80.40736,8.62623],[-80.40908,8.63396],[-80.40537,8.63597],[-80.40541,8.64254],[-80.40085,8.64478],[-80.40152,8.64863],[-80.39652,8.65692],[-80.39462,8.65585],[-80.39118,8.66111],[-80.38472,8.66261],[-80.38351,8.66059],[-80.38124,8.6727],[-80.38495,8.69176],[-80.39377,8.70036],[-80.42679,8.70905],[-80.44001,8.7297],[-80.41975,8.76619],[-80.41641,8.83166],[-80.42089,8.88782],[-80.41694,8.88385],[-80.4128,8.88483],[-80.41071,8.87979],[-80.38803,8.88197],[-80.37681,8.87959],[-80.37229,8.87234],[-80.36755,8.87141],[-80.3659,8.86148],[-80.23939,8.9875],[-80.23368,8.98974],[-80.23116,8.97884],[-80.22116,8.98015],[-80.21814,8.9918],[-80.21415,8.99264],[-80.21041,9.00053],[-80.20954,9.01203],[-80.20459,9.01983],[-80.20718,9.02395],[-80.20369,9.03347],[-80.20578,9.0463],[-80.19933,9.05661],[-80.19491,9.05795],[-80.19493,9.05013],[-80.18979,9.04628],[-80.18919,9.04046],[-80.18308,9.0409],[-80.18437,9.0337],[-80.17968,9.03125],[-80.17843,9.02663],[-80.18517,9.01904],[-80.18178,9.01545],[-80.18454,9.00896],[-80.17703,8.99763],[-80.18116,8.99508],[-80.17712,8.99203],[-80.18132,8.98715],[-80.17706,8.98258],[-80.17296,8.98491],[-80.17111,8.98319],[-80.1759,8.97479],[-80.17555,8.96868],[-80.16644,8.97154],[-80.16776,8.96777],[-80.16319,8.96896],[-80.16072,8.96245],[-80.15242,8.96622],[-80.15432,8.96205],[-80.14573,8.95729],[-80.14563,8.95127],[-80.1402,8.94839],[-80.14205,8.94623],[-80.13985,8.94476],[-80.14455,8.94032],[-80.13939,8.93818],[-80.14163,8.93402],[-80.13403,8.93562],[-80.13429,8.93052],[-80.13909,8.92887],[-80.13671,8.9242],[-80.14076,8.92325],[-80.14076,8.92719],[-80.14492,8.91892],[-80.14829,8.92404],[-80.14846,8.91261],[-80.1526,8.91495],[-80.15894,8.91176],[-80.15751,8.90732],[-80.16101,8.90662],[-80.16565,8.89768],[-80.16924,8.90046],[-80.169,8.89777],[-80.17365,8.89477],[-80.17055,8.89306],[-80.17005,8.88242],[-80.16654,8.87689],[-80.17097,8.87745],[-80.16817,8.87101],[-80.16917,8.85791],[-80.16639,8.85718],[-80.16981,8.84911],[-80.17549,8.84471],[-80.1677,8.8388],[-80.16893,8.83334],[-80.1634,8.82577],[-80.16669,8.82065],[-80.15846,8.80884],[-80.16227,8.80535],[-80.15756,8.79854],[-80.1587,8.79293],[-80.15324,8.79264],[-80.1498,8.78863],[-80.15354,8.78615],[-80.14507,8.77308],[-80.12677,8.76196],[-80.12153,8.73287],[-80.11556,8.73095],[-80.1141,8.72499],[-80.11777,8.72009],[-80.1126,8.71454],[-80.11492,8.70632],[-80.10995,8.69305],[-80.11271,8.69049],[-80.11237,8.68201],[-80.11895,8.67341],[-80.11664,8.65747],[-80.1337,8.64386],[-80.13687,8.64781],[-80.15541,8.62727],[-80.15415,8.61875],[-80.18007,8.61657],[-80.18816,8.58644],[-80.21888,8.57046],[-80.22897,8.56851],[-80.23358,8.55956],[-80.23955,8.55263],[-80.24536,8.55063],[-80.24669,8.54654],[-80.2573,8.54259],[-80.2645,8.54543],[-80.2783,8.54352],[-80.28072,8.52781],[-80.29972,8.51392],[-80.30717,8.49052],[-80.30533,8.48768],[-80.30736,8.48327],[-80.30376,8.48304],[-80.30355,8.4807],[-80.31359,8.4704],[-80.31554,8.46542],[-80.31372,8.46307],[-80.32017,8.45747],[-80.31416,8.44951],[-80.31802,8.43897],[-80.31573,8.43475],[-80.32243,8.42683],[-80.32088,8.41379],[-80.32634,8.41155],[-80.32435,8.39533],[-80.32769,8.39607],[-80.3344,8.38772],[-80.33038,8.37776],[-80.33416,8.37331],[-80.33148,8.36916],[-80.33637,8.33964],[-80.35557,8.33477],[-80.35555,8.3299],[-80.35999,8.32893],[-80.35854,8.32604],[-80.36143,8.32786],[-80.35812,8.31805],[-80.35286,8.31894],[-80.35519,8.31363],[-80.3592,8.31633],[-80.35536,8.3077],[-80.35882,8.30802],[-80.36024,8.30254],[-80.3632,8.3046],[-80.36502,8.30153],[-80.37028,8.30321],[-80.375,8.30847],[-80.38026,8.30344],[-80.39041,8.30084],[-80.39479,8.3156],[-80.38643,8.32795],[-80.38912,8.33308],[-80.39436,8.33368],[-80.39641,8.32391],[-80.40137,8.32259],[-80.39867,8.32813],[-80.40322,8.33411],[-80.40314,8.33904],[-80.39765,8.34598]]]}}]}