{"type":"FeatureCollection","features":[{"type":"Feature","properties":{"codigo":"2-2","provincia":"Coclé","descripcion":"Distrito de Antón","diputados_a_elegir":1,"poblacion_electores_2022":42660,"bbox":[-80.39041,8.28974,-80.04314,8.65725]},"geometry":{"type":"Polygon","coordinates":[[[-80.34505,8.30207],[-80.35981,8.3006],[-80.37563,8.29094],[-80.3826,8.28974],[-80.38507,8.29073],[-80.38252,8.294],[-80.38658,8.30082],[-80.39041,8.30084],[-80.38026,8.30344],[-80.375,8.30847],[-80.37028,8.30321],[-80.36502,8.30153],[-80.3632,8.3046],[-80.36024,8.30254],[-80.35882,8.30802],[-80.35536,8.3077],[-80.3592,8.31633],[-80.35519,8.31363],[-80.35286,8.31894],[-80.35812,8.31805],[-80.36143,8.32786],[-80.35854,8.32604],[-80.35999,8.32893],[-80.35555,8.3299],[-80.35557,8.33477],[-80.33637,8.33964],[-80.33148,8.36916],[-80.33416,8.37331],[-80.33038,8.37776],[-80.3344,8.38772],[-80.32769,8.39607],[-80.32435,8.39533],[-80.32634,8.41155],[-80.32088,8.41379],[-80.32243,8.42683],[-80.31573,8.43475],[-80.31802,8.43897],[-80.31416,8.44951],[-80.32017,8.45747],[-80.31372,8.46307],[-80.31554,8.46542],[-80.31359,8.4704],[-80.30355,8.4807],[-80.30376,8.48304],[-80.30736,8.48327],[-80.30533,8.48768],[-80.30717,8.49052],[-80.29972,8.51392],[-80.28072,8.52781],[-80.2783,8.54352],[-80.2645,8.54543],[-80.2573,8.54259],[-80.24669,8.54654],[-80.24536,8.55063],[-80.23955,8.55263],[-80.23358,8.55956],[-80.22897,8.56851],[-80.21888,8.57046],[-80.18816,8.58644],[-80.18007,8.61657],[-80.15415,8.61875],[-80.15541,8.62727],[-80.13687,8.64781],[-80.1337,8.64386],[-80.11618,8.65725],[-80.11007,8.64779],[-80.11234,8.63772],[-80.10389,8.63578],[-80.10145,8.62164],[-80.10423,8.6167],[-80.09866,8.6122],[-80.10583,8.59025],[-80.11408,8.59298],[-80.12221,8.58919],[-80.11203,8.57879],[-80.10956,8.56929],[-80.11157,8.56233],[-80.10663,8.55139],[-80.10167,8.54953],[-80.10043,8.54288],[-80.09664,8.54181],[-80.09833,8.53428],[-80.09471,8.53624],[-80.09582,8.53357],[-80.09222,8.53278],[-80.08999,8.52756],[-80.09321,8.51433],[-80.09653,8.5121],[-80.09496,8.50075],[-80.09945,8.48913],[-80.09495,8.48745],[-80.09673,8.48442],[-80.09322,8.47577],[-80.08881,8.4755],[-80.08928,8.47196],[-80.08708,8.4725],[-80.08754,8.46551],[-80.08075,8.4638],[-80.07187,8.44785],[-80.06885,8.44675],[-80.06518,8.43719],[-80.06622,8.4298],[-80.06382,8.43097],[-80.06062,8.4272],[-80.05833,8.41842],[-80.05496,8.41496],[-80.05175,8.41951],[-80.04725,8.41403],[-80.0502,8.41215],[-80.04314,8.40901],[-80.07366,8.39414],[-80.11878,8.36524],[-80.12558,8.36398],[-80.1434,8.34992],[-80.18456,8.32575],[-80.23276,8.30463],[-80.24822,8.29989],[-80.27366,8.30337],[-80.27874,8.29904],[-80.30345,8.29608],[-80.31038,8.29732],[-80.31798,8.30094],[-80.30442,8.29785],[-80.3005,8.3007],[-80.2919,8.29963],[-80.29489,8.30252],[-80.29273,8.30255],[-80.29359,8.30513],[-80.3058,8.30628],[-80.35087,8.2946],[-80.36339,8.29498],[-80.34854,8.29651],[-80.34397,8.29931],[-80.34505,8.30207]]]}}]}