{"type":"FeatureCollection","features":[{"type":"Feature","properties":{"codigo":"2-3","provincia":"Coclé","descripcion":"La Pintada, Natá y Olá","diputados_a_elegir":1,"poblacion_electores_2022":44345,"bbox":[-80.8329,8.22012,-80.38124,8.94163]},"geometry":{"type":"Polygon","coordinates":[[[-80.56399,8.27199],[-80.57804,8.27148],[-80.58151,8.26888],[-80.5877,8.27254],[-80.5868,8.27713],[-80.59164,8.2783],[-80.59527,8.28372],[-80.60215,8.28261],[-80.60858,8.28562],[-80.61205,8.29622],[-80.62227,8.29946],[-80.62834,8.30614],[-80.63224,8.30723],[-80.63482,8.30327],[-80.64295,8.30465],[-80.64717,8.30112],[-80.64996,8.30616],[-80.65882,8.30987],[-80.66157,8.3151],[-80.6693,8.31546],[-80.67562,8.32146],[-80.6851,8.31956],[-80.70214,8.32664],[-80.70531,8.33559],[-80.71752,8.34176],[-80.72654,8.35515],[-80.72411,8.374],[-80.75486,8.42857],[-80.75243,8.43053],[-80.75862,8.43773],[-80.75576,8.44153],[-80.75743,8.44684],[-80.75547,8.45142],[-80.76134,8.45963],[-80.76959,8.46502],[-80.76837,8.46844],[-80.77805,8.4747],[-80.78674,8.47577],[-80.78307,8.50011],[-80.79351,8.50911],[-80.80106,8.52161],[-80.80571,8.52312],[-80.80651,8.52794],[-80.81978,8.53384],[-80.82516,8.54416],[-80.8329,8.54906],[-80.82532,8.55214],[-80.82333,8.55729],[-80.81396,8.5647],[-80.79174,8.55491],[-80.78478,8.55678],[-80.77986,8.56488],[-80.77878,8.57411],[-80.77467,8.57638],[-80.77038,8.58496],[-80.76065,8.59322],[-80.75217,8.59414],[-80.74992,8.59845],[-80.74907,8.60395],[-80.75667,8.61917],[-80.75299,8.62829],[-80.72441,8.62421],[-80.71718,8.64631],[-80.69429,8.65146],[-80.69551,8.66805],[-80.70538,8.67244],[-80.70965,8.69176],[-80.70716,8.71245],[-80.69914,8.71752],[-80.69895,8.72164],[-80.68953,8.73174],[-80.69051,8.7377],[-80.68621,8.7408],[-80.69239,8.748],[-80.69144,8.76046],[-80.68335,8.76102],[-80.67826,8.76722],[-80.65556,8.77676],[-80.65343,8.77956],[-80.65596,8.78766],[-80.65296,8.78647],[-80.65348,8.78957],[-80.64864,8.78458],[-80.64545,8.78768],[-80.64186,8.78435],[-80.63385,8.78707],[-80.63149,8.78294],[-80.62415,8.78714],[-80.62182,8.78417],[-80.62573,8.78264],[-80.62384,8.77574],[-80.55483,8.79348],[-80.54785,8.79008],[-80.5535,8.79947],[-80.55139,8.80188],[-80.55634,8.80505],[-80.55379,8.80824],[-80.54942,8.80576],[-80.54799,8.8113],[-80.54076,8.81732],[-80.54445,8.82912],[-80.54273,8.83642],[-80.54616,8.83971],[-80.54291,8.8468],[-80.54622,8.85968],[-80.54263,8.86332],[-80.55012,8.86622],[-80.5459,8.87777],[-80.55627,8.87204],[-80.55609,8.87712],[-80.56069,8.87994],[-80.56189,8.88488],[-80.5589,8.88766],[-80.55253,8.88743],[-80.5564,8.89406],[-80.5509,8.89546],[-80.55344,8.90725],[-80.54777,8.90993],[-80.54793,8.91667],[-80.54365,8.92038],[-80.54966,8.92534],[-80.54951,8.93382],[-80.54201,8.93061],[-80.5457,8.93588],[-80.53278,8.94163],[-80.53097,8.93974],[-80.53323,8.93571],[-80.52781,8.92834],[-80.51962,8.926],[-80.51462,8.92915],[-80.51115,8.92542],[-80.5119,8.92157],[-80.50852,8.92072],[-80.50539,8.92412],[-80.50293,8.91789],[-80.49747,8.92294],[-80.48393,8.91202],[-80.46587,8.91462],[-80.46269,8.91142],[-80.45754,8.91525],[-80.43906,8.89929],[-80.43994,8.89608],[-80.43499,8.89459],[-80.43372,8.89013],[-80.4209,8.88784],[-80.41641,8.83166],[-80.41975,8.76619],[-80.44001,8.7297],[-80.42679,8.70905],[-80.39239,8.69967],[-80.385,8.69192],[-80.38124,8.6727],[-80.38367,8.66032],[-80.38472,8.66261],[-80.39113,8.66112],[-80.39462,8.65585],[-80.39652,8.65692],[-80.40152,8.64863],[-80.40085,8.64478],[-80.40541,8.64254],[-80.40537,8.63597],[-80.40908,8.63396],[-80.40736,8.62623],[-80.40992,8.62356],[-80.40236,8.57273],[-80.40888,8.56496],[-80.42114,8.56836],[-80.43588,8.56308],[-80.43705,8.55157],[-80.44159,8.55323],[-80.44677,8.54788],[-80.4433,8.53975],[-80.43778,8.53516],[-80.4342,8.52461],[-80.4666,8.5132],[-80.52506,8.48709],[-80.52048,8.47118],[-80.51745,8.47112],[-80.50685,8.45485],[-80.50946,8.44844],[-80.50553,8.44355],[-80.50863,8.43378],[-80.49915,8.42135],[-80.49822,8.41372],[-80.50338,8.40861],[-80.4998,8.40578],[-80.5038,8.40131],[-80.49243,8.39481],[-80.49686,8.39208],[-80.49722,8.38516],[-80.49161,8.39177],[-80.49227,8.38582],[-80.48664,8.38352],[-80.48967,8.38092],[-80.48463,8.38057],[-80.48722,8.37066],[-80.48547,8.36386],[-80.48303,8.36651],[-80.47876,8.36546],[-80.47868,8.36834],[-80.47636,8.36563],[-80.47737,8.3584],[-80.48222,8.35436],[-80.47928,8.34959],[-80.48287,8.34362],[-80.47893,8.33813],[-80.47466,8.33913],[-80.47427,8.33627],[-80.479,8.33509],[-80.47791,8.3329],[-80.47158,8.3335],[-80.471,8.32988],[-80.4751,8.32778],[-80.47386,8.32475],[-80.46957,8.32756],[-80.4571,8.32737],[-80.4548,8.3302],[-80.45642,8.33384],[-80.44739,8.34108],[-80.44205,8.339],[-80.43968,8.34106],[-80.43653,8.33682],[-80.43418,8.33973],[-80.43144,8.33551],[-80.43055,8.34262],[-80.42557,8.34119],[-80.42138,8.33583],[-80.42043,8.34309],[-80.41735,8.33938],[-80.41516,8.34054],[-80.41724,8.34795],[-80.41467,8.3487],[-80.41036,8.34311],[-80.40987,8.34749],[-80.40578,8.34737],[-80.40995,8.34956],[-80.40818,8.35066],[-80.39767,8.34621],[-80.40314,8.33904],[-80.40322,8.33411],[-80.39873,8.32866],[-80.40115,8.32234],[-80.39641,8.32391],[-80.39395,8.33383],[-80.38875,8.33277],[-80.38622,8.32601],[-80.39469,8.31615],[-80.39039,8.30082],[-80.39313,8.30081],[-80.39399,8.29012],[-80.40722,8.29108],[-80.42027,8.27612],[-80.42757,8.27216],[-80.43208,8.25886],[-80.44757,8.24881],[-80.44521,8.24098],[-80.45092,8.23513],[-80.4542,8.22241],[-80.45987,8.22012],[-80.47086,8.22432],[-80.47337,8.23494],[-80.48076,8.23838],[-80.48604,8.23719],[-80.48466,8.22613],[-80.49098,8.22589],[-80.48686,8.23871],[-80.49359,8.2384],[-80.49754,8.24244],[-80.49152,8.24404],[-80.49339,8.251],[-80.48611,8.25418],[-80.49235,8.2581],[-80.4912,8.26173],[-80.49507,8.26242],[-80.4907,8.26636],[-80.49273,8.2706],[-80.48778,8.26983],[-80.49051,8.27404],[-80.49369,8.2724],[-80.49327,8.27663],[-80.49842,8.27414],[-80.49802,8.27742],[-80.50124,8.27962],[-80.5053,8.27704],[-80.5135,8.28],[-80.51993,8.27518],[-80.51935,8.27226],[-80.53874,8.2753],[-80.54673,8.26754],[-80.54835,8.27058],[-80.5547,8.2664],[-80.56399,8.27199]]]}}]}