{"type":"FeatureCollection","features":[{"type":"Feature","properties":{"codigo":"2-4","provincia":"Coclé","descripcion":"Distrito de Aguadulce","diputados_a_elegir":1,"poblacion_electores_2022":36800,"bbox":[-80.74659,8.09122,-80.47086,8.32664]},"geometry":{"type":"Polygon","coordinates":[[[-80.53874,8.2753],[-80.51935,8.27226],[-80.51993,8.27518],[-80.5135,8.28],[-80.5053,8.27704],[-80.50124,8.27962],[-80.49802,8.27742],[-80.49842,8.27414],[-80.49313,8.27656],[-80.49369,8.2724],[-80.49051,8.27404],[-80.48778,8.26983],[-80.49273,8.2706],[-80.4907,8.26636],[-80.49507,8.26242],[-80.4912,8.26173],[-80.49235,8.2581],[-80.48611,8.25418],[-80.49339,8.251],[-80.49152,8.24404],[-80.49754,8.24244],[-80.49359,8.2384],[-80.48686,8.23871],[-80.49116,8.22627],[-80.48843,8.22427],[-80.48466,8.22613],[-80.48623,8.23641],[-80.48226,8.23847],[-80.47402,8.23571],[-80.47097,8.2278],[-80.47086,8.22432],[-80.47548,8.22296],[-80.48341,8.20296],[-80.48314,8.1987],[-80.47695,8.19144],[-80.48221,8.18166],[-80.48737,8.18034],[-80.4892,8.15716],[-80.48683,8.13389],[-80.47846,8.10232],[-80.48449,8.09122],[-80.49736,8.09444],[-80.49769,8.10267],[-80.5052,8.10521],[-80.50627,8.11201],[-80.51067,8.11003],[-80.50851,8.10525],[-80.51014,8.10195],[-80.51701,8.10099],[-80.51904,8.10463],[-80.51737,8.11017],[-80.52574,8.11088],[-80.5231,8.11912],[-80.52548,8.12384],[-80.5269,8.11725],[-80.5338,8.11575],[-80.53158,8.1208],[-80.53882,8.12417],[-80.53979,8.11372],[-80.55109,8.11774],[-80.55336,8.1069],[-80.56019,8.10714],[-80.56131,8.11075],[-80.5568,8.1214],[-80.56717,8.12973],[-80.56655,8.13295],[-80.57302,8.13248],[-80.57761,8.13848],[-80.58443,8.13],[-80.59877,8.13469],[-80.59765,8.13802],[-80.58784,8.13931],[-80.58644,8.1431],[-80.58948,8.14538],[-80.59804,8.13994],[-80.61416,8.14114],[-80.62903,8.13846],[-80.6394,8.13412],[-80.6433,8.1291],[-80.65014,8.13137],[-80.6648,8.1232],[-80.66551,8.12926],[-80.67979,8.13247],[-80.67709,8.1351],[-80.67144,8.13311],[-80.67598,8.13842],[-80.69386,8.13942],[-80.70233,8.14722],[-80.70108,8.1544],[-80.70643,8.15556],[-80.71074,8.15275],[-80.71963,8.15903],[-80.72064,8.16215],[-80.71488,8.16485],[-80.73418,8.17461],[-80.74659,8.18872],[-80.74413,8.19415],[-80.74124,8.19439],[-80.74159,8.19784],[-80.73443,8.19829],[-80.73377,8.20384],[-80.72317,8.21202],[-80.72417,8.22117],[-80.71655,8.23803],[-80.71727,8.24455],[-80.71165,8.2507],[-80.71721,8.25658],[-80.71638,8.26945],[-80.71386,8.27146],[-80.71621,8.27114],[-80.71635,8.27456],[-80.71052,8.27881],[-80.70904,8.29168],[-80.7036,8.29859],[-80.70505,8.30976],[-80.70214,8.32664],[-80.6851,8.31956],[-80.67562,8.32146],[-80.6693,8.31546],[-80.66157,8.3151],[-80.65882,8.30987],[-80.64996,8.30616],[-80.64696,8.30106],[-80.64295,8.30465],[-80.63482,8.30327],[-80.63224,8.30723],[-80.62834,8.30614],[-80.62227,8.29946],[-80.61205,8.29622],[-80.60858,8.28562],[-80.60215,8.28261],[-80.59527,8.28372],[-80.59164,8.2783],[-80.5868,8.27713],[-80.5877,8.27254],[-80.58147,8.26886],[-80.56748,8.27285],[-80.56006,8.27159],[-80.5547,8.2664],[-80.54835,8.27058],[-80.54673,8.26754],[-80.53874,8.2753]]]}}]}