{"type":"FeatureCollection","features":[{"type":"Feature","properties":{"codigo":"3-1","provincia":"Colón","descripcion":"Distrito de Colón","diputados_a_elegir":4,"poblacion_electores_2022":157674,"bbox":[-80.10919,8.96351,-79.53606,9.47873]},"geometry":{"type":"MultiPolygon","coordinates":[[[[-80.05544,8.96351],[-80.10483,9.01748],[-80.10084,9.02121],[-80.1066,9.03061],[-80.09777,9.04881],[-80.10919,9.06318],[-80.10595,9.06836],[-80.08887,9.07153],[-80.08604,9.07431],[-80.07864,9.0738],[-80.06895,9.07876],[-80.06625,9.08536],[-80.05462,9.08888],[-80.05543,9.09664],[-80.04947,9.10008],[-80.05091,9.10755],[-80.04388,9.11189],[-80.0356,9.14957],[-80.03169,9.15128],[-80.03198,9.15761],[-80.02687,9.15987],[-80.028,9.16352],[-80.02441,9.16891],[-80.03171,9.18067],[-80.03667,9.18254],[-80.03379,9.1875],[-80.02224,9.19603],[-80.01978,9.19117],[-80.01716,9.1929],[-80.01128,9.19023],[-80.01865,9.18081],[-80.01086,9.1702],[-79.9865,9.17405],[-79.99714,9.20997],[-79.99593,9.28135],[-80.01296,9.29266],[-80.02134,9.28175],[-80.0239,9.28321],[-80.02583,9.28101],[-80.02706,9.28507],[-80.03129,9.28587],[-80.03153,9.28121],[-80.03496,9.2821],[-80.03683,9.27837],[-80.04506,9.28586],[-80.03284,9.29684],[-80.02403,9.30061],[-80.01902,9.31236],[-80.00164,9.31843],[-80.00395,9.32686],[-79.99085,9.341],[-79.9837,9.35364],[-79.98553,9.35619],[-79.97055,9.36573],[-79.96373,9.36474],[-79.95896,9.37019],[-79.94917,9.37261],[-79.95136,9.36659],[-79.94731,9.37038],[-79.94942,9.36018],[-79.94495,9.35318],[-79.95107,9.34663],[-79.94745,9.34619],[-79.94929,9.34187],[-79.94637,9.33463],[-79.94924,9.32888],[-79.94408,9.32667],[-79.95079,9.3237],[-79.95221,9.32],[-79.94629,9.3126],[-79.93293,9.31012],[-79.92692,9.31281],[-79.92188,9.31137],[-79.9223,9.27533],[-79.91821,9.29999],[-79.91682,9.29141],[-79.91402,9.29171],[-79.91393,9.30394],[-79.91709,9.30526],[-79.91663,9.33117],[-79.90461,9.34507],[-79.90562,9.3494],[-79.90224,9.34496],[-79.90449,9.33509],[-79.90172,9.341],[-79.89924,9.34067],[-79.90239,9.34888],[-79.90858,9.35127],[-79.90675,9.35332],[-79.91226,9.35201],[-79.91015,9.35398],[-79.91396,9.35246],[-79.91179,9.35447],[-79.91534,9.35546],[-79.90517,9.35554],[-79.90836,9.36361],[-79.90552,9.3667],[-79.89547,9.36624],[-79.88868,9.35412],[-79.89158,9.34463],[-79.88613,9.33962],[-79.88251,9.34226],[-79.87745,9.34034],[-79.8799,9.34206],[-79.88803,9.34279],[-79.89075,9.34479],[-79.88772,9.35633],[-79.88218,9.35511],[-79.88671,9.36498],[-79.88212,9.37175],[-79.88489,9.37082],[-79.88359,9.37373],[-79.888,9.37004],[-79.89031,9.37659],[-79.88146,9.37982],[-79.89183,9.38324],[-79.88017,9.38899],[-79.87911,9.38165],[-79.87466,9.37893],[-79.87453,9.38417],[-79.88117,9.39029],[-79.87882,9.39338],[-79.88501,9.39304],[-79.8736,9.40445],[-79.86054,9.40309],[-79.85699,9.39275],[-79.85961,9.38944],[-79.85269,9.39064],[-79.84758,9.38756],[-79.85147,9.38578],[-79.85116,9.38199],[-79.8469,9.38635],[-79.84377,9.37818],[-79.8415,9.37997],[-79.843,9.38323],[-79.83937,9.37946],[-79.84847,9.39973],[-79.84113,9.40372],[-79.84041,9.39875],[-79.83607,9.39903],[-79.83279,9.39441],[-79.83466,9.39206],[-79.84168,9.39229],[-79.83693,9.39005],[-79.83713,9.38509],[-79.8343,9.38307],[-79.8339,9.37797],[-79.83924,9.37821],[-79.83735,9.37291],[-79.83476,9.37706],[-79.83118,9.37249],[-79.82747,9.37918],[-79.82534,9.37816],[-79.82445,9.37866],[-79.82957,9.38045],[-79.83206,9.38644],[-79.81955,9.39638],[-79.8148,9.38836],[-79.81769,9.38543],[-79.81596,9.38303],[-79.82026,9.38306],[-79.82107,9.37972],[-79.81939,9.38096],[-79.81823,9.37807],[-79.81104,9.38191],[-79.81007,9.37162],[-79.80593,9.3696],[-79.80935,9.35805],[-79.80376,9.36467],[-79.80046,9.35835],[-79.79603,9.36232],[-79.80821,9.37164],[-79.80933,9.37953],[-79.80679,9.38305],[-79.80951,9.38609],[-79.80641,9.38811],[-79.81116,9.38883],[-79.80952,9.39224],[-79.80728,9.38978],[-79.80713,9.39308],[-79.813,9.39465],[-79.81793,9.4036],[-79.80814,9.41767],[-79.8004,9.41281],[-79.79727,9.41381],[-79.79519,9.41006],[-79.78926,9.4112],[-79.78898,9.40698],[-79.77936,9.40081],[-79.7806,9.39697],[-79.77005,9.39556],[-79.77056,9.39337],[-79.76507,9.39198],[-79.76083,9.3951],[-79.75716,9.3825],[-79.7533,9.38549],[-79.75024,9.38192],[-79.73835,9.39242],[-79.73424,9.38877],[-79.72435,9.38925],[-79.70741,9.36877],[-79.70777,9.36545],[-79.66258,9.3676],[-79.65402,9.3809],[-79.65633,9.38519],[-79.65252,9.3935],[-79.65415,9.43222],[-79.64781,9.4316],[-79.64763,9.43486],[-79.6424,9.43848],[-79.65154,9.44358],[-79.64923,9.45546],[-79.64645,9.45548],[-79.64578,9.45022],[-79.64286,9.45275],[-79.63875,9.45155],[-79.63892,9.44594],[-79.63227,9.45326],[-79.63217,9.44819],[-79.63008,9.44998],[-79.62684,9.44759],[-79.62014,9.45163],[-79.6151,9.44553],[-79.61182,9.44818],[-79.61354,9.45018],[-79.60235,9.45818],[-79.59483,9.46998],[-79.59772,9.47181],[-79.59378,9.47338],[-79.58809,9.46594],[-79.58519,9.46609],[-79.5624,9.47873],[-79.54863,9.47279],[-79.54628,9.4676],[-79.53941,9.46673],[-79.53606,9.46184],[-79.54158,9.46012],[-79.53808,9.45747],[-79.53915,9.45252],[-79.53657,9.45271],[-79.53957,9.4501],[-79.53692,9.44726],[-79.53898,9.44574],[-79.53739,9.44197],[-79.54153,9.4421],[-79.54061,9.43602],[-79.54686,9.43276],[-79.54484,9.42092],[-79.54159,9.4196],[-79.54484,9.41455],[-79.54783,9.41667],[-79.55013,9.41098],[-79.55599,9.40901],[-79.55661,9.39959],[-79.55241,9.39807],[-79.55931,9.39557],[-79.55993,9.38987],[-79.56422,9.38623],[-79.55926,9.38327],[-79.56476,9.38101],[-79.56416,9.37598],[-79.57018,9.37234],[-79.56668,9.37013],[-79.56945,9.36779],[-79.566,9.36598],[-79.56628,9.36061],[-79.55723,9.36176],[-79.55979,9.35875],[-79.55617,9.34703],[-79.56174,9.34602],[-79.56993,9.33348],[-79.57403,9.33307],[-79.57359,9.32783],[-79.57719,9.32393],[-79.58176,9.33477],[-79.58589,9.33152],[-79.59108,9.33533],[-79.59141,9.33967],[-79.59272,9.3363],[-79.58926,9.33211],[-79.59174,9.33154],[-79.59149,9.33286],[-79.59372,9.33535],[-79.59233,9.33109],[-79.59544,9.33253],[-79.59688,9.32937],[-79.59751,9.32949],[-79.59792,9.33093],[-79.59866,9.33143],[-79.59784,9.32889],[-79.60248,9.32656],[-79.58774,9.33245],[-79.59374,9.32828],[-79.58289,9.33084],[-79.58029,9.32181],[-79.58427,9.31684],[-79.5833,9.3109],[-79.58594,9.3068],[-79.58058,9.30486],[-79.58606,9.30406],[-79.58425,9.30034],[-79.59408,9.28157],[-79.59106,9.27782],[-79.59447,9.27836],[-79.59728,9.27156],[-79.59236,9.27341],[-79.59474,9.27173],[-79.59191,9.26723],[-79.59321,9.26266],[-79.59873,9.25911],[-79.59972,9.26917],[-79.60121,9.2654],[-79.60423,9.26577],[-79.60056,9.25993],[-79.60124,9.25529],[-79.60982,9.25147],[-79.61054,9.25403],[-79.61071,9.25256],[-79.61338,9.2514],[-79.61378,9.24986],[-79.61107,9.2521],[-79.60686,9.24721],[-79.60805,9.25181],[-79.60195,9.25295],[-79.59848,9.25029],[-79.60019,9.25502],[-79.58844,9.26115],[-79.59048,9.25383],[-79.5867,9.25484],[-79.58982,9.25146],[-79.59167,9.25297],[-79.59252,9.25245],[-79.59084,9.24979],[-79.59496,9.24875],[-79.59236,9.24663],[-79.60072,9.24886],[-79.60189,9.24646],[-79.59482,9.24102],[-79.59251,9.24234],[-79.58812,9.23652],[-79.58952,9.23402],[-79.58597,9.23361],[-79.58964,9.23282],[-79.58682,9.23159],[-79.58716,9.22964],[-79.59084,9.23137],[-79.58913,9.22685],[-79.59294,9.22767],[-79.58885,9.22499],[-79.59095,9.22369],[-79.58899,9.22096],[-79.59437,9.22282],[-79.60056,9.22089],[-79.59787,9.22569],[-79.60676,9.22818],[-79.60471,9.23096],[-79.60653,9.23127],[-79.60964,9.22918],[-79.60905,9.22597],[-79.61296,9.22778],[-79.61774,9.22234],[-79.62207,9.22177],[-79.6192,9.21994],[-79.61962,9.21306],[-79.61809,9.21602],[-79.61313,9.21612],[-79.6137,9.21119],[-79.6191,9.21039],[-79.62113,9.20345],[-79.64795,9.2092],[-79.65793,9.16905],[-79.65766,9.17117],[-79.65882,9.17129],[-79.6585,9.16519],[-79.65986,9.15895],[-79.67263,9.15076],[-79.67142,9.15362],[-79.6618,9.15778],[-79.65937,9.16158],[-79.66329,9.15761],[-79.66724,9.1596],[-79.6726,9.1571],[-79.67524,9.16016],[-79.67378,9.1523],[-79.67819,9.14156],[-79.68678,9.13268],[-79.69494,9.13474],[-79.69,9.11722],[-79.69272,9.11828],[-79.69786,9.11321],[-79.70724,9.11647],[-79.70578,9.11822],[-79.70948,9.11663],[-79.72076,9.12103],[-79.74961,9.12328],[-79.77193,9.11639],[-79.77498,9.12058],[-79.77252,9.11969],[-79.77213,9.12435],[-79.77566,9.12214],[-79.77759,9.12604],[-79.7754,9.12513],[-79.7741,9.12589],[-79.78133,9.13097],[-79.78072,9.12719],[-79.78675,9.13015],[-79.7843,9.13472],[-79.78258,9.13312],[-79.77772,9.13416],[-79.77724,9.13617],[-79.78424,9.13497],[-79.78364,9.14076],[-79.77837,9.13886],[-79.7733,9.14009],[-79.77603,9.1429],[-79.77867,9.14138],[-79.77924,9.1463],[-79.77758,9.14263],[-79.77633,9.14396],[-79.77807,9.1483],[-79.78248,9.14922],[-79.78039,9.14351],[-79.78498,9.14164],[-79.78687,9.1358],[-79.79099,9.13649],[-79.7906,9.13947],[-79.79646,9.1371],[-79.79664,9.14276],[-79.79301,9.14213],[-79.79039,9.14606],[-79.79569,9.14607],[-79.79486,9.15233],[-79.79312,9.15207],[-79.79109,9.15404],[-79.7957,9.15452],[-79.79148,9.15618],[-79.79769,9.1604],[-79.79965,9.15633],[-79.80638,9.16011],[-79.80376,9.1681],[-79.80037,9.16321],[-79.79928,9.16612],[-79.79792,9.16214],[-79.7974,9.16459],[-79.79314,9.16352],[-79.79175,9.1643],[-79.79704,9.16778],[-79.79516,9.17089],[-79.7936,9.16913],[-79.79373,9.17217],[-79.78548,9.16149],[-79.78639,9.1723],[-79.78061,9.17261],[-79.79133,9.17476],[-79.78479,9.17643],[-79.79035,9.17752],[-79.78619,9.18297],[-79.79172,9.18255],[-79.79162,9.17978],[-79.7927,9.18143],[-79.79458,9.17929],[-79.79412,9.18326],[-79.79558,9.18036],[-79.79639,9.18241],[-79.79751,9.18324],[-79.79827,9.18133],[-79.80026,9.18252],[-79.79857,9.18454],[-79.804,9.18463],[-79.80314,9.18676],[-79.80626,9.18822],[-79.81483,9.18446],[-79.8137,9.18891],[-79.81597,9.18996],[-79.81772,9.18567],[-79.81937,9.18815],[-79.81977,9.18573],[-79.82474,9.18571],[-79.82108,9.18195],[-79.83365,9.17868],[-79.82956,9.18036],[-79.82784,9.18823],[-79.82669,9.18588],[-79.81643,9.19237],[-79.81775,9.19682],[-79.80685,9.19378],[-79.80976,9.19662],[-79.80761,9.1986],[-79.80942,9.20208],[-79.80629,9.20442],[-79.81038,9.20491],[-79.80892,9.20808],[-79.81233,9.20644],[-79.81363,9.2086],[-79.81194,9.20887],[-79.81124,9.21215],[-79.81462,9.20772],[-79.81726,9.20872],[-79.81714,9.20553],[-79.81417,9.20698],[-79.81308,9.20479],[-79.8172,9.20327],[-79.81473,9.20119],[-79.81721,9.19767],[-79.81826,9.20137],[-79.81966,9.20153],[-79.81792,9.1988],[-79.82099,9.19428],[-79.82402,9.19521],[-79.82268,9.19752],[-79.8283,9.19868],[-79.82474,9.19647],[-79.82487,9.19305],[-79.82735,9.19476],[-79.82665,9.19232],[-79.82998,9.19212],[-79.83037,9.19532],[-79.83507,9.19329],[-79.83535,9.19535],[-79.8375,9.19032],[-79.84501,9.18831],[-79.84688,9.1911],[-79.84223,9.19216],[-79.84592,9.19554],[-79.8458,9.19267],[-79.85037,9.19236],[-79.85185,9.18677],[-79.859,9.18595],[-79.85806,9.192],[-79.85356,9.19068],[-79.85639,9.19361],[-79.85397,9.19489],[-79.85603,9.19827],[-79.85352,9.20124],[-79.8513,9.19941],[-79.84995,9.2031],[-79.84516,9.20278],[-79.84139,9.20726],[-79.83809,9.20591],[-79.83969,9.20813],[-79.8366,9.20671],[-79.83508,9.21085],[-79.83363,9.2065],[-79.83111,9.2066],[-79.83304,9.2119],[-79.83087,9.21276],[-79.83071,9.20968],[-79.82825,9.21085],[-79.82912,9.2146],[-79.82411,9.21335],[-79.82527,9.22234],[-79.82838,9.22342],[-79.82459,9.22461],[-79.82832,9.22444],[-79.82369,9.22928],[-79.82872,9.2254],[-79.82932,9.22763],[-79.83134,9.22649],[-79.83064,9.22816],[-79.83171,9.22852],[-79.83186,9.22547],[-79.82959,9.2239],[-79.8323,9.22475],[-79.83345,9.2209],[-79.83469,9.2242],[-79.83629,9.21959],[-79.84009,9.22064],[-79.83894,9.22446],[-79.83649,9.22424],[-79.83725,9.22709],[-79.84402,9.23049],[-79.83944,9.23231],[-79.83624,9.2274],[-79.83203,9.22988],[-79.83697,9.23384],[-79.82941,9.23008],[-79.82759,9.23424],[-79.82596,9.23308],[-79.82425,9.23414],[-79.82793,9.23464],[-79.82403,9.24792],[-79.82132,9.24825],[-79.82447,9.24909],[-79.82663,9.24528],[-79.82881,9.25159],[-79.82564,9.24871],[-79.82645,9.25175],[-79.82209,9.25125],[-79.82234,9.25637],[-79.82019,9.25565],[-79.81624,9.24988],[-79.81964,9.2429],[-79.81316,9.2484],[-79.8092,9.23632],[-79.80552,9.23277],[-79.80054,9.23416],[-79.80209,9.23599],[-79.80526,9.23381],[-79.8087,9.24105],[-79.8057,9.24872],[-79.80305,9.24635],[-79.80181,9.24824],[-79.80265,9.25346],[-79.79021,9.25321],[-79.78882,9.25097],[-79.78791,9.25447],[-79.78522,9.25451],[-79.78219,9.25038],[-79.77254,9.25203],[-79.77952,9.25476],[-79.77511,9.26044],[-79.77653,9.26626],[-79.7777,9.26267],[-79.78324,9.26735],[-79.79663,9.25795],[-79.79607,9.26098],[-79.8048,9.25672],[-79.8041,9.26086],[-79.8145,9.2519],[-79.81618,9.25408],[-79.81344,9.25665],[-79.81638,9.25541],[-79.81789,9.25797],[-79.81379,9.25786],[-79.81652,9.25899],[-79.8126,9.26149],[-79.81318,9.26344],[-79.81737,9.25896],[-79.82261,9.26243],[-79.81876,9.26216],[-79.8222,9.26402],[-79.82073,9.2681],[-79.81719,9.2627],[-79.81679,9.26579],[-79.81425,9.26447],[-79.81867,9.26682],[-79.81856,9.27049],[-79.81615,9.26813],[-79.81632,9.27083],[-79.81408,9.27038],[-79.81249,9.26648],[-79.81407,9.27134],[-79.8109,9.27115],[-79.81566,9.2723],[-79.81301,9.27544],[-79.8179,9.27275],[-79.82065,9.27416],[-79.81861,9.27382],[-79.8125,9.27778],[-79.81356,9.27715],[-79.81525,9.27707],[-79.81372,9.27789],[-79.81451,9.27984],[-79.81914,9.27721],[-79.81722,9.27853],[-79.81839,9.28344],[-79.81895,9.27858],[-79.82151,9.27716],[-79.81856,9.28371],[-79.82052,9.28082],[-79.8204,9.28372],[-79.82432,9.28339],[-79.82585,9.2859],[-79.82089,9.28426],[-79.82199,9.28728],[-79.81903,9.28631],[-79.81991,9.28878],[-79.81651,9.28947],[-79.81992,9.29146],[-79.81729,9.29153],[-79.81667,9.29267],[-79.82102,9.29234],[-79.82024,9.28977],[-79.82131,9.2886],[-79.82142,9.29412],[-79.82546,9.29529],[-79.82228,9.28841],[-79.82421,9.29021],[-79.82558,9.28804],[-79.82612,9.29305],[-79.82795,9.28914],[-79.82761,9.29912],[-79.82541,9.30425],[-79.82302,9.30301],[-79.82352,9.30596],[-79.82089,9.30533],[-79.82315,9.30199],[-79.82553,9.30061],[-79.82321,9.30067],[-79.82429,9.29839],[-79.82172,9.30266],[-79.81957,9.30202],[-79.82065,9.30403],[-79.81869,9.30291],[-79.81983,9.30646],[-79.8156,9.30429],[-79.81707,9.30904],[-79.8179,9.3072],[-79.8234,9.30881],[-79.82035,9.30868],[-79.8184,9.31004],[-79.81852,9.31295],[-79.82085,9.31253],[-79.81811,9.31836],[-79.81582,9.31325],[-79.81544,9.31766],[-79.81375,9.31438],[-79.80765,9.31881],[-79.80712,9.31555],[-79.80523,9.31622],[-79.80695,9.31935],[-79.80453,9.32431],[-79.80709,9.32005],[-79.81054,9.32238],[-79.81494,9.31949],[-79.81177,9.32632],[-79.80603,9.32702],[-79.80833,9.32763],[-79.81022,9.33405],[-79.81501,9.33818],[-79.81673,9.33564],[-79.81489,9.33585],[-79.81392,9.33438],[-79.81645,9.33447],[-79.80966,9.33171],[-79.81123,9.32748],[-79.81494,9.33248],[-79.81671,9.33193],[-79.81391,9.32955],[-79.81338,9.328],[-79.81832,9.33124],[-79.8158,9.32588],[-79.81946,9.32949],[-79.82143,9.32779],[-79.82566,9.32986],[-79.81951,9.3308],[-79.82147,9.33271],[-79.81903,9.33612],[-79.82363,9.33512],[-79.82185,9.33888],[-79.82004,9.33804],[-79.81927,9.33862],[-79.82206,9.33968],[-79.82473,9.33518],[-79.82685,9.33657],[-79.82891,9.33387],[-79.82826,9.33662],[-79.83018,9.33408],[-79.83145,9.33399],[-79.83102,9.33778],[-79.82556,9.3384],[-79.82165,9.34275],[-79.8195,9.34052],[-79.82015,9.34439],[-79.82481,9.34175],[-79.8225,9.34472],[-79.82603,9.34513],[-79.83613,9.33399],[-79.83499,9.32704],[-79.83737,9.32334],[-79.84547,9.32159],[-79.8432,9.32382],[-79.84562,9.32503],[-79.84183,9.32813],[-79.83886,9.32671],[-79.83825,9.33003],[-79.84369,9.32893],[-79.842,9.33079],[-79.84282,9.33184],[-79.84572,9.32778],[-79.84643,9.33268],[-79.84804,9.33285],[-79.84806,9.32335],[-79.85373,9.31951],[-79.85462,9.32157],[-79.85876,9.30981],[-79.86278,9.31111],[-79.8604,9.30536],[-79.86567,9.30864],[-79.86343,9.31816],[-79.86585,9.31375],[-79.86755,9.31503],[-79.86659,9.31768],[-79.86551,9.31804],[-79.86534,9.31902],[-79.86938,9.31506],[-79.86747,9.31009],[-79.87305,9.31175],[-79.86939,9.30338],[-79.87599,9.30395],[-79.87538,9.30009],[-79.87332,9.301],[-79.87169,9.29743],[-79.86893,9.29912],[-79.86766,9.29642],[-79.87288,9.29457],[-79.87084,9.29144],[-79.87573,9.29575],[-79.87882,9.29453],[-79.87779,9.28673],[-79.87565,9.28884],[-79.87214,9.28567],[-79.88481,9.28336],[-79.88236,9.27955],[-79.8781,9.2805],[-79.87958,9.27459],[-79.89096,9.27033],[-79.89866,9.26305],[-79.91447,9.26132],[-79.92314,9.26804],[-79.9226,9.27292],[-79.93204,9.2582],[-79.94263,9.25941],[-79.94051,9.2537],[-79.94958,9.23711],[-79.94243,9.24059],[-79.94199,9.23393],[-79.94619,9.23276],[-79.9387,9.23169],[-79.94687,9.22814],[-79.94489,9.22596],[-79.94716,9.22368],[-79.94473,9.223],[-79.95398,9.21637],[-79.95678,9.2107],[-79.95584,9.20332],[-79.96051,9.1967],[-79.95738,9.19143],[-79.95465,9.19323],[-79.95349,9.19079],[-79.95777,9.18709],[-79.95896,9.17617],[-79.96217,9.17717],[-79.96123,9.17198],[-79.95809,9.17056],[-79.96038,9.16355],[-79.96374,9.16225],[-79.96285,9.15729],[-79.95754,9.15706],[-79.9597,9.14367],[-79.96178,9.14652],[-79.9637,9.14571],[-79.96353,9.13996],[-79.96195,9.14022],[-79.96145,9.13954],[-79.96321,9.13822],[-79.96531,9.14073],[-79.9632,9.13537],[-79.96694,9.13539],[-79.96492,9.13189],[-79.96226,9.13346],[-79.96259,9.12792],[-79.96701,9.12969],[-79.97153,9.12095],[-79.97305,9.12501],[-79.96869,9.12814],[-79.97144,9.12927],[-79.97756,9.12653],[-79.97619,9.12221],[-79.97914,9.12174],[-79.97834,9.12601],[-79.98118,9.12471],[-79.98258,9.12923],[-79.97538,9.13158],[-79.98376,9.13317],[-79.98551,9.12759],[-79.98233,9.12265],[-79.9829,9.11783],[-79.98672,9.12407],[-79.9864,9.12132],[-79.98945,9.12573],[-79.99102,9.12373],[-79.98495,9.11699],[-79.98752,9.1181],[-79.9852,9.1128],[-79.99628,9.11974],[-79.99066,9.11225],[-79.99312,9.11162],[-79.9951,9.11541],[-79.99628,9.10976],[-79.99735,9.11512],[-79.99782,9.11146],[-80.00038,9.1132],[-79.99944,9.10877],[-80.00206,9.11189],[-80.00056,9.11636],[-80.00338,9.11325],[-80.00567,9.11434],[-80.00377,9.11706],[-80.006,9.11852],[-80.00331,9.11939],[-80.00764,9.12269],[-80.00793,9.11664],[-80.01154,9.11889],[-80.01832,9.11616],[-80.00875,9.11498],[-80.00797,9.11069],[-80.00478,9.10971],[-80.00708,9.10797],[-80.01105,9.11261],[-80.00956,9.10156],[-80.01237,9.10875],[-80.01328,9.10665],[-80.01356,9.11322],[-80.01682,9.11438],[-80.01477,9.107],[-80.01718,9.11097],[-80.0215,9.11344],[-80.01815,9.10882],[-80.02158,9.11155],[-80.0216,9.10785],[-80.02374,9.11058],[-80.02117,9.10586],[-80.02211,9.10419],[-80.02506,9.11026],[-80.02737,9.10857],[-80.0293,9.10434],[-80.0278,9.10372],[-80.0271,9.09898],[-80.03078,9.1069],[-80.03436,9.10483],[-80.03255,9.10387],[-80.03187,9.10223],[-80.03457,9.10363],[-80.03247,9.1012],[-80.03338,9.09662],[-80.03517,9.10249],[-80.03722,9.10038],[-80.03656,9.10424],[-80.04001,9.09801],[-80.04413,9.10154],[-80.04275,9.1042],[-80.04507,9.10126],[-80.03782,9.09058],[-80.03901,9.09213],[-80.04068,9.08981],[-80.04162,9.09458],[-80.04277,9.09061],[-80.04407,9.0942],[-80.04539,9.09503],[-80.04381,9.0909],[-80.04758,9.09001],[-80.03885,9.08807],[-80.04141,9.08749],[-80.03786,9.08642],[-80.03701,9.08343],[-80.0448,9.08722],[-80.03925,9.08257],[-80.04044,9.08026],[-80.04431,9.08327],[-80.04183,9.08012],[-80.04345,9.0765],[-80.04635,9.08537],[-80.04575,9.07946],[-80.04764,9.08237],[-80.04852,9.08271],[-80.04704,9.07866],[-80.05032,9.08471],[-80.05335,9.08482],[-80.04552,9.07391],[-80.05118,9.07525],[-80.04705,9.07298],[-80.0512,9.07236],[-80.04635,9.07004],[-80.05196,9.07111],[-80.05504,9.07528],[-80.05816,9.07514],[-80.05385,9.07157],[-80.05712,9.07113],[-80.04858,9.06771],[-80.05053,9.06495],[-80.05651,9.06571],[-80.05072,9.06293],[-80.04892,9.06501],[-80.04722,9.05945],[-80.04995,9.0619],[-80.05132,9.05958],[-80.04427,9.05654],[-80.04927,9.05555],[-80.05326,9.06109],[-80.06046,9.06508],[-80.05985,9.06222],[-80.05571,9.06133],[-80.05987,9.0599],[-80.05483,9.06031],[-80.05323,9.05637],[-80.06138,9.05804],[-80.06424,9.06045],[-80.06799,9.06113],[-80.07002,9.06299],[-80.07094,9.06277],[-80.06991,9.06148],[-80.06482,9.05971],[-80.06547,9.05784],[-80.0563,9.05486],[-80.06216,9.05623],[-80.06097,9.05286],[-80.0674,9.05588],[-80.06329,9.0525],[-80.06556,9.05252],[-80.06382,9.0472],[-80.06636,9.0507],[-80.06749,9.04846],[-80.06973,9.05144],[-80.07045,9.04875],[-80.07445,9.05077],[-80.06885,9.04393],[-80.07275,9.0432],[-80.0754,9.04902],[-80.07548,9.04208],[-80.07843,9.04584],[-80.07815,9.04173],[-80.08275,9.04131],[-80.07382,9.03719],[-80.07808,9.03714],[-80.07852,9.03256],[-80.07615,9.03539],[-80.0743,9.03484],[-80.07766,9.0319],[-80.08008,9.03291],[-80.07946,9.03608],[-80.08,9.03706],[-80.08119,9.03285],[-80.0832,9.03651],[-80.0852,9.03494],[-80.08568,9.03941],[-80.09199,9.0385],[-80.08743,9.03511],[-80.09194,9.03566],[-80.09132,9.02938],[-80.08697,9.03403],[-80.08275,9.03338],[-80.0843,9.03063],[-80.08029,9.03143],[-80.08012,9.02818],[-80.08406,9.02925],[-80.07999,9.02555],[-80.08726,9.02517],[-80.08715,9.02223],[-80.08318,9.0214],[-80.08742,9.02111],[-80.08782,9.01845],[-80.08385,9.01931],[-80.08407,9.01395],[-80.08288,9.01578],[-80.08102,9.01277],[-80.083,9.01779],[-80.07967,9.02136],[-80.07733,9.01788],[-80.07509,9.01654],[-80.07675,9.01162],[-80.07402,9.01643],[-80.07936,9.02405],[-80.07848,9.02548],[-80.07673,9.02447],[-80.07111,9.02689],[-80.07801,9.02618],[-80.07304,9.02856],[-80.07476,9.03049],[-80.07209,9.03303],[-80.06805,9.02955],[-80.06722,9.0335],[-80.06422,9.02916],[-80.06754,9.02659],[-80.06483,9.02512],[-80.05665,9.02742],[-80.06392,9.03537],[-80.05841,9.03498],[-80.06277,9.03919],[-80.06166,9.04127],[-80.05991,9.03898],[-80.0583,9.03931],[-80.05888,9.04359],[-80.0539,9.03872],[-80.05396,9.04316],[-80.05002,9.04079],[-80.05185,9.03696],[-80.05287,9.03762],[-80.05465,9.038],[-80.05518,9.03772],[-80.05215,9.03293],[-80.04973,9.0345],[-80.05147,9.02806],[-80.05067,9.02979],[-80.04652,9.03102],[-80.05054,9.02733],[-80.04864,9.02446],[-80.05308,9.02408],[-80.05045,9.02197],[-80.0478,9.02368],[-80.04983,9.01911],[-80.04639,9.02228],[-80.04778,9.0252],[-80.04282,9.02692],[-80.04242,9.02996],[-80.04083,9.02668],[-80.03928,9.02916],[-80.04029,9.02562],[-80.04271,9.02575],[-80.04394,9.02396],[-80.04151,9.02008],[-80.04455,9.02089],[-80.04488,9.01598],[-80.04726,9.01604],[-80.04247,9.0116],[-80.04509,9.00728],[-80.03892,9.00383],[-80.04195,9.00188],[-80.03993,8.99761],[-80.04305,8.99218],[-80.04145,8.99403],[-80.04242,8.99043],[-80.04081,8.98647],[-80.03962,8.99092],[-80.03952,8.98687],[-80.04174,8.98596],[-80.04435,8.98397],[-80.0454,8.97918],[-80.04415,8.98392],[-80.0407,8.98601],[-80.04206,8.98455],[-80.04089,8.98439],[-80.03878,8.97716],[-80.0393,8.97679],[-80.03968,8.97782],[-80.04061,8.97766],[-80.03947,8.97484],[-80.03839,8.9742],[-80.03879,8.98338],[-80.04034,8.98493],[-80.03768,8.98578],[-80.03949,8.99098],[-80.04136,8.99133],[-80.03899,8.99295],[-80.04137,8.99471],[-80.03985,8.99738],[-80.04003,9.00066],[-80.03983,9.00128],[-80.03754,9.00302],[-80.04269,9.01577],[-80.03848,9.0163],[-80.03724,9.02278],[-80.03667,9.01663],[-80.03095,9.01347],[-80.03408,9.0179],[-80.028,9.0185],[-80.02803,9.02652],[-80.03762,9.03669],[-80.03701,9.03931],[-80.04125,9.04018],[-80.03858,9.04219],[-80.04106,9.04848],[-80.03772,9.04743],[-80.0396,9.04506],[-80.0362,9.04536],[-80.03687,9.04171],[-80.03427,9.04476],[-80.03695,9.04856],[-80.03337,9.04656],[-80.0323,9.0485],[-80.03025,9.04177],[-80.03227,9.04122],[-80.03405,9.0382],[-80.03159,9.03731],[-80.02937,9.04261],[-80.02584,9.04283],[-80.02873,9.03435],[-80.02476,9.0411],[-80.02095,9.03756],[-80.02553,9.032],[-80.02009,9.03699],[-80.01779,9.03089],[-80.02029,9.0311],[-80.0226,9.02943],[-80.01562,9.0305],[-80.01881,9.0279],[-80.01592,9.02777],[-80.01529,9.02231],[-80.0197,9.02509],[-80.01728,9.02091],[-80.02506,9.02342],[-80.01957,9.01953],[-80.02235,9.01962],[-80.0206,9.01695],[-80.02642,9.01575],[-80.0263,9.01503],[-80.02053,9.01612],[-80.02277,9.0125],[-80.02253,9.01175],[-80.02004,9.0105],[-80.02241,9.01242],[-80.0165,9.01968],[-80.01659,9.01516],[-80.01286,9.01471],[-80.01096,9.01104],[-80.00706,9.00789],[-80.01211,9.01726],[-80.01454,9.01562],[-80.01547,9.01753],[-80.01405,9.02094],[-80.01076,9.02116],[-80.01373,9.02247],[-80.01167,9.02451],[-80.01712,9.03433],[-80.01513,9.0346],[-80.01982,9.03916],[-80.01553,9.04223],[-80.01806,9.04257],[-80.01772,9.04684],[-80.02117,9.04001],[-80.02334,9.0422],[-80.02232,9.04255],[-80.02307,9.04311],[-80.02125,9.04462],[-80.02135,9.04557],[-80.02393,9.04333],[-80.02554,9.04622],[-80.02247,9.05036],[-80.02739,9.04426],[-80.03062,9.04741],[-80.02552,9.05007],[-80.0251,9.05165],[-80.02991,9.04954],[-80.03172,9.05365],[-80.03229,9.05023],[-80.03339,9.05345],[-80.03657,9.0514],[-80.03477,9.05511],[-80.03517,9.05631],[-80.03619,9.0539],[-80.0394,9.05482],[-80.03689,9.05585],[-80.0385,9.0586],[-80.03487,9.05851],[-80.03984,9.06385],[-80.03649,9.06288],[-80.0368,9.0656],[-80.03446,9.06374],[-80.03637,9.07192],[-80.03506,9.06784],[-80.03234,9.06774],[-80.03403,9.07276],[-80.03156,9.07036],[-80.02971,9.07186],[-80.03271,9.07534],[-80.02975,9.07961],[-80.03098,9.076],[-80.03037,9.07425],[-80.02786,9.07241],[-80.03002,9.0759],[-80.02764,9.07741],[-80.02393,9.07238],[-80.02428,9.07443],[-80.02026,9.07369],[-80.02314,9.07022],[-80.02501,9.07149],[-80.02399,9.06977],[-80.03037,9.06938],[-80.03164,9.06194],[-80.03393,9.06228],[-80.03213,9.05689],[-80.02938,9.05899],[-80.03135,9.06026],[-80.02992,9.06641],[-80.02954,9.06644],[-80.02855,9.06506],[-80.02759,9.06456],[-80.02857,9.06869],[-80.02593,9.06911],[-80.02672,9.06739],[-80.02601,9.06592],[-80.02343,9.06874],[-80.02313,9.06404],[-80.0196,9.07136],[-80.01841,9.06672],[-80.01649,9.0729],[-80.01499,9.07023],[-80.01354,9.06994],[-80.01533,9.07472],[-80.01244,9.0732],[-80.01063,9.07549],[-80.01374,9.07883],[-80.01526,9.07599],[-80.01907,9.0788],[-80.01495,9.08019],[-80.0183,9.08173],[-80.01615,9.0856],[-80.01722,9.08255],[-80.01346,9.0811],[-80.01107,9.08462],[-80.00701,9.08259],[-80.00646,9.08807],[-80.00564,9.08462],[-79.99761,9.08433],[-79.99935,9.08919],[-79.99687,9.08934],[-79.99562,9.08486],[-79.99275,9.08661],[-79.99538,9.08771],[-79.99342,9.09067],[-79.98617,9.08852],[-79.99185,9.0871],[-79.98998,9.08232],[-79.99282,9.0859],[-79.99348,9.08535],[-79.99179,9.08059],[-79.99413,9.08416],[-79.99715,9.08304],[-79.99665,9.07882],[-80.00244,9.0839],[-80.00197,9.08153],[-80.00527,9.08252],[-80.00303,9.0787],[-80.0068,9.08193],[-80.00776,9.07765],[-80.01206,9.07983],[-80.00972,9.0763],[-80.00429,9.07533],[-80.00845,9.07526],[-80.00724,9.06918],[-80.01106,9.07133],[-80.00835,9.06679],[-80.01295,9.06927],[-80.01245,9.06601],[-80.01497,9.06789],[-80.01371,9.06525],[-80.01829,9.06439],[-80.01612,9.06196],[-80.01804,9.06235],[-80.02164,9.05969],[-80.02214,9.05749],[-80.0164,9.06134],[-80.01613,9.05785],[-80.01916,9.05651],[-80.01651,9.05541],[-80.01474,9.06287],[-80.00818,9.06465],[-80.01231,9.06206],[-80.01016,9.05807],[-80.0137,9.05637],[-80.01112,9.05544],[-80.01317,9.05383],[-80.00773,9.05518],[-80.01318,9.0494],[-80.00774,9.05209],[-80.00862,9.04831],[-80.00668,9.04804],[-80.01074,9.04573],[-80.00867,9.04364],[-80.00594,9.04607],[-80.00424,9.05428],[-80.00581,9.05806],[-80.00361,9.05733],[-80.00461,9.05071],[-80.00254,9.04895],[-80.00475,9.04803],[-79.99999,9.04603],[-80.00485,9.0464],[-80.00273,9.04265],[-80.00631,9.04505],[-80.00359,9.04065],[-80.00782,9.03967],[-80.0087,9.03777],[-80.0021,9.03801],[-80.0045,9.03665],[-80.00206,9.0349],[-80.00591,9.03573],[-80.00346,9.0324],[-80.00814,9.03143],[-80.00364,9.03086],[-80.00767,9.02651],[-80.00589,9.0249],[-80.00294,9.02907],[-80.00031,9.0266],[-80.00252,9.01886],[-79.99901,9.02033],[-80.00087,9.02354],[-79.99914,9.02429],[-80.00213,9.03235],[-79.99833,9.03306],[-80.00206,9.04065],[-79.99909,9.04328],[-79.99927,9.04044],[-79.99609,9.03691],[-79.99776,9.04662],[-79.99493,9.04402],[-79.99452,9.04766],[-79.9922,9.04824],[-79.99355,9.04587],[-79.99092,9.04595],[-79.99414,9.04252],[-79.99055,9.04005],[-79.99426,9.03973],[-79.98988,9.03903],[-79.99156,9.03636],[-79.98687,9.03927],[-79.98803,9.03491],[-79.99309,9.0347],[-79.99061,9.0328],[-79.99434,9.03107],[-79.99044,9.03013],[-79.9942,9.02882],[-79.99087,9.0264],[-79.99385,9.02155],[-79.99022,9.02449],[-79.98961,9.02886],[-79.98761,9.02411],[-79.99089,9.02056],[-79.98802,9.01946],[-79.99379,9.01752],[-79.98968,9.01731],[-79.99084,9.01419],[-79.98826,9.01783],[-79.98403,9.01572],[-79.98412,9.01111],[-79.98757,9.0078],[-79.98699,9.00672],[-79.98334,9.00924],[-79.98254,9.00704],[-79.98056,9.00704],[-79.983,9.0123],[-79.97982,9.01376],[-79.98288,9.01371],[-79.98592,9.02017],[-79.97968,9.01828],[-79.98151,9.02136],[-79.97989,9.0212],[-79.97814,9.02373],[-79.98502,9.02294],[-79.98284,9.02651],[-79.98489,9.02569],[-79.9866,9.02937],[-79.98331,9.02806],[-79.98123,9.02947],[-79.98735,9.03183],[-79.98332,9.03359],[-79.98566,9.03696],[-79.98249,9.03795],[-79.98518,9.03814],[-79.98601,9.0437],[-79.98126,9.04375],[-79.98346,9.0477],[-79.97957,9.04755],[-79.97816,9.04963],[-79.9804,9.05088],[-79.97433,9.05496],[-79.97638,9.04951],[-79.97397,9.04651],[-79.97129,9.04878],[-79.97064,9.04634],[-79.97578,9.04265],[-79.97582,9.03472],[-79.97895,9.03316],[-79.97549,9.03322],[-79.97744,9.03106],[-79.97453,9.0302],[-79.97737,9.02798],[-79.97459,9.0266],[-79.97387,9.0338],[-79.97091,9.03274],[-79.97241,9.03795],[-79.96979,9.03505],[-79.96933,9.03861],[-79.96648,9.03405],[-79.96705,9.04329],[-79.96563,9.03845],[-79.96265,9.03981],[-79.9632,9.03169],[-79.96066,9.0341],[-79.95941,9.03226],[-79.96028,9.02641],[-79.96178,9.02961],[-79.96482,9.02762],[-79.96524,9.0306],[-79.96704,9.02755],[-79.96891,9.03197],[-79.96827,9.02651],[-79.96474,9.02594],[-79.9668,9.02452],[-79.9649,9.0231],[-79.96716,9.02169],[-79.9695,9.02441],[-79.96907,9.02059],[-79.97326,9.02195],[-79.9671,9.01987],[-79.97308,9.01874],[-79.96741,9.01776],[-79.9699,9.01316],[-79.96677,9.01354],[-79.96782,9.01056],[-79.96745,9.00808],[-79.96653,9.00775],[-79.96561,9.01773],[-79.96093,9.02173],[-79.96332,9.0182],[-79.96188,9.00698],[-79.9639,8.99926],[-79.96611,8.99921],[-79.96314,8.99559],[-79.96635,8.99181],[-79.96917,8.99464],[-79.97146,8.99153],[-79.9749,8.993],[-79.97428,8.98723],[-79.97728,8.984],[-79.98251,8.98775],[-79.98355,8.98099],[-79.99095,8.97839],[-79.98761,8.97294],[-80.05544,8.96351]]],[[[-79.8463,9.30409],[-79.84068,9.30064],[-79.83723,9.30198],[-79.83114,9.29777],[-79.83247,9.2934],[-79.83869,9.29649],[-79.83955,9.28457],[-79.84607,9.28542],[-79.8472,9.27885],[-79.86196,9.2797],[-79.86075,9.28464],[-79.8579,9.28287],[-79.85535,9.28645],[-79.85282,9.28531],[-79.85174,9.29162],[-79.8475,9.29116],[-79.84674,9.29181],[-79.85358,9.29383],[-79.85422,9.28939],[-79.8621,9.28641],[-79.85668,9.29113],[-79.86064,9.291],[-79.85806,9.29536],[-79.86096,9.29735],[-79.85645,9.29728],[-79.85986,9.29914],[-79.85643,9.29953],[-79.85895,9.30276],[-79.8482,9.30216],[-79.84888,9.29906],[-79.84282,9.29986],[-79.8463,9.30409]]],[[[-79.85448,9.24971],[-79.84932,9.24309],[-79.84951,9.23703],[-79.84684,9.2392],[-79.84321,9.23336],[-79.84852,9.23607],[-79.84852,9.23235],[-79.85002,9.23413],[-79.85718,9.22877],[-79.85435,9.22528],[-79.85209,9.22652],[-79.85246,9.22342],[-79.84785,9.22303],[-79.8521,9.22206],[-79.84793,9.22126],[-79.85242,9.21383],[-79.8514,9.21026],[-79.85347,9.20806],[-79.85777,9.21161],[-79.85493,9.20746],[-79.85832,9.21015],[-79.86128,9.20614],[-79.85925,9.21184],[-79.86139,9.21241],[-79.86277,9.20794],[-79.86643,9.20838],[-79.86381,9.20526],[-79.86715,9.20189],[-79.86949,9.20759],[-79.8674,9.21457],[-79.86974,9.21753],[-79.8676,9.22324],[-79.87275,9.22452],[-79.87083,9.2319],[-79.87486,9.23806],[-79.87226,9.2399],[-79.86943,9.23411],[-79.86748,9.236],[-79.868,9.23388],[-79.86284,9.23137],[-79.86481,9.2334],[-79.86182,9.2357],[-79.85866,9.23084],[-79.85576,9.23099],[-79.85806,9.23508],[-79.85575,9.236],[-79.85825,9.23705],[-79.85644,9.2389],[-79.8594,9.23889],[-79.85806,9.2421],[-79.85546,9.24135],[-79.85667,9.24433],[-79.85395,9.24323],[-79.85772,9.24725],[-79.85407,9.24757],[-79.85448,9.24971]]]]}}]}