{"type":"FeatureCollection","features":[{"type":"Feature","properties":{"codigo":"3-2","provincia":"Colón","descripcion":"Chagres, Donoso, Portobelo, Santa Isabel y Omar Torrijos Herrera","diputados_a_elegir":1,"poblacion_electores_2022":34235,"bbox":[-80.87519,8.62421,-79.08086,9.63409]},"geometry":{"type":"MultiPolygon","coordinates":[[[[-79.65415,9.43171],[-79.65252,9.3935],[-79.65633,9.38519],[-79.65402,9.3809],[-79.66258,9.3676],[-79.70777,9.36545],[-79.70741,9.36877],[-79.72435,9.38925],[-79.73424,9.38877],[-79.73835,9.39242],[-79.75024,9.38192],[-79.7533,9.38549],[-79.75716,9.3825],[-79.76083,9.3951],[-79.76507,9.39198],[-79.77056,9.39337],[-79.77005,9.39556],[-79.7806,9.39697],[-79.77936,9.40081],[-79.78898,9.40698],[-79.78926,9.4112],[-79.79519,9.41006],[-79.79642,9.41324],[-79.8004,9.41281],[-79.80439,9.41641],[-79.80085,9.42281],[-79.79465,9.42623],[-79.79762,9.42689],[-79.79673,9.43038],[-79.79035,9.42849],[-79.79184,9.43555],[-79.78504,9.43554],[-79.78751,9.43814],[-79.78501,9.4415],[-79.78061,9.4402],[-79.77504,9.4434],[-79.77276,9.44094],[-79.77006,9.44505],[-79.7548,9.44345],[-79.74374,9.44775],[-79.74268,9.45355],[-79.73532,9.46022],[-79.73753,9.46732],[-79.73585,9.46966],[-79.72436,9.46993],[-79.72709,9.47421],[-79.72462,9.48395],[-79.72073,9.4811],[-79.71877,9.48575],[-79.71176,9.48566],[-79.70415,9.49567],[-79.69913,9.49597],[-79.69186,9.50178],[-79.6928,9.51052],[-79.68688,9.51689],[-79.68788,9.52177],[-79.68083,9.52881],[-79.6688,9.53384],[-79.67941,9.5449],[-79.65567,9.55453],[-79.65393,9.55784],[-79.65753,9.56196],[-79.65314,9.56274],[-79.65185,9.56983],[-79.64616,9.57423],[-79.64886,9.57515],[-79.64904,9.57266],[-79.65194,9.57003],[-79.65346,9.56779],[-79.65417,9.5646],[-79.6596,9.56884],[-79.65852,9.56295],[-79.67225,9.55723],[-79.67888,9.55863],[-79.67983,9.56242],[-79.68258,9.56259],[-79.68186,9.56674],[-79.67809,9.56402],[-79.67304,9.57129],[-79.66744,9.57226],[-79.66867,9.57785],[-79.66327,9.57928],[-79.66441,9.58391],[-79.65816,9.58308],[-79.65599,9.58811],[-79.65285,9.58888],[-79.65604,9.59363],[-79.64664,9.58993],[-79.64355,9.59595],[-79.63411,9.60023],[-79.63642,9.60834],[-79.62758,9.61062],[-79.6194,9.61721],[-79.60862,9.60895],[-79.60491,9.61064],[-79.60691,9.61358],[-79.60097,9.6147],[-79.5967,9.60981],[-79.60067,9.60989],[-79.59114,9.60865],[-79.58741,9.60392],[-79.58525,9.61047],[-79.58017,9.61192],[-79.57562,9.61868],[-79.57126,9.61961],[-79.56492,9.61542],[-79.56036,9.62632],[-79.53888,9.63409],[-79.54201,9.62515],[-79.53754,9.6231],[-79.53901,9.61738],[-79.52834,9.61447],[-79.53091,9.60755],[-79.52312,9.60847],[-79.53455,9.60419],[-79.53721,9.59794],[-79.54226,9.59802],[-79.54375,9.59335],[-79.52756,9.59197],[-79.52819,9.58614],[-79.52433,9.58454],[-79.52484,9.58028],[-79.52095,9.57767],[-79.51778,9.58686],[-79.51239,9.59098],[-79.50634,9.59237],[-79.49232,9.58723],[-79.4809,9.59128],[-79.47714,9.59015],[-79.47955,9.58737],[-79.47777,9.58366],[-79.47169,9.58297],[-79.46695,9.58606],[-79.46737,9.59243],[-79.46944,9.59251],[-79.46988,9.59315],[-79.46316,9.59834],[-79.46127,9.60442],[-79.45847,9.60432],[-79.45437,9.59754],[-79.45045,9.59977],[-79.44143,9.59826],[-79.43942,9.60387],[-79.43618,9.5947],[-79.43174,9.59337],[-79.42869,9.58819],[-79.43011,9.58704],[-79.42428,9.58829],[-79.41706,9.58735],[-79.4156,9.58403],[-79.39436,9.58301],[-79.38254,9.5769],[-79.37743,9.58184],[-79.37554,9.57755],[-79.3701,9.57788],[-79.36079,9.57334],[-79.34854,9.57541],[-79.34846,9.5796],[-79.33729,9.57558],[-79.32637,9.58074],[-79.30231,9.56525],[-79.29495,9.56448],[-79.29231,9.56694],[-79.29345,9.57048],[-79.28484,9.56591],[-79.28093,9.56889],[-79.26884,9.56249],[-79.26488,9.55657],[-79.26008,9.55924],[-79.2545,9.55453],[-79.25175,9.55588],[-79.24708,9.55146],[-79.22988,9.5451],[-79.21687,9.54565],[-79.21405,9.55009],[-79.21211,9.54403],[-79.19865,9.53992],[-79.19087,9.54194],[-79.17512,9.5556],[-79.16873,9.55727],[-79.15565,9.55082],[-79.15698,9.54697],[-79.16296,9.54518],[-79.1576,9.5407],[-79.156,9.54547],[-79.15007,9.54901],[-79.15435,9.55593],[-79.14947,9.55561],[-79.15037,9.55808],[-79.14274,9.56161],[-79.12768,9.55391],[-79.11765,9.55777],[-79.10417,9.55596],[-79.08829,9.56139],[-79.08086,9.55789],[-79.08202,9.46708],[-79.09054,9.46742],[-79.09278,9.47004],[-79.08976,9.47231],[-79.09059,9.47646],[-79.09419,9.4741],[-79.0931,9.47673],[-79.09658,9.47789],[-79.09533,9.47433],[-79.10892,9.4725],[-79.108,9.46885],[-79.11954,9.46359],[-79.12141,9.45911],[-79.1287,9.45891],[-79.13263,9.44959],[-79.13582,9.44974],[-79.13872,9.4422],[-79.14455,9.43848],[-79.14424,9.43302],[-79.15044,9.42525],[-79.14582,9.42065],[-79.14944,9.41791],[-79.15268,9.40595],[-79.15843,9.39769],[-79.15867,9.38677],[-79.16769,9.38224],[-79.16789,9.37982],[-79.17151,9.37903],[-79.1728,9.38138],[-79.17662,9.37849],[-79.17588,9.38094],[-79.18079,9.38191],[-79.18541,9.37983],[-79.18545,9.38347],[-79.19742,9.37986],[-79.20452,9.3739],[-79.21381,9.37161],[-79.22184,9.36173],[-79.22688,9.36462],[-79.22955,9.36187],[-79.23479,9.36274],[-79.23945,9.35554],[-79.24809,9.35196],[-79.25454,9.34414],[-79.25514,9.35059],[-79.24785,9.35962],[-79.24412,9.37939],[-79.25007,9.3834],[-79.25496,9.39276],[-79.26635,9.39364],[-79.26786,9.39894],[-79.27407,9.40223],[-79.26475,9.41619],[-79.26358,9.4229],[-79.27282,9.424],[-79.28106,9.418],[-79.28614,9.42121],[-79.28797,9.42726],[-79.29911,9.43035],[-79.30027,9.43669],[-79.30519,9.44135],[-79.31939,9.44179],[-79.32393,9.43895],[-79.32562,9.42766],[-79.33068,9.42404],[-79.33639,9.42423],[-79.3389,9.41618],[-79.34871,9.40944],[-79.35782,9.41192],[-79.36006,9.41999],[-79.36981,9.42152],[-79.37823,9.41736],[-79.38448,9.40722],[-79.40608,9.40862],[-79.41801,9.40125],[-79.41885,9.41146],[-79.40863,9.41462],[-79.3946,9.42499],[-79.39568,9.44219],[-79.40105,9.45239],[-79.39618,9.46018],[-79.40966,9.47113],[-79.40673,9.47807],[-79.39754,9.48349],[-79.39756,9.49222],[-79.41276,9.49958],[-79.42783,9.49775],[-79.43109,9.49168],[-79.43885,9.49761],[-79.44339,9.49437],[-79.45293,9.49946],[-79.46078,9.49725],[-79.46475,9.49478],[-79.46568,9.49003],[-79.46958,9.49176],[-79.48235,9.48375],[-79.48665,9.47677],[-79.49843,9.4806],[-79.4993,9.48749],[-79.50135,9.48375],[-79.5122,9.48646],[-79.51462,9.47868],[-79.53642,9.47496],[-79.5361,9.46219],[-79.53965,9.46692],[-79.54637,9.46767],[-79.54879,9.47289],[-79.5624,9.47873],[-79.58719,9.46575],[-79.59408,9.47332],[-79.59793,9.47156],[-79.59483,9.46998],[-79.60235,9.45818],[-79.61354,9.45018],[-79.61182,9.44818],[-79.6151,9.44553],[-79.62014,9.45163],[-79.62684,9.44759],[-79.63008,9.44998],[-79.63217,9.44819],[-79.63227,9.45326],[-79.63892,9.44594],[-79.63875,9.45155],[-79.64286,9.45275],[-79.64578,9.45022],[-79.64645,9.45548],[-79.64923,9.45546],[-79.65154,9.44358],[-79.6424,9.43848],[-79.64763,9.43486],[-79.64781,9.4316],[-79.65415,9.43171]]],[[[-80.62383,8.77575],[-80.62573,8.78264],[-80.62182,8.78417],[-80.62415,8.78714],[-80.63149,8.78294],[-80.63385,8.78707],[-80.64186,8.78435],[-80.64545,8.78768],[-80.64864,8.78458],[-80.65348,8.78957],[-80.65296,8.78647],[-80.65596,8.78766],[-80.65343,8.77956],[-80.65556,8.77676],[-80.67826,8.76722],[-80.68335,8.76102],[-80.69148,8.76042],[-80.69239,8.748],[-80.68621,8.7408],[-80.69051,8.7377],[-80.68953,8.73174],[-80.69895,8.72164],[-80.69914,8.71752],[-80.70716,8.71245],[-80.70965,8.69176],[-80.70538,8.67244],[-80.69551,8.66805],[-80.69429,8.65146],[-80.71718,8.64631],[-80.72441,8.62421],[-80.75288,8.62833],[-80.74522,8.63102],[-80.73034,8.64293],[-80.73092,8.6635],[-80.73779,8.67458],[-80.74984,8.67506],[-80.74914,8.68362],[-80.75676,8.69358],[-80.76051,8.70789],[-80.75513,8.7185],[-80.75123,8.71745],[-80.74898,8.72201],[-80.73008,8.72675],[-80.72518,8.73041],[-80.72917,8.73187],[-80.72806,8.73894],[-80.73425,8.74138],[-80.73369,8.74779],[-80.7381,8.74904],[-80.74256,8.75871],[-80.74895,8.75985],[-80.75308,8.76445],[-80.75257,8.7678],[-80.75582,8.76714],[-80.75547,8.77426],[-80.76017,8.77391],[-80.76192,8.77952],[-80.76584,8.77698],[-80.76864,8.78128],[-80.76647,8.78847],[-80.77387,8.79227],[-80.77637,8.79744],[-80.7795,8.79528],[-80.78572,8.79739],[-80.80279,8.79183],[-80.80689,8.80113],[-80.81284,8.79748],[-80.81775,8.80511],[-80.8215,8.80402],[-80.82992,8.8083],[-80.8315,8.81514],[-80.82539,8.81687],[-80.83104,8.82028],[-80.83603,8.81714],[-80.84297,8.8178],[-80.84496,8.8232],[-80.85182,8.82475],[-80.85248,8.83016],[-80.86092,8.83168],[-80.86777,8.84037],[-80.86475,8.84667],[-80.87519,8.85611],[-80.87025,8.87951],[-80.87191,8.88333],[-80.86684,8.8863],[-80.85223,8.8852],[-80.83988,8.88786],[-80.82354,8.8947],[-80.82093,8.90418],[-80.80867,8.91123],[-80.80676,8.91726],[-80.79966,8.91995],[-80.78551,8.94399],[-80.76637,8.95469],[-80.76077,8.96333],[-80.75941,8.97568],[-80.7313,8.99565],[-80.73093,8.99845],[-80.7255,8.99746],[-80.70264,9.00292],[-80.69658,9.0073],[-80.69405,9.02091],[-80.67444,9.02523],[-80.66919,9.03296],[-80.65944,9.03686],[-80.6553,9.04198],[-80.63843,9.05148],[-80.61216,9.06018],[-80.60907,9.065],[-80.60078,9.06697],[-80.59665,9.07187],[-80.57632,9.07981],[-80.57203,9.0771],[-80.5663,9.07868],[-80.56282,9.0856],[-80.55015,9.08831],[-80.54805,9.09331],[-80.53207,9.09815],[-80.53111,9.10421],[-80.50965,9.10841],[-80.49537,9.11725],[-80.47547,9.11484],[-80.46471,9.11688],[-80.46115,9.12094],[-80.46253,9.12314],[-80.45707,9.12529],[-80.44148,9.12538],[-80.43672,9.12897],[-80.42311,9.13117],[-80.40895,9.14389],[-80.35832,9.14362],[-80.35542,9.14817],[-80.33872,9.15521],[-80.32159,9.15805],[-80.29461,9.15592],[-80.28571,9.16214],[-80.28314,9.16821],[-80.27021,9.16706],[-80.24739,9.17047],[-80.23814,9.18386],[-80.20738,9.18861],[-80.20065,9.19105],[-80.19819,9.19495],[-80.17606,9.19388],[-80.17343,9.19849],[-80.15988,9.19936],[-80.15068,9.2084],[-80.1294,9.20948],[-80.12099,9.21831],[-80.11095,9.21994],[-80.09116,9.22962],[-80.08574,9.23348],[-80.08827,9.23721],[-80.07994,9.24794],[-80.07012,9.25624],[-80.06618,9.26359],[-80.04894,9.27706],[-80.04486,9.28442],[-80.03683,9.27837],[-80.03496,9.2821],[-80.03153,9.28121],[-80.03129,9.28587],[-80.02706,9.28507],[-80.02583,9.28101],[-80.0239,9.28321],[-80.02146,9.2817],[-80.01308,9.29267],[-79.99593,9.28135],[-79.99714,9.20997],[-79.9865,9.17405],[-80.01086,9.1702],[-80.01865,9.18081],[-80.01128,9.19023],[-80.01716,9.1929],[-80.01978,9.19117],[-80.02224,9.19603],[-80.03686,9.18338],[-80.03171,9.18067],[-80.02438,9.16905],[-80.028,9.16352],[-80.02687,9.15987],[-80.03198,9.15761],[-80.03169,9.15128],[-80.0356,9.14957],[-80.04388,9.11189],[-80.05091,9.10755],[-80.04947,9.10008],[-80.05543,9.09664],[-80.05462,9.08888],[-80.06625,9.08536],[-80.06895,9.07876],[-80.07864,9.0738],[-80.08604,9.07431],[-80.08887,9.07153],[-80.10595,9.06836],[-80.10919,9.06318],[-80.09777,9.04881],[-80.1066,9.03061],[-80.10084,9.02121],[-80.10483,9.01748],[-80.08689,8.99678],[-80.13223,8.96579],[-80.14033,8.94856],[-80.14563,8.95127],[-80.14573,8.95729],[-80.15432,8.96205],[-80.15246,8.96625],[-80.16072,8.96245],[-80.16319,8.96896],[-80.16776,8.96777],[-80.16644,8.97154],[-80.17555,8.96868],[-80.1759,8.97479],[-80.17111,8.98319],[-80.17296,8.98491],[-80.17706,8.98258],[-80.18132,8.98715],[-80.17712,8.99203],[-80.18116,8.99508],[-80.17703,8.99763],[-80.18454,9.00896],[-80.18178,9.01545],[-80.18517,9.01904],[-80.17843,9.02663],[-80.17968,9.03125],[-80.18437,9.0337],[-80.18308,9.0409],[-80.18919,9.04046],[-80.18979,9.04628],[-80.19493,9.05013],[-80.19491,9.05795],[-80.19933,9.05661],[-80.20578,9.0463],[-80.20369,9.03347],[-80.20718,9.02395],[-80.20459,9.01983],[-80.20954,9.01203],[-80.21041,9.00053],[-80.21415,8.99264],[-80.21814,8.9918],[-80.22116,8.98015],[-80.23116,8.97884],[-80.23368,8.98974],[-80.23939,8.9875],[-80.3659,8.86148],[-80.36755,8.87141],[-80.37229,8.87234],[-80.37681,8.87959],[-80.38803,8.88197],[-80.41109,8.87991],[-80.41301,8.88494],[-80.41654,8.88372],[-80.42155,8.88838],[-80.43378,8.89018],[-80.43499,8.89459],[-80.43994,8.89608],[-80.43906,8.89929],[-80.45737,8.91518],[-80.46269,8.91142],[-80.46587,8.91462],[-80.48393,8.91202],[-80.49768,8.92296],[-80.50306,8.91792],[-80.50539,8.92412],[-80.50852,8.92072],[-80.51202,8.92169],[-80.51115,8.92542],[-80.51462,8.92915],[-80.51962,8.926],[-80.52808,8.92849],[-80.53329,8.9359],[-80.53106,8.94012],[-80.53516,8.94154],[-80.54581,8.93573],[-80.54201,8.93061],[-80.54951,8.93382],[-80.54966,8.92534],[-80.54365,8.92038],[-80.54793,8.91667],[-80.54777,8.90993],[-80.55344,8.90725],[-80.5509,8.89546],[-80.5564,8.89406],[-80.55253,8.88743],[-80.5589,8.88766],[-80.56189,8.88488],[-80.56069,8.87994],[-80.55609,8.87712],[-80.55627,8.87204],[-80.5459,8.87777],[-80.55012,8.86622],[-80.54263,8.86332],[-80.54622,8.85968],[-80.54291,8.8468],[-80.54616,8.83971],[-80.54273,8.83642],[-80.54445,8.82912],[-80.54076,8.81732],[-80.54799,8.8113],[-80.54942,8.80576],[-80.55379,8.80824],[-80.55634,8.80505],[-80.55139,8.80188],[-80.5535,8.79947],[-80.54785,8.79008],[-80.55483,8.79348],[-80.62383,8.77575]]]]}}]}