{"type":"FeatureCollection","features":[{"type":"Feature","properties":{"codigo":"4-1","provincia":"Chiriquí","descripcion":"Distrito de David","diputados_a_elegir":3,"poblacion_electores_2022":118274,"bbox":[-82.55923,8.08672,-82.20468,8.77027]},"geometry":{"type":"MultiPolygon","coordinates":[[[[-82.34089,8.32106],[-82.33749,8.31426],[-82.35069,8.28924],[-82.3583,8.29311],[-82.37862,8.29042],[-82.39116,8.29346],[-82.40522,8.28644],[-82.41735,8.28524],[-82.41984,8.2919],[-82.43735,8.29931],[-82.43699,8.30563],[-82.44259,8.31765],[-82.44761,8.31712],[-82.45137,8.313],[-82.44948,8.30992],[-82.45233,8.30613],[-82.45851,8.30939],[-82.45887,8.30641],[-82.46903,8.31485],[-82.46892,8.32134],[-82.47353,8.31933],[-82.47664,8.32246],[-82.47401,8.32665],[-82.4799,8.33193],[-82.47341,8.34168],[-82.47922,8.34309],[-82.48365,8.35054],[-82.48959,8.34944],[-82.49037,8.36198],[-82.50377,8.36212],[-82.50764,8.36748],[-82.50626,8.38107],[-82.507,8.38929],[-82.5116,8.39683],[-82.51032,8.40055],[-82.51549,8.40295],[-82.53446,8.40083],[-82.52684,8.40454],[-82.5245,8.41232],[-82.52548,8.42804],[-82.53452,8.45341],[-82.51902,8.46642],[-82.52308,8.46761],[-82.5202,8.48279],[-82.52229,8.49152],[-82.53002,8.5],[-82.5279,8.50404],[-82.53199,8.50837],[-82.5245,8.51369],[-82.52532,8.53337],[-82.52322,8.53852],[-82.52577,8.54076],[-82.5232,8.55049],[-82.52546,8.57326],[-82.52973,8.5825],[-82.52964,8.59431],[-82.53476,8.60802],[-82.53588,8.64057],[-82.55923,8.77027],[-82.53463,8.74714],[-82.53784,8.73743],[-82.53587,8.72203],[-82.53881,8.71235],[-82.53516,8.70085],[-82.5383,8.6937],[-82.5294,8.67371],[-82.53075,8.67033],[-82.52494,8.6609],[-82.52817,8.65732],[-82.52623,8.6565],[-82.52692,8.64797],[-82.5147,8.63269],[-82.51603,8.62736],[-82.50891,8.61774],[-82.50971,8.609],[-82.49881,8.59411],[-82.4955,8.58138],[-82.49139,8.57856],[-82.49185,8.57391],[-82.4834,8.56742],[-82.47805,8.55574],[-82.46345,8.54388],[-82.4566,8.53175],[-82.45279,8.53052],[-82.45245,8.52657],[-82.44629,8.52134],[-82.45053,8.50107],[-82.44053,8.49776],[-82.43578,8.49174],[-82.43755,8.48836],[-82.43549,8.48423],[-82.42782,8.48339],[-82.42673,8.47907],[-82.41982,8.48267],[-82.41001,8.47373],[-82.41057,8.47759],[-82.40608,8.48282],[-82.40946,8.49266],[-82.40505,8.50198],[-82.40672,8.50568],[-82.39853,8.51009],[-82.3871,8.50756],[-82.38119,8.49297],[-82.37435,8.49471],[-82.36533,8.48864],[-82.36784,8.49332],[-82.3667,8.49865],[-82.37264,8.50263],[-82.36898,8.51539],[-82.37469,8.52287],[-82.3744,8.5327],[-82.38343,8.54044],[-82.39209,8.56207],[-82.40323,8.57456],[-82.41353,8.59472],[-82.39741,8.60605],[-82.39096,8.60636],[-82.37981,8.62033],[-82.39502,8.63283],[-82.393,8.64199],[-82.39618,8.64649],[-82.39547,8.64803],[-82.37369,8.6186],[-82.36679,8.61524],[-82.35673,8.61936],[-82.35313,8.61731],[-82.35092,8.61136],[-82.34104,8.602],[-82.34161,8.59787],[-82.33296,8.58555],[-82.32448,8.57736],[-82.32308,8.57281],[-82.32619,8.56026],[-82.32224,8.5508],[-82.322,8.53348],[-82.31682,8.52925],[-82.31408,8.51411],[-82.30758,8.51092],[-82.3085,8.50582],[-82.30137,8.49887],[-82.30322,8.48367],[-82.2927,8.47555],[-82.2841,8.45788],[-82.28459,8.45232],[-82.29069,8.44827],[-82.29389,8.4403],[-82.29982,8.43508],[-82.29284,8.43434],[-82.29253,8.43918],[-82.28883,8.44175],[-82.28678,8.43311],[-82.27876,8.43419],[-82.27295,8.43866],[-82.26477,8.43313],[-82.26386,8.42911],[-82.26009,8.43057],[-82.25377,8.42623],[-82.24702,8.43214],[-82.24322,8.42702],[-82.23851,8.42653],[-82.20468,8.42819],[-82.20904,8.42282],[-82.22147,8.41897],[-82.22286,8.4099],[-82.21395,8.40056],[-82.21394,8.38956],[-82.20874,8.3867],[-82.2117,8.3799],[-82.2093,8.37788],[-82.21938,8.37274],[-82.21735,8.36592],[-82.22453,8.35355],[-82.22268,8.34845],[-82.23478,8.33696],[-82.237,8.32713],[-82.24079,8.32565],[-82.23776,8.31939],[-82.24104,8.31713],[-82.24638,8.30043],[-82.25831,8.29478],[-82.26681,8.29603],[-82.26953,8.29005],[-82.28534,8.30619],[-82.29463,8.31025],[-82.30497,8.31003],[-82.3078,8.31723],[-82.30611,8.32178],[-82.30959,8.32527],[-82.32654,8.32942],[-82.33133,8.32348],[-82.33768,8.32411],[-82.34089,8.32106]]],[[[-82.33109,8.31725],[-82.31279,8.31141],[-82.30681,8.29619],[-82.29526,8.28637],[-82.30047,8.2829],[-82.31194,8.28799],[-82.32602,8.28769],[-82.33539,8.29135],[-82.33933,8.30557],[-82.33109,8.31725]]],[[[-82.35828,8.27968],[-82.34357,8.26648],[-82.3506,8.26171],[-82.3444,8.25901],[-82.34795,8.25443],[-82.3429,8.25582],[-82.34174,8.25898],[-82.31742,8.24946],[-82.31585,8.24606],[-82.32856,8.24753],[-82.33018,8.24386],[-82.32379,8.23953],[-82.32884,8.23477],[-82.35195,8.2347],[-82.3537,8.23653],[-82.35037,8.23708],[-82.35632,8.23765],[-82.37374,8.23475],[-82.37568,8.23353],[-82.37357,8.22953],[-82.38667,8.22509],[-82.39029,8.21977],[-82.43121,8.25361],[-82.43315,8.25774],[-82.43113,8.26075],[-82.42184,8.25709],[-82.40611,8.25976],[-82.40275,8.25746],[-82.40039,8.26237],[-82.38845,8.26877],[-82.38557,8.27544],[-82.38022,8.27411],[-82.37822,8.27056],[-82.37465,8.27795],[-82.36752,8.27221],[-82.35828,8.27968]]],[[[-82.32145,8.14182],[-82.3235,8.13885],[-82.31924,8.13843],[-82.31865,8.13596],[-82.3237,8.13416],[-82.32117,8.1301],[-82.32649,8.13003],[-82.32943,8.12281],[-82.32452,8.11738],[-82.32757,8.1155],[-82.32767,8.11119],[-82.31894,8.10509],[-82.32224,8.10439],[-82.33229,8.11123],[-82.33417,8.11005],[-82.32929,8.1067],[-82.33634,8.10745],[-82.33034,8.10395],[-82.32645,8.09315],[-82.33062,8.0959],[-82.3426,8.09639],[-82.3396,8.09039],[-82.34447,8.08672],[-82.3451,8.09259],[-82.34933,8.09412],[-82.35196,8.09316],[-82.3511,8.09113],[-82.35293,8.09016],[-82.35186,8.09204],[-82.35681,8.09416],[-82.35555,8.09734],[-82.3581,8.09842],[-82.36138,8.09892],[-82.36709,8.09058],[-82.3698,8.09846],[-82.3653,8.10005],[-82.36572,8.10363],[-82.36267,8.10519],[-82.36473,8.11217],[-82.34534,8.11885],[-82.34419,8.12224],[-82.34779,8.1258],[-82.34619,8.13396],[-82.33698,8.1375],[-82.3369,8.13331],[-82.32145,8.14182]]],[[[-82.37334,8.28947],[-82.35313,8.28513],[-82.34711,8.28876],[-82.34182,8.28645],[-82.33836,8.28863],[-82.33146,8.28264],[-82.32459,8.28335],[-82.31935,8.27789],[-82.32004,8.26936],[-82.32971,8.25674],[-82.34138,8.26143],[-82.34221,8.26831],[-82.34962,8.27676],[-82.35829,8.28116],[-82.36535,8.27768],[-82.37417,8.2883],[-82.38104,8.28564],[-82.39591,8.2683],[-82.41055,8.26226],[-82.41755,8.26394],[-82.4212,8.27404],[-82.39738,8.27881],[-82.39393,8.28694],[-82.38756,8.28559],[-82.37334,8.28947]]]]}}]}