{"type":"FeatureCollection","features":[{"type":"Feature","properties":{"codigo":"4-2","provincia":"Chiriquí","descripcion":"Distrito de Barú","diputados_a_elegir":1,"poblacion_electores_2022":47286,"bbox":[-83.05206,8.0303,-82.70267,8.59417]},"geometry":{"type":"Polygon","coordinates":[[[-82.8732,8.20338],[-82.87672,8.15118],[-82.87142,8.13052],[-82.87338,8.11987],[-82.857,8.0915],[-82.85642,8.08069],[-82.85221,8.07213],[-82.85777,8.05898],[-82.86839,8.05185],[-82.86666,8.03621],[-82.87462,8.0303],[-82.90343,8.04023],[-82.89089,8.05182],[-82.89515,8.05497],[-82.89603,8.06487],[-82.89042,8.07355],[-82.88766,8.07385],[-82.8883,8.0769],[-82.88351,8.07924],[-82.89033,8.0955],[-82.88607,8.1083],[-82.89852,8.12411],[-82.90409,8.136],[-82.90294,8.13883],[-82.90781,8.14314],[-82.91033,8.15269],[-82.90889,8.16226],[-82.91404,8.16327],[-82.91391,8.16961],[-82.91826,8.17217],[-82.91749,8.18004],[-82.92119,8.18189],[-82.92007,8.19093],[-82.92658,8.19084],[-82.92498,8.2074],[-82.93613,8.21056],[-82.93023,8.23008],[-82.93219,8.23128],[-82.93038,8.24078],[-82.93803,8.25204],[-82.93819,8.26247],[-82.9421,8.27303],[-82.9513,8.26719],[-82.95751,8.28123],[-82.96307,8.2776],[-82.96851,8.27877],[-82.97085,8.28474],[-82.97601,8.28818],[-82.98043,8.28629],[-82.98268,8.27792],[-82.9897,8.27123],[-82.99883,8.28693],[-83.0041,8.28896],[-83.00476,8.29649],[-83.02445,8.30534],[-83.02541,8.3106],[-83.02287,8.31173],[-83.02753,8.3142],[-83.02755,8.31704],[-83.04514,8.3175],[-83.04437,8.3226],[-83.05137,8.32841],[-83.05206,8.33661],[-83.0464,8.33476],[-83.04764,8.34226],[-83.02888,8.35238],[-83.01971,8.35122],[-83.01717,8.35619],[-83.00823,8.35645],[-83.00411,8.35943],[-83.00549,8.3618],[-83.00216,8.36573],[-82.99665,8.36755],[-82.98959,8.37586],[-82.98399,8.37254],[-82.98353,8.37616],[-82.96927,8.38629],[-82.96674,8.39793],[-82.95594,8.40772],[-82.95356,8.414],[-82.93567,8.42371],[-82.9311,8.43502],[-82.9142,8.42826],[-82.86851,8.43956],[-82.83948,8.48017],[-82.83182,8.50443],[-82.83409,8.50759],[-82.83326,8.52372],[-82.83767,8.52962],[-82.83981,8.54628],[-82.8224,8.56723],[-82.82702,8.58275],[-82.82479,8.58769],[-82.83423,8.59125],[-82.83334,8.59417],[-82.82938,8.59408],[-82.8136,8.5874],[-82.81115,8.58386],[-82.80527,8.58341],[-82.80066,8.57877],[-82.80273,8.57165],[-82.83063,8.55257],[-82.83673,8.54274],[-82.83181,8.53578],[-82.833,8.52577],[-82.82812,8.52211],[-82.82564,8.51262],[-82.82632,8.48836],[-82.82425,8.48419],[-82.82657,8.46896],[-82.83055,8.46751],[-82.82899,8.45419],[-82.82405,8.45453],[-82.8182,8.45026],[-82.82533,8.44481],[-82.81422,8.44176],[-82.81129,8.44715],[-82.80467,8.44057],[-82.80589,8.43597],[-82.79868,8.4391],[-82.79634,8.43345],[-82.79222,8.4347],[-82.79233,8.43973],[-82.78987,8.43912],[-82.78836,8.42964],[-82.78296,8.42938],[-82.78204,8.42461],[-82.78484,8.42087],[-82.77453,8.41401],[-82.77794,8.41147],[-82.778,8.40638],[-82.77419,8.4064],[-82.7783,8.40034],[-82.77299,8.39879],[-82.77347,8.38431],[-82.75961,8.3807],[-82.75527,8.37041],[-82.73886,8.36677],[-82.74043,8.36189],[-82.73466,8.36128],[-82.72842,8.35471],[-82.71955,8.35311],[-82.71718,8.34481],[-82.70797,8.34758],[-82.70898,8.3393],[-82.70267,8.33017],[-82.71076,8.3245],[-82.73065,8.32345],[-82.75527,8.31467],[-82.78605,8.30963],[-82.80678,8.29943],[-82.82587,8.29712],[-82.84236,8.29046],[-82.84722,8.28254],[-82.85685,8.27585],[-82.87388,8.2443],[-82.87758,8.21823],[-82.87624,8.20631],[-82.8732,8.20338]]]}}]}