{"type":"FeatureCollection","features":[{"type":"Feature","properties":{"codigo":"4-3","provincia":"Chiriquí","descripcion":"Bugaba y Tierras Altas","diputados_a_elegir":2,"poblacion_electores_2022":64982,"bbox":[-82.83667,8.43559,-82.54297,8.91741]},"geometry":{"type":"Polygon","coordinates":[[[-82.7003,8.45426],[-82.72401,8.4585],[-82.7985,8.44367],[-82.79832,8.43893],[-82.80483,8.43559],[-82.80467,8.44057],[-82.81129,8.44715],[-82.81404,8.4418],[-82.8243,8.4437],[-82.82505,8.44634],[-82.8182,8.45026],[-82.82405,8.45453],[-82.82901,8.45429],[-82.83055,8.46751],[-82.82657,8.46896],[-82.82425,8.48419],[-82.82632,8.48836],[-82.82566,8.51276],[-82.82812,8.52211],[-82.833,8.52577],[-82.83181,8.53578],[-82.83667,8.54299],[-82.83075,8.55245],[-82.80958,8.56874],[-82.80014,8.57552],[-82.79571,8.57335],[-82.78813,8.584],[-82.78897,8.59057],[-82.78325,8.59044],[-82.78053,8.59829],[-82.76969,8.60107],[-82.76805,8.60602],[-82.76011,8.6029],[-82.75772,8.59658],[-82.74818,8.59451],[-82.74755,8.59167],[-82.74502,8.59767],[-82.74963,8.60405],[-82.74827,8.6191],[-82.73508,8.65078],[-82.73863,8.65925],[-82.73857,8.66923],[-82.73184,8.6761],[-82.73096,8.69627],[-82.72234,8.69988],[-82.72493,8.70685],[-82.72158,8.71197],[-82.71217,8.71262],[-82.71204,8.7164],[-82.70063,8.71789],[-82.69947,8.72237],[-82.69732,8.72131],[-82.68443,8.74584],[-82.68969,8.77011],[-82.69272,8.77225],[-82.69175,8.77591],[-82.69521,8.77644],[-82.70109,8.78641],[-82.70606,8.78844],[-82.71034,8.80855],[-82.71403,8.80858],[-82.71429,8.81176],[-82.72712,8.81885],[-82.73878,8.80826],[-82.74174,8.81025],[-82.74065,8.81955],[-82.73587,8.82361],[-82.7372,8.83657],[-82.73088,8.83988],[-82.72531,8.85034],[-82.7224,8.86245],[-82.72411,8.87064],[-82.71579,8.87468],[-82.71118,8.88145],[-82.70624,8.89102],[-82.7011,8.91389],[-82.69478,8.90538],[-82.69339,8.89764],[-82.67218,8.90361],[-82.67032,8.90655],[-82.6615,8.9054],[-82.65605,8.9086],[-82.64588,8.90454],[-82.64059,8.89909],[-82.6366,8.90599],[-82.63025,8.91002],[-82.62803,8.91741],[-82.62412,8.9158],[-82.62587,8.91056],[-82.61821,8.90588],[-82.60026,8.90817],[-82.59316,8.91315],[-82.58597,8.90881],[-82.5661,8.90786],[-82.54301,8.88663],[-82.54297,8.80931],[-82.58319,8.78764],[-82.58292,8.80087],[-82.58639,8.80914],[-82.59188,8.81009],[-82.60546,8.80408],[-82.61066,8.79784],[-82.6081,8.7925],[-82.61278,8.77492],[-82.6199,8.77095],[-82.62235,8.76267],[-82.61922,8.75475],[-82.62303,8.73399],[-82.62055,8.71915],[-82.61077,8.6891],[-82.60586,8.68442],[-82.60737,8.67941],[-82.60311,8.6685],[-82.60456,8.66196],[-82.59721,8.65015],[-82.59734,8.63947],[-82.59175,8.62633],[-82.59156,8.61951],[-82.59473,8.6162],[-82.59602,8.58334],[-82.61175,8.54357],[-82.60438,8.52195],[-82.60738,8.51603],[-82.6048,8.49532],[-82.60837,8.4783],[-82.6115,8.47448],[-82.61173,8.46482],[-82.6166,8.46161],[-82.61654,8.4546],[-82.62323,8.4477],[-82.63102,8.4565],[-82.6478,8.45901],[-82.66172,8.45561],[-82.67249,8.46338],[-82.68514,8.45844],[-82.68597,8.44926],[-82.68789,8.45122],[-82.70023,8.44838],[-82.7003,8.45426]]]}}]}