{"type":"FeatureCollection","features":[{"type":"Feature","properties":{"codigo":"4-4","provincia":"Chiriquí","descripcion":"Alanje, Boquerón y Renacimiento","diputados_a_elegir":1,"poblacion_electores_2022":42804,"bbox":[-82.9203,8.26988,-82.45472,8.92234]},"geometry":{"type":"MultiPolygon","coordinates":[[[[-82.48235,8.26988],[-82.65744,8.3275],[-82.67698,8.32916],[-82.6865,8.33275],[-82.68909,8.32977],[-82.69992,8.32747],[-82.70887,8.339],[-82.70797,8.34758],[-82.71718,8.34481],[-82.71955,8.35311],[-82.72842,8.35471],[-82.73466,8.36128],[-82.74043,8.36189],[-82.73886,8.36677],[-82.75527,8.37041],[-82.75961,8.3807],[-82.77347,8.38431],[-82.77299,8.39879],[-82.7783,8.40034],[-82.77419,8.4064],[-82.778,8.40638],[-82.77794,8.41147],[-82.77462,8.41421],[-82.78484,8.42087],[-82.78204,8.42461],[-82.78296,8.42938],[-82.78836,8.42964],[-82.78987,8.43912],[-82.79275,8.43922],[-82.79256,8.43431],[-82.79745,8.43425],[-82.79892,8.44321],[-82.72401,8.4585],[-82.7003,8.45426],[-82.70023,8.44838],[-82.68789,8.45122],[-82.68597,8.44926],[-82.68514,8.45844],[-82.67249,8.46338],[-82.66172,8.45561],[-82.6478,8.45901],[-82.63102,8.4565],[-82.62323,8.4477],[-82.61853,8.45089],[-82.61662,8.46155],[-82.61173,8.46482],[-82.6115,8.47448],[-82.60837,8.4783],[-82.60478,8.49549],[-82.60738,8.51603],[-82.60438,8.52195],[-82.60614,8.53152],[-82.61039,8.53676],[-82.61126,8.54673],[-82.59602,8.58334],[-82.59473,8.6162],[-82.59154,8.61968],[-82.59798,8.64262],[-82.59721,8.65015],[-82.60458,8.66206],[-82.60311,8.6685],[-82.60737,8.67941],[-82.60586,8.68442],[-82.61077,8.6891],[-82.62055,8.71915],[-82.62303,8.73399],[-82.61922,8.75475],[-82.62164,8.76614],[-82.61977,8.7711],[-82.61278,8.77492],[-82.6081,8.7925],[-82.6106,8.79798],[-82.60105,8.80655],[-82.59188,8.81009],[-82.58631,8.80908],[-82.58292,8.80087],[-82.58319,8.78764],[-82.54297,8.80931],[-82.55923,8.77027],[-82.53588,8.64057],[-82.53476,8.60802],[-82.52964,8.59431],[-82.52973,8.5825],[-82.52546,8.57326],[-82.5232,8.55049],[-82.52577,8.54076],[-82.52322,8.53852],[-82.52532,8.53337],[-82.5245,8.51369],[-82.53199,8.50837],[-82.5279,8.50404],[-82.53002,8.5],[-82.52229,8.49152],[-82.5202,8.48279],[-82.52308,8.46761],[-82.51902,8.46642],[-82.53452,8.45341],[-82.52548,8.42804],[-82.5245,8.41232],[-82.52684,8.40454],[-82.53446,8.40083],[-82.51549,8.40295],[-82.51024,8.40045],[-82.5116,8.39683],[-82.50698,8.3892],[-82.5065,8.36503],[-82.50044,8.36124],[-82.49037,8.36198],[-82.48959,8.34944],[-82.48365,8.35054],[-82.47922,8.34309],[-82.47341,8.34168],[-82.47982,8.33234],[-82.47401,8.32665],[-82.47746,8.32353],[-82.47353,8.31933],[-82.46892,8.32134],[-82.46903,8.31485],[-82.4591,8.30649],[-82.46049,8.30466],[-82.45472,8.29561],[-82.47515,8.28158],[-82.47369,8.27504],[-82.47284,8.27849],[-82.47222,8.27591],[-82.47,8.27894],[-82.4681,8.27596],[-82.48235,8.26988]]],[[[-82.78719,8.59164],[-82.79062,8.5785],[-82.79382,8.57839],[-82.79613,8.57319],[-82.8009,8.57511],[-82.80073,8.57905],[-82.80527,8.58341],[-82.81115,8.58386],[-82.82378,8.59274],[-82.83334,8.59417],[-82.82647,8.60051],[-82.82817,8.60483],[-82.8386,8.61286],[-82.8284,8.61626],[-82.8298,8.63473],[-82.8355,8.6401],[-82.83519,8.64646],[-82.8552,8.66306],[-82.85924,8.67595],[-82.86442,8.6792],[-82.86183,8.68832],[-82.86569,8.69031],[-82.86709,8.6968],[-82.87026,8.699],[-82.88039,8.69689],[-82.88029,8.7],[-82.89741,8.71557],[-82.90135,8.72562],[-82.90075,8.73214],[-82.90414,8.73637],[-82.90918,8.73587],[-82.91313,8.74108],[-82.91666,8.74124],[-82.9203,8.75168],[-82.90934,8.75786],[-82.91583,8.76005],[-82.91624,8.76385],[-82.91944,8.76504],[-82.90661,8.77495],[-82.8989,8.77528],[-82.89699,8.77213],[-82.89265,8.77192],[-82.89156,8.77922],[-82.89478,8.78276],[-82.88999,8.78625],[-82.89155,8.79367],[-82.88265,8.7954],[-82.86635,8.80521],[-82.86263,8.81796],[-82.87193,8.81548],[-82.87162,8.81848],[-82.87718,8.82004],[-82.87655,8.82279],[-82.88113,8.82262],[-82.88422,8.82957],[-82.87065,8.84251],[-82.87091,8.8454],[-82.86246,8.8493],[-82.86168,8.85296],[-82.85645,8.85295],[-82.85533,8.85633],[-82.84826,8.85343],[-82.82039,8.86015],[-82.81312,8.86416],[-82.80973,8.87232],[-82.798,8.87709],[-82.78227,8.87465],[-82.77314,8.87825],[-82.76823,8.88526],[-82.76029,8.88532],[-82.75132,8.89284],[-82.74689,8.89909],[-82.74872,8.90603],[-82.74457,8.90961],[-82.71227,8.92234],[-82.70786,8.91491],[-82.7011,8.91389],[-82.70143,8.90742],[-82.71118,8.88145],[-82.71579,8.87468],[-82.72411,8.87064],[-82.7224,8.86245],[-82.72531,8.85034],[-82.73088,8.83988],[-82.7372,8.83657],[-82.73587,8.82361],[-82.74065,8.81955],[-82.74174,8.81025],[-82.73878,8.80826],[-82.72712,8.81885],[-82.71429,8.81176],[-82.71403,8.80858],[-82.71034,8.80855],[-82.70606,8.78844],[-82.70109,8.78641],[-82.69521,8.77644],[-82.69175,8.77591],[-82.69272,8.77225],[-82.68969,8.77011],[-82.68443,8.74584],[-82.69732,8.72131],[-82.69947,8.72237],[-82.70063,8.71789],[-82.71204,8.7164],[-82.71217,8.71262],[-82.72158,8.71197],[-82.72493,8.70685],[-82.72234,8.69988],[-82.73096,8.69627],[-82.73184,8.6761],[-82.73857,8.66923],[-82.73863,8.65925],[-82.73508,8.65078],[-82.74827,8.6191],[-82.74989,8.60613],[-82.74505,8.59785],[-82.74677,8.59278],[-82.75764,8.59652],[-82.75828,8.60143],[-82.76805,8.60602],[-82.76969,8.60107],[-82.78053,8.59829],[-82.78325,8.59044],[-82.78719,8.59164]]]]}}]}