{"type":"FeatureCollection","features":[{"type":"Feature","properties":{"codigo":"4-5","provincia":"Chiriquí","descripcion":"Boquete, Dolega y Gualaca","diputados_a_elegir":1,"poblacion_electores_2022":45663,"bbox":[-82.55923,8.42623,-82.12587,8.88663]},"geometry":{"type":"Polygon","coordinates":[[[-82.40946,8.49288],[-82.40607,8.48314],[-82.41057,8.47759],[-82.41001,8.47373],[-82.41982,8.48267],[-82.42673,8.47907],[-82.42782,8.48339],[-82.43549,8.48423],[-82.43755,8.48836],[-82.43578,8.49174],[-82.44053,8.49776],[-82.45021,8.5005],[-82.44823,8.50656],[-82.45042,8.50992],[-82.44564,8.51756],[-82.44629,8.52134],[-82.45245,8.52657],[-82.45279,8.53052],[-82.4566,8.53175],[-82.46345,8.54388],[-82.47805,8.55574],[-82.4834,8.56742],[-82.49185,8.57391],[-82.49139,8.57856],[-82.4955,8.58138],[-82.49881,8.59411],[-82.50971,8.609],[-82.50891,8.61774],[-82.51603,8.62736],[-82.5147,8.63269],[-82.52692,8.64797],[-82.52623,8.6565],[-82.52817,8.65732],[-82.52494,8.6609],[-82.53075,8.67033],[-82.5294,8.67371],[-82.5383,8.6937],[-82.53516,8.70085],[-82.53881,8.71235],[-82.53587,8.72203],[-82.53784,8.73743],[-82.53463,8.74714],[-82.55923,8.77027],[-82.54297,8.80931],[-82.54301,8.88663],[-82.52949,8.86771],[-82.51642,8.87568],[-82.50233,8.86761],[-82.4871,8.86691],[-82.47948,8.85999],[-82.47409,8.85913],[-82.47053,8.86321],[-82.4624,8.8622],[-82.45235,8.84692],[-82.4396,8.84387],[-82.43789,8.83953],[-82.43127,8.84045],[-82.42721,8.83399],[-82.42176,8.83503],[-82.41182,8.82984],[-82.40714,8.83218],[-82.39477,8.8271],[-82.38382,8.81793],[-82.37134,8.81619],[-82.36613,8.82348],[-82.35944,8.82382],[-82.34413,8.79996],[-82.34149,8.80259],[-82.33129,8.79841],[-82.3202,8.79856],[-82.31779,8.79206],[-82.30707,8.78451],[-82.27774,8.78402],[-82.2683,8.77978],[-82.25371,8.78131],[-82.23643,8.77422],[-82.23142,8.77794],[-82.22821,8.78567],[-82.21756,8.78652],[-82.19643,8.77101],[-82.18495,8.77131],[-82.18187,8.76399],[-82.17431,8.76724],[-82.16751,8.76616],[-82.16416,8.76991],[-82.15732,8.76825],[-82.15757,8.75342],[-82.16011,8.75567],[-82.16271,8.75648],[-82.16345,8.75825],[-82.16381,8.75851],[-82.1668,8.75839],[-82.1697,8.75594],[-82.18003,8.7597],[-82.18576,8.75814],[-82.18731,8.76303],[-82.18997,8.76252],[-82.18693,8.75988],[-82.18905,8.7578],[-82.18617,8.75469],[-82.18806,8.7518],[-82.18893,8.75411],[-82.1939,8.75412],[-82.19418,8.75918],[-82.20363,8.76408],[-82.20182,8.76714],[-82.20245,8.76907],[-82.20298,8.76997],[-82.20612,8.77141],[-82.20259,8.76898],[-82.20452,8.76346],[-82.1976,8.75541],[-82.19976,8.75593],[-82.19921,8.75214],[-82.20396,8.75591],[-82.20712,8.75543],[-82.21061,8.75283],[-82.20364,8.75416],[-82.20194,8.74987],[-82.20678,8.74458],[-82.20883,8.7464],[-82.2143,8.74346],[-82.21452,8.74687],[-82.21517,8.74269],[-82.21776,8.74264],[-82.21669,8.73536],[-82.21888,8.74053],[-82.22783,8.73757],[-82.22831,8.73981],[-82.23452,8.73966],[-82.23504,8.74309],[-82.23924,8.74205],[-82.23883,8.74543],[-82.24198,8.7429],[-82.24719,8.74598],[-82.25024,8.7429],[-82.24975,8.73907],[-82.24727,8.74099],[-82.24343,8.73722],[-82.24037,8.73887],[-82.23195,8.73416],[-82.23255,8.72608],[-82.23138,8.72379],[-82.23047,8.72303],[-82.22909,8.72287],[-82.22961,8.7217],[-82.2293,8.72051],[-82.22875,8.71972],[-82.22762,8.71932],[-82.22716,8.71858],[-82.22944,8.7174],[-82.22976,8.71671],[-82.22729,8.71793],[-82.22705,8.71871],[-82.22897,8.72298],[-82.23139,8.72406],[-82.2318,8.72726],[-82.22619,8.73242],[-82.22426,8.73006],[-82.22065,8.73176],[-82.21929,8.72763],[-82.2149,8.72686],[-82.20966,8.73553],[-82.21179,8.73826],[-82.20731,8.73418],[-82.20751,8.72926],[-82.21051,8.72659],[-82.21061,8.72613],[-82.2104,8.72523],[-82.20745,8.72266],[-82.20361,8.72104],[-82.21048,8.72625],[-82.20708,8.72921],[-82.20611,8.73392],[-82.20562,8.72962],[-82.20231,8.7303],[-82.20423,8.73339],[-82.19884,8.74851],[-82.19232,8.74676],[-82.18478,8.74886],[-82.18482,8.75167],[-82.1797,8.75472],[-82.17791,8.75285],[-82.17628,8.75224],[-82.17575,8.75357],[-82.17553,8.75128],[-82.17517,8.75079],[-82.16955,8.74855],[-82.17573,8.75373],[-82.17767,8.7532],[-82.17852,8.75596],[-82.17673,8.75509],[-82.17515,8.75492],[-82.1783,8.75837],[-82.16962,8.75571],[-82.1639,8.75837],[-82.16283,8.75635],[-82.15757,8.75326],[-82.15918,8.61201],[-82.15369,8.61138],[-82.14936,8.60246],[-82.15185,8.59945],[-82.15215,8.58846],[-82.16058,8.58635],[-82.15915,8.58044],[-82.16295,8.57899],[-82.1622,8.57441],[-82.17487,8.5534],[-82.16757,8.53217],[-82.16362,8.53084],[-82.16269,8.54015],[-82.15939,8.54059],[-82.16432,8.55698],[-82.16034,8.57145],[-82.15094,8.57421],[-82.1465,8.5705],[-82.14726,8.56527],[-82.14412,8.56273],[-82.13396,8.57182],[-82.1269,8.57151],[-82.12587,8.56875],[-82.12793,8.55826],[-82.13109,8.55804],[-82.13117,8.563],[-82.13855,8.56101],[-82.13675,8.55612],[-82.14365,8.55452],[-82.14855,8.53815],[-82.15723,8.53594],[-82.15758,8.5317],[-82.15106,8.52699],[-82.14838,8.51894],[-82.15097,8.51568],[-82.15826,8.51434],[-82.16111,8.5041],[-82.1772,8.49237],[-82.17972,8.48203],[-82.17788,8.47842],[-82.18979,8.47365],[-82.19824,8.46186],[-82.20481,8.46657],[-82.21177,8.46038],[-82.20468,8.42819],[-82.23851,8.42653],[-82.24322,8.42702],[-82.24702,8.43214],[-82.25377,8.42623],[-82.26009,8.43057],[-82.26386,8.42911],[-82.26477,8.43313],[-82.27295,8.43866],[-82.27876,8.43419],[-82.28678,8.43311],[-82.28883,8.44175],[-82.29253,8.43918],[-82.29284,8.43434],[-82.29982,8.43508],[-82.29389,8.4403],[-82.29069,8.44827],[-82.28459,8.45232],[-82.2841,8.45788],[-82.2927,8.47555],[-82.30322,8.48367],[-82.30137,8.49887],[-82.3085,8.50582],[-82.30758,8.51092],[-82.31408,8.51411],[-82.31682,8.52925],[-82.322,8.53348],[-82.32224,8.5508],[-82.32619,8.56026],[-82.32308,8.57281],[-82.32448,8.57736],[-82.33296,8.58555],[-82.34161,8.59787],[-82.34104,8.602],[-82.35092,8.61136],[-82.35313,8.61731],[-82.35673,8.61936],[-82.36679,8.61524],[-82.37369,8.6186],[-82.39547,8.64803],[-82.393,8.64199],[-82.39502,8.63283],[-82.37981,8.62033],[-82.39096,8.60636],[-82.39741,8.60605],[-82.41353,8.59472],[-82.40323,8.57456],[-82.39209,8.56207],[-82.38343,8.54044],[-82.3744,8.5327],[-82.37469,8.52287],[-82.36898,8.51539],[-82.37264,8.50263],[-82.3667,8.49865],[-82.36784,8.49332],[-82.36533,8.48864],[-82.37435,8.49471],[-82.38119,8.49297],[-82.3871,8.50756],[-82.39189,8.51018],[-82.40654,8.50607],[-82.40505,8.50198],[-82.40946,8.49288]]]}}]}