{"type":"FeatureCollection","features":[{"type":"Feature","properties":{"codigo":"4-6","provincia":"Chiriquí","descripcion":"Remedios, San Félix, San Lorenzo y Tolé","diputados_a_elegir":1,"poblacion_electores_2022":26067,"bbox":[-82.32172,8.00094,-81.51151,8.48522]},"geometry":{"type":"MultiPolygon","coordinates":[[[[-81.5322,8.35289],[-81.51806,8.34394],[-81.51785,8.33763],[-81.51475,8.34129],[-81.51151,8.33479],[-81.5159,8.32265],[-81.51606,8.31771],[-81.51162,8.31164],[-81.51169,8.30484],[-81.51475,8.30259],[-81.51241,8.29296],[-81.51455,8.28847],[-81.52005,8.28828],[-81.52908,8.29709],[-81.53796,8.29924],[-81.53518,8.30771],[-81.53799,8.30336],[-81.54432,8.3051],[-81.54268,8.31238],[-81.53559,8.31647],[-81.55046,8.32731],[-81.55448,8.33783],[-81.55103,8.34469],[-81.55634,8.34321],[-81.5568,8.33111],[-81.5601,8.32623],[-81.5638,8.32509],[-81.57142,8.33224],[-81.56805,8.34266],[-81.57019,8.34686],[-81.56445,8.34976],[-81.56418,8.35299],[-81.55713,8.35636],[-81.55587,8.34757],[-81.54123,8.35324],[-81.53936,8.35755],[-81.53333,8.35691],[-81.5322,8.35289]]],[[[-82.11815,8.22409],[-82.11782,8.21908],[-82.11329,8.21658],[-82.11671,8.21525],[-82.11697,8.21124],[-82.12149,8.21258],[-82.12544,8.21016],[-82.12478,8.20747],[-82.12788,8.20946],[-82.13981,8.20252],[-82.14186,8.1897],[-82.14005,8.18829],[-82.14335,8.18191],[-82.1395,8.18],[-82.14373,8.17023],[-82.14024,8.16805],[-82.14087,8.16549],[-82.15349,8.16858],[-82.15601,8.1643],[-82.16299,8.16639],[-82.16085,8.16678],[-82.16298,8.17222],[-82.15533,8.17182],[-82.15348,8.17757],[-82.15023,8.17785],[-82.1514,8.18202],[-82.14951,8.17928],[-82.14865,8.18261],[-82.14544,8.18248],[-82.14791,8.19556],[-82.1558,8.19456],[-82.15607,8.19164],[-82.16469,8.19209],[-82.15963,8.19638],[-82.15613,8.20544],[-82.15023,8.20434],[-82.14711,8.20799],[-82.14687,8.21145],[-82.15327,8.21363],[-82.15329,8.21737],[-82.15687,8.21605],[-82.16003,8.22064],[-82.16834,8.21887],[-82.16911,8.21445],[-82.1653,8.20893],[-82.17068,8.20779],[-82.1662,8.20383],[-82.1676,8.20031],[-82.17836,8.20746],[-82.19654,8.20146],[-82.1989,8.20434],[-82.19631,8.20728],[-82.19981,8.21059],[-82.19585,8.21372],[-82.20049,8.21959],[-82.20504,8.21711],[-82.21147,8.2182],[-82.21107,8.21619],[-82.22358,8.21885],[-82.22265,8.23058],[-82.21533,8.24103],[-82.21828,8.24804],[-82.20929,8.26449],[-82.21042,8.26878],[-82.21892,8.27218],[-82.22294,8.28221],[-82.22294,8.28723],[-82.218,8.28952],[-82.21457,8.29897],[-82.21939,8.3051],[-82.2164,8.30935],[-82.21798,8.31822],[-82.21215,8.3137],[-82.20822,8.31524],[-82.20565,8.3252],[-82.21224,8.32823],[-82.21527,8.33306],[-82.2095,8.34111],[-82.21003,8.34554],[-82.21728,8.34512],[-82.21759,8.34832],[-82.22268,8.34845],[-82.22458,8.35145],[-82.21741,8.36569],[-82.21938,8.37274],[-82.20942,8.37763],[-82.2117,8.3799],[-82.20871,8.38621],[-82.21357,8.38882],[-82.21395,8.40056],[-82.22052,8.40497],[-82.22289,8.4135],[-82.22131,8.41929],[-82.20904,8.42282],[-82.20468,8.42819],[-82.21177,8.46038],[-82.20481,8.46657],[-82.19824,8.46186],[-82.19372,8.47024],[-82.18176,8.47785],[-82.17793,8.47502],[-82.16934,8.47735],[-82.1661,8.46935],[-82.1721,8.47144],[-82.1785,8.46981],[-82.17612,8.46511],[-82.18279,8.45866],[-82.18026,8.45554],[-82.18135,8.45196],[-82.17549,8.45256],[-82.16358,8.4446],[-82.1635,8.44902],[-82.15824,8.44887],[-82.15385,8.45374],[-82.1447,8.45085],[-82.14039,8.45445],[-82.13493,8.45096],[-82.13363,8.45555],[-82.12567,8.45298],[-82.11871,8.45809],[-82.11663,8.45287],[-82.11101,8.45423],[-82.10982,8.4587],[-82.1007,8.45749],[-82.09559,8.46948],[-82.09184,8.46029],[-82.08787,8.46914],[-82.08478,8.46753],[-82.08317,8.46291],[-82.08633,8.45579],[-82.08447,8.45463],[-82.0772,8.4602],[-82.07569,8.46602],[-82.07919,8.46409],[-82.0871,8.47001],[-82.08324,8.47044],[-82.09102,8.47342],[-82.08194,8.47785],[-82.07714,8.48522],[-82.06926,8.47844],[-82.06514,8.4796],[-82.06381,8.47718],[-82.06757,8.47636],[-82.07004,8.4686],[-82.06528,8.46656],[-82.06728,8.46105],[-82.06273,8.45528],[-82.05827,8.45578],[-82.05659,8.44151],[-82.04884,8.43478],[-82.05418,8.42902],[-82.05335,8.42506],[-82.04826,8.42217],[-82.04326,8.42446],[-82.04644,8.40963],[-82.04239,8.41498],[-82.03206,8.4198],[-82.02814,8.42687],[-82.02015,8.4212],[-82.02358,8.41898],[-82.0211,8.41551],[-82.02654,8.41106],[-82.0219,8.40621],[-82.02604,8.40582],[-82.02669,8.40118],[-82.03399,8.39713],[-82.03825,8.39769],[-82.03579,8.39323],[-82.03772,8.39007],[-82.03341,8.38354],[-82.01075,8.39162],[-82.01396,8.38469],[-82.02256,8.37885],[-82.02302,8.37508],[-82.03201,8.36925],[-82.02006,8.36578],[-82.02784,8.35904],[-82.0218,8.35394],[-82.0179,8.34549],[-82.01423,8.34605],[-82.01555,8.34282],[-82.00719,8.34046],[-82.00456,8.3307],[-82.0014,8.33366],[-81.99567,8.33144],[-81.9942,8.33334],[-81.98841,8.33005],[-81.98771,8.32589],[-81.98559,8.32658],[-81.98519,8.31902],[-81.99072,8.32289],[-81.99344,8.32025],[-81.99864,8.3232],[-81.99864,8.31672],[-81.99528,8.31302],[-81.99018,8.31333],[-81.9911,8.31668],[-81.98621,8.31778],[-81.98645,8.31355],[-81.98174,8.31359],[-81.97709,8.32613],[-81.9738,8.32018],[-81.95936,8.32292],[-81.96103,8.3181],[-81.9574,8.31768],[-81.95537,8.32499],[-81.94598,8.33316],[-81.94745,8.32797],[-81.94504,8.32513],[-81.93389,8.32133],[-81.93795,8.32228],[-81.9413,8.31717],[-81.93479,8.3162],[-81.93296,8.31961],[-81.93374,8.32977],[-81.92276,8.32676],[-81.92079,8.3361],[-81.91238,8.33524],[-81.90703,8.33941],[-81.89794,8.3338],[-81.89693,8.32931],[-81.90116,8.32566],[-81.88796,8.32216],[-81.8903,8.32709],[-81.88529,8.32665],[-81.8846,8.33099],[-81.88771,8.33413],[-81.8814,8.33767],[-81.87615,8.33999],[-81.87477,8.3371],[-81.87061,8.33981],[-81.87042,8.33582],[-81.86769,8.33539],[-81.85722,8.34203],[-81.83656,8.34185],[-81.8395,8.34956],[-81.83654,8.35089],[-81.83294,8.34549],[-81.83589,8.34118],[-81.82847,8.3401],[-81.82951,8.33669],[-81.83268,8.33673],[-81.83408,8.32894],[-81.84204,8.31585],[-81.83922,8.31487],[-81.83942,8.30968],[-81.83471,8.31072],[-81.83356,8.30489],[-81.82618,8.3097],[-81.81826,8.30726],[-81.81734,8.305],[-81.8256,8.29486],[-81.82464,8.28995],[-81.82052,8.2873],[-81.82256,8.2851],[-81.81927,8.2831],[-81.81885,8.27847],[-81.80903,8.28103],[-81.80681,8.27777],[-81.79867,8.27547],[-81.79534,8.27763],[-81.79558,8.27454],[-81.79105,8.2735],[-81.792,8.28023],[-81.77592,8.27189],[-81.78291,8.26783],[-81.77619,8.26305],[-81.76988,8.26309],[-81.76908,8.26707],[-81.77464,8.26968],[-81.76829,8.27197],[-81.75855,8.28408],[-81.75073,8.2795],[-81.74473,8.27986],[-81.7493,8.27707],[-81.748,8.26937],[-81.75142,8.26261],[-81.7459,8.26389],[-81.74245,8.26146],[-81.74182,8.26881],[-81.73585,8.27554],[-81.72638,8.27798],[-81.72412,8.26308],[-81.72001,8.26311],[-81.71767,8.26967],[-81.71909,8.27826],[-81.72729,8.28313],[-81.72686,8.28821],[-81.72073,8.29082],[-81.72518,8.2981],[-81.71865,8.29984],[-81.71561,8.29763],[-81.71165,8.30224],[-81.70636,8.30335],[-81.70111,8.31791],[-81.69412,8.31764],[-81.69315,8.31255],[-81.69672,8.30798],[-81.69631,8.3028],[-81.70625,8.3006],[-81.7036,8.29712],[-81.7102,8.29392],[-81.70695,8.28266],[-81.71198,8.27791],[-81.70827,8.27295],[-81.7029,8.27317],[-81.70438,8.2788],[-81.70207,8.28422],[-81.70582,8.287],[-81.703,8.28959],[-81.70285,8.29885],[-81.69352,8.29823],[-81.689,8.30346],[-81.68613,8.29727],[-81.68938,8.29169],[-81.69483,8.29139],[-81.69852,8.29671],[-81.70173,8.29563],[-81.6985,8.29381],[-81.69614,8.28524],[-81.6941,8.28359],[-81.6935,8.289],[-81.68927,8.29027],[-81.68709,8.2858],[-81.68362,8.29229],[-81.67562,8.29463],[-81.67544,8.28628],[-81.67079,8.29166],[-81.66375,8.29007],[-81.66756,8.28068],[-81.66346,8.27052],[-81.65446,8.27306],[-81.65686,8.27647],[-81.65519,8.28042],[-81.64654,8.28472],[-81.64257,8.29493],[-81.63365,8.28904],[-81.6289,8.29163],[-81.62686,8.28817],[-81.63016,8.28335],[-81.62791,8.27897],[-81.62246,8.28418],[-81.62141,8.29254],[-81.62775,8.2964],[-81.62838,8.30227],[-81.62691,8.30471],[-81.62387,8.30334],[-81.61691,8.31973],[-81.621,8.32242],[-81.61706,8.32672],[-81.61688,8.34433],[-81.60613,8.34646],[-81.60021,8.35442],[-81.60256,8.35981],[-81.59998,8.36642],[-81.59085,8.37028],[-81.58994,8.36486],[-81.58721,8.36663],[-81.58684,8.36191],[-81.58141,8.36026],[-81.58462,8.35666],[-81.5821,8.35161],[-81.57897,8.35253],[-81.5757,8.3492],[-81.57781,8.33981],[-81.57206,8.33791],[-81.58554,8.3255],[-81.57977,8.32091],[-81.57594,8.30545],[-81.58331,8.30306],[-81.58566,8.29948],[-81.59093,8.31066],[-81.59626,8.31007],[-81.60112,8.31478],[-81.61087,8.31573],[-81.60355,8.30264],[-81.59881,8.30203],[-81.60247,8.2982],[-81.60175,8.2908],[-81.59749,8.29438],[-81.60113,8.29524],[-81.60043,8.29777],[-81.59258,8.29545],[-81.59059,8.30006],[-81.58752,8.3008],[-81.58727,8.29686],[-81.57725,8.30262],[-81.5754,8.2938],[-81.58027,8.29469],[-81.58014,8.29105],[-81.58604,8.2948],[-81.58828,8.29045],[-81.58254,8.2782],[-81.57149,8.27727],[-81.57148,8.28034],[-81.56853,8.27893],[-81.56807,8.2818],[-81.57635,8.28484],[-81.57114,8.29858],[-81.57364,8.30307],[-81.56343,8.31231],[-81.55873,8.31278],[-81.54797,8.30762],[-81.55068,8.30293],[-81.5441,8.29494],[-81.55407,8.28578],[-81.56074,8.28928],[-81.55598,8.28115],[-81.56267,8.27474],[-81.56235,8.26664],[-81.55659,8.26445],[-81.55685,8.26838],[-81.5521,8.26827],[-81.55323,8.26335],[-81.5494,8.25884],[-81.54615,8.2631],[-81.55263,8.27049],[-81.54506,8.27554],[-81.54819,8.2704],[-81.53993,8.26636],[-81.54522,8.26486],[-81.54152,8.26297],[-81.54496,8.25817],[-81.54073,8.25968],[-81.53986,8.26328],[-81.5325,8.26314],[-81.53871,8.25597],[-81.53487,8.25641],[-81.53145,8.25277],[-81.53396,8.2498],[-81.5297,8.24859],[-81.53767,8.23967],[-81.54101,8.2304],[-81.54664,8.23247],[-81.55061,8.22413],[-81.5547,8.22557],[-81.5584,8.22244],[-81.55877,8.21714],[-81.55515,8.21388],[-81.56042,8.21195],[-81.55852,8.20651],[-81.56134,8.20288],[-81.55541,8.20038],[-81.55611,8.19299],[-81.56452,8.19204],[-81.56539,8.18855],[-81.57387,8.18826],[-81.57325,8.1799],[-81.58198,8.18309],[-81.59046,8.16863],[-81.60443,8.16599],[-81.59755,8.15647],[-81.61108,8.15536],[-81.61406,8.15285],[-81.61786,8.14352],[-81.61648,8.1372],[-81.62463,8.13076],[-81.62083,8.12554],[-81.62408,8.11331],[-81.61888,8.10684],[-81.62314,8.09969],[-81.63211,8.09732],[-81.63078,8.09362],[-81.63653,8.07799],[-81.63326,8.07771],[-81.63196,8.07394],[-81.63573,8.06134],[-81.63882,8.05797],[-81.64835,8.059],[-81.64749,8.05196],[-81.63351,8.03869],[-81.64592,8.03189],[-81.6401,8.02524],[-81.6478,8.01877],[-81.65639,8.00094],[-81.66233,8.01111],[-81.67664,8.0168],[-81.68055,8.02341],[-81.69006,8.02671],[-81.70264,8.03697],[-81.70282,8.02682],[-81.71802,8.0314],[-81.7189,8.03828],[-81.70952,8.04757],[-81.71126,8.05361],[-81.72157,8.06543],[-81.73976,8.0735],[-81.7385,8.08055],[-81.7262,8.07357],[-81.7213,8.07443],[-81.72186,8.071],[-81.72134,8.07063],[-81.71366,8.0709],[-81.70137,8.08316],[-81.69557,8.07872],[-81.6903,8.08208],[-81.6941,8.08783],[-81.69129,8.08779],[-81.69117,8.08872],[-81.69783,8.09033],[-81.701,8.09522],[-81.69861,8.10329],[-81.70307,8.10202],[-81.70321,8.11037],[-81.71258,8.12678],[-81.73134,8.14917],[-81.73943,8.16761],[-81.74892,8.17429],[-81.7506,8.19023],[-81.75515,8.19097],[-81.7593,8.20054],[-81.76563,8.20111],[-81.76014,8.19301],[-81.76333,8.18087],[-81.7707,8.18294],[-81.76267,8.17237],[-81.76596,8.17345],[-81.76599,8.17111],[-81.77182,8.17437],[-81.77063,8.17221],[-81.7735,8.1706],[-81.77092,8.16859],[-81.77809,8.16774],[-81.77342,8.16555],[-81.76791,8.16724],[-81.76626,8.16441],[-81.75193,8.16896],[-81.75298,8.15938],[-81.75636,8.15483],[-81.76134,8.15477],[-81.7604,8.14319],[-81.76402,8.14034],[-81.76143,8.13842],[-81.75933,8.14076],[-81.75982,8.13823],[-81.76432,8.12988],[-81.77062,8.12806],[-81.79098,8.13565],[-81.79921,8.14257],[-81.79925,8.14632],[-81.81666,8.154],[-81.8424,8.15981],[-81.91264,8.18405],[-81.91493,8.1864],[-81.91121,8.18945],[-81.91797,8.19003],[-81.92323,8.18659],[-81.95627,8.18922],[-81.96264,8.19212],[-81.96106,8.20068],[-81.96772,8.20374],[-81.9686,8.20121],[-81.97624,8.20088],[-81.99683,8.2043],[-82.00479,8.21338],[-82.01223,8.20967],[-82.04299,8.21869],[-82.08281,8.21684],[-82.10262,8.22293],[-82.11815,8.22409]],[[-81.56803,8.24793],[-81.57175,8.24824],[-81.57552,8.24374],[-81.58255,8.24429],[-81.58285,8.2411],[-81.58907,8.24092],[-81.59277,8.24414],[-81.60087,8.2407],[-81.59831,8.22701],[-81.59171,8.22907],[-81.59594,8.23582],[-81.59099,8.23595],[-81.58531,8.23025],[-81.58317,8.23784],[-81.57514,8.23581],[-81.57705,8.2312],[-81.58065,8.2299],[-81.58116,8.23207],[-81.58948,8.22714],[-81.58227,8.22524],[-81.582,8.22117],[-81.56348,8.22443],[-81.57303,8.23127],[-81.56543,8.23108],[-81.56633,8.23461],[-81.57549,8.24004],[-81.5717,8.24337],[-81.56424,8.24043],[-81.56803,8.24793]],[[-81.623,8.26637],[-81.62375,8.26091],[-81.61949,8.2577],[-81.6142,8.26411],[-81.61067,8.26299],[-81.61287,8.25272],[-81.61489,8.25491],[-81.61942,8.2537],[-81.62011,8.25087],[-81.61303,8.24727],[-81.611,8.24281],[-81.60911,8.25221],[-81.60972,8.24232],[-81.60695,8.2413],[-81.60074,8.2532],[-81.59581,8.25012],[-81.59101,8.25779],[-81.59712,8.25874],[-81.59873,8.25325],[-81.60686,8.26001],[-81.60441,8.26567],[-81.59527,8.26539],[-81.59763,8.27368],[-81.5928,8.28141],[-81.6032,8.28092],[-81.6031,8.27446],[-81.59923,8.27448],[-81.60439,8.2681],[-81.60987,8.26739],[-81.60923,8.26426],[-81.623,8.26637]]],[[[-81.73876,8.15126],[-81.73132,8.13937],[-81.71879,8.12825],[-81.71345,8.11334],[-81.71161,8.10268],[-81.71823,8.0923],[-81.72238,8.10834],[-81.73083,8.12123],[-81.75373,8.13225],[-81.75254,8.14012],[-81.74192,8.14601],[-81.73876,8.15126]]],[[[-82.28453,8.23307],[-82.28563,8.231],[-82.28248,8.22944],[-82.27976,8.23367],[-82.27462,8.23029],[-82.27249,8.2327],[-82.25462,8.22721],[-82.24685,8.22175],[-82.2462,8.22423],[-82.2384,8.22174],[-82.23259,8.21622],[-82.22994,8.21813],[-82.21917,8.2166],[-82.20591,8.21151],[-82.21439,8.21045],[-82.22306,8.20306],[-82.22612,8.20628],[-82.22489,8.2113],[-82.22812,8.21328],[-82.23567,8.20749],[-82.2396,8.21071],[-82.24343,8.20954],[-82.24191,8.21199],[-82.24572,8.21327],[-82.24598,8.21],[-82.24858,8.21227],[-82.25324,8.20891],[-82.251,8.20601],[-82.25306,8.20404],[-82.25406,8.20583],[-82.25372,8.20558],[-82.25135,8.20625],[-82.25688,8.20572],[-82.25661,8.20459],[-82.25876,8.20688],[-82.26222,8.20033],[-82.26561,8.19998],[-82.26489,8.18915],[-82.25454,8.18407],[-82.24925,8.18477],[-82.24658,8.17671],[-82.2514,8.17738],[-82.25057,8.17324],[-82.25586,8.1743],[-82.25924,8.17676],[-82.25959,8.18243],[-82.26429,8.18505],[-82.26727,8.18262],[-82.26659,8.18603],[-82.27274,8.19248],[-82.32172,8.21487],[-82.31465,8.22673],[-82.29803,8.22055],[-82.28959,8.22765],[-82.29388,8.22804],[-82.29329,8.23198],[-82.28453,8.23307]]]]}}]}