{"type":"FeatureCollection","features":[{"type":"Feature","properties":{"codigo":"5-1","provincia":"Darién","descripcion":"Chepigana, Santa Fe y Sambú","diputados_a_elegir":1,"poblacion_electores_2022":25319,"bbox":[-78.50958,7.21858,-77.69423,8.99313]},"geometry":{"type":"MultiPolygon","coordinates":[[[[-78.40811,8.10805],[-78.41265,8.09095],[-78.40923,8.09075],[-78.40677,8.08599],[-78.40619,8.07812],[-78.40988,8.07554],[-78.41481,8.07659],[-78.41061,8.06878],[-78.40593,8.06981],[-78.40135,8.06637],[-78.39561,8.06921],[-78.39246,8.06596],[-78.37846,8.06534],[-78.37238,8.07155],[-78.36769,8.07163],[-78.35923,8.06826],[-78.35713,8.06455],[-78.34255,8.06023],[-78.32426,8.06616],[-78.31127,8.07516],[-78.30707,8.07366],[-78.27224,8.10886],[-78.25797,8.11467],[-78.25626,8.11782],[-78.26061,8.12037],[-78.26114,8.12403],[-78.25291,8.13214],[-78.25086,8.14032],[-78.25316,8.14212],[-78.25002,8.14273],[-78.24824,8.14829],[-78.2454,8.18621],[-78.25578,8.19425],[-78.26098,8.19368],[-78.26322,8.19789],[-78.26921,8.19791],[-78.27722,8.20872],[-78.27739,8.21598],[-78.28909,8.22056],[-78.29148,8.22912],[-78.29508,8.22873],[-78.29481,8.23531],[-78.30411,8.24253],[-78.30755,8.24883],[-78.30599,8.2533],[-78.30932,8.25427],[-78.30645,8.25607],[-78.30877,8.25671],[-78.30427,8.25772],[-78.30083,8.25394],[-78.29529,8.25835],[-78.29493,8.25494],[-78.28895,8.25484],[-78.28916,8.25119],[-78.28404,8.2484],[-78.27187,8.25934],[-78.26641,8.2685],[-78.26685,8.27528],[-78.27904,8.2836],[-78.27877,8.28622],[-78.26594,8.28434],[-78.26059,8.2957],[-78.25603,8.29699],[-78.2521,8.29448],[-78.24154,8.27547],[-78.23183,8.27008],[-78.22658,8.27463],[-78.22212,8.26844],[-78.21895,8.27406],[-78.20759,8.27925],[-78.19906,8.27543],[-78.20258,8.28006],[-78.20084,8.2869],[-78.19233,8.29894],[-78.1834,8.30377],[-78.18592,8.31488],[-78.19265,8.31887],[-78.18204,8.32179],[-78.19159,8.33465],[-78.18755,8.33987],[-78.18133,8.33985],[-78.18081,8.33751],[-78.17862,8.34404],[-78.18124,8.35231],[-78.17571,8.35269],[-78.17396,8.36293],[-78.15871,8.38143],[-78.16311,8.39736],[-78.16038,8.414],[-78.15556,8.41828],[-78.14793,8.41813],[-78.13588,8.4049],[-78.1371,8.39692],[-78.13385,8.3824],[-78.12189,8.3607],[-78.11522,8.35663],[-78.11041,8.35716],[-78.09501,8.34454],[-78.10006,8.34142],[-78.09778,8.33972],[-78.07932,8.3405],[-78.04932,8.30427],[-78.03862,8.28078],[-78.04024,8.26367],[-78.04208,8.26371],[-78.02779,8.23765],[-78.01887,8.22954],[-77.99934,8.224],[-77.9799,8.225],[-77.94572,8.19738],[-77.93797,8.19478],[-77.92099,8.19685],[-77.91224,8.19401],[-77.91096,8.19641],[-77.91775,8.19985],[-77.93666,8.20253],[-77.94958,8.20848],[-77.97532,8.23486],[-77.96286,8.23884],[-77.95293,8.23864],[-77.93334,8.2276],[-77.91453,8.22481],[-77.88966,8.21535],[-77.88086,8.20774],[-77.87504,8.19237],[-77.85333,8.18182],[-77.84825,8.14339],[-77.84051,8.13884],[-77.82769,8.14499],[-77.70257,7.94185],[-77.70303,7.92687],[-77.6949,7.91015],[-77.69423,7.88725],[-77.69935,7.88271],[-77.69742,7.87782],[-77.70415,7.86989],[-77.7062,7.8607],[-77.713,7.85406],[-77.7102,7.8403],[-77.72289,7.81556],[-77.72569,7.79804],[-77.72301,7.78957],[-77.73267,7.77488],[-77.73731,7.7721],[-77.73366,7.76033],[-77.74151,7.7403],[-77.74508,7.71705],[-77.72809,7.70621],[-77.7277,7.68685],[-77.7428,7.67896],[-77.74213,7.67038],[-77.74557,7.66408],[-77.74319,7.65827],[-77.74717,7.65033],[-77.74171,7.64093],[-77.74132,7.62958],[-77.74858,7.61491],[-77.74676,7.60556],[-77.73637,7.60188],[-77.73773,7.58685],[-77.7329,7.57039],[-77.72547,7.56421],[-77.71521,7.53769],[-77.70351,7.52024],[-77.70106,7.50676],[-77.71067,7.50017],[-77.73112,7.4744],[-77.73956,7.47133],[-77.74373,7.46541],[-77.75165,7.46767],[-77.75933,7.46078],[-77.76876,7.46211],[-77.7724,7.45896],[-77.78462,7.46291],[-77.79109,7.46999],[-77.88312,7.21858],[-77.88636,7.2211],[-77.88627,7.22584],[-77.8938,7.22276],[-77.89259,7.22842],[-77.89769,7.2314],[-77.89802,7.2381],[-77.89978,7.23631],[-77.90623,7.24069],[-77.90924,7.23674],[-77.91094,7.24333],[-77.91604,7.24065],[-77.9192,7.24291],[-77.91823,7.24634],[-77.92505,7.24718],[-77.92646,7.25431],[-77.93766,7.25754],[-77.93917,7.26438],[-77.94262,7.26273],[-77.94952,7.26705],[-77.95102,7.27737],[-77.95547,7.27669],[-77.95688,7.28091],[-77.96532,7.28066],[-77.96429,7.28377],[-77.97454,7.28777],[-77.97398,7.29182],[-77.98045,7.29369],[-77.98383,7.29885],[-77.9868,7.29808],[-77.99067,7.30478],[-77.99598,7.30838],[-77.99874,7.30602],[-77.99629,7.3151],[-77.99953,7.31747],[-77.99947,7.32186],[-78.0043,7.32668],[-78.00765,7.32644],[-78.011,7.3319],[-78.01566,7.33143],[-78.01986,7.33461],[-78.02084,7.33901],[-78.02362,7.33932],[-78.02385,7.35186],[-78.02865,7.35159],[-78.02626,7.36308],[-78.02894,7.36619],[-78.02627,7.37094],[-78.02869,7.37196],[-78.02552,7.37331],[-78.02592,7.37964],[-78.02128,7.38074],[-78.02328,7.38413],[-78.01988,7.3854],[-78.02642,7.38778],[-78.02631,7.39188],[-78.0304,7.39359],[-78.03257,7.39087],[-78.03488,7.39339],[-78.03885,7.39217],[-78.03928,7.38972],[-78.03585,7.38836],[-78.03781,7.38703],[-78.04135,7.39025],[-78.04425,7.38915],[-78.04636,7.39704],[-78.04435,7.39775],[-78.04724,7.4018],[-78.04001,7.40916],[-78.04232,7.41499],[-78.04656,7.41522],[-78.04315,7.4234],[-78.04505,7.42644],[-78.05155,7.42929],[-78.05881,7.42738],[-78.06237,7.42533],[-78.06044,7.42185],[-78.06377,7.41643],[-78.06845,7.41448],[-78.07297,7.41661],[-78.0739,7.42521],[-78.08174,7.43857],[-78.08589,7.43838],[-78.08613,7.44249],[-78.08959,7.44264],[-78.09111,7.44702],[-78.09779,7.44398],[-78.1001,7.44933],[-78.10582,7.4477],[-78.11383,7.45923],[-78.12361,7.46288],[-78.12495,7.47473],[-78.13112,7.47645],[-78.13317,7.48089],[-78.13307,7.48617],[-78.12779,7.48663],[-78.13361,7.49614],[-78.13147,7.49792],[-78.16771,7.51756],[-78.17178,7.51639],[-78.17821,7.52066],[-78.17943,7.51769],[-78.18309,7.51815],[-78.18127,7.52293],[-78.18499,7.5271],[-78.18111,7.53572],[-78.18599,7.53625],[-78.18504,7.53855],[-78.18741,7.53908],[-78.18137,7.54283],[-78.17644,7.53988],[-78.17588,7.55485],[-78.17263,7.55865],[-78.17984,7.56484],[-78.17342,7.56984],[-78.17414,7.57242],[-78.17119,7.57179],[-78.17193,7.57787],[-78.18066,7.58364],[-78.18753,7.58453],[-78.19354,7.58256],[-78.19263,7.57686],[-78.19642,7.58352],[-78.19796,7.5818],[-78.19828,7.58444],[-78.202,7.58453],[-78.19968,7.5757],[-78.20079,7.562],[-78.20305,7.55701],[-78.20623,7.55631],[-78.20402,7.56422],[-78.20889,7.56921],[-78.20764,7.57355],[-78.21069,7.57476],[-78.21068,7.57907],[-78.20409,7.58467],[-78.20705,7.59114],[-78.19839,7.59135],[-78.19505,7.59536],[-78.1999,7.60413],[-78.19869,7.61043],[-78.20423,7.6131],[-78.20522,7.61952],[-78.21107,7.61865],[-78.21449,7.62485],[-78.22238,7.62701],[-78.22097,7.62888],[-78.22674,7.63425],[-78.22798,7.63997],[-78.23917,7.64326],[-78.24124,7.64832],[-78.23714,7.65625],[-78.24648,7.66611],[-78.25281,7.66333],[-78.25154,7.66981],[-78.26208,7.67483],[-78.26454,7.66937],[-78.26553,7.67097],[-78.27143,7.66518],[-78.27186,7.67447],[-78.27579,7.67755],[-78.27056,7.68209],[-78.27409,7.68848],[-78.28049,7.68839],[-78.28236,7.69134],[-78.29256,7.68824],[-78.29559,7.68275],[-78.29803,7.68377],[-78.29578,7.69064],[-78.29035,7.69435],[-78.29664,7.69674],[-78.29765,7.70323],[-78.29135,7.71131],[-78.28174,7.71556],[-78.27876,7.72433],[-78.28119,7.72786],[-78.2808,7.74097],[-78.28746,7.74875],[-78.28605,7.75308],[-78.28961,7.75623],[-78.29042,7.76516],[-78.30505,7.78613],[-78.30656,7.79428],[-78.31498,7.80524],[-78.31431,7.80789],[-78.33041,7.8265],[-78.32952,7.82973],[-78.33611,7.8399],[-78.33597,7.84437],[-78.34029,7.84876],[-78.33837,7.85447],[-78.34092,7.85708],[-78.3405,7.86278],[-78.34472,7.86646],[-78.34466,7.87513],[-78.34995,7.87465],[-78.3635,7.89148],[-78.36742,7.89073],[-78.37973,7.89855],[-78.38318,7.90546],[-78.38939,7.90516],[-78.39317,7.90774],[-78.39182,7.91105],[-78.39504,7.91556],[-78.40072,7.91683],[-78.39837,7.9221],[-78.41133,7.9523],[-78.41072,7.96231],[-78.41676,7.96593],[-78.41999,7.97287],[-78.41822,7.97581],[-78.42316,7.97926],[-78.4212,7.98589],[-78.42359,7.98858],[-78.42447,8.00589],[-78.42012,8.00743],[-78.42167,8.01098],[-78.41971,8.0124],[-78.42408,8.01322],[-78.4238,8.01699],[-78.43079,8.02558],[-78.43288,8.02165],[-78.43307,8.0331],[-78.43649,8.03172],[-78.43978,8.03851],[-78.44238,8.03615],[-78.44329,8.0448],[-78.44719,8.04436],[-78.44505,8.0555],[-78.44892,8.05683],[-78.44934,8.06122],[-78.44764,8.06219],[-78.44719,8.05862],[-78.44541,8.0618],[-78.44633,8.07121],[-78.44081,8.08585],[-78.43756,8.08545],[-78.42281,8.10472],[-78.40811,8.10805]]],[[[-78.32407,8.46875],[-78.32599,8.46323],[-78.33101,8.46437],[-78.3358,8.45995],[-78.33451,8.4595],[-78.33382,8.45224],[-78.33767,8.45545],[-78.34966,8.44785],[-78.35049,8.44993],[-78.34883,8.44314],[-78.35533,8.43805],[-78.3568,8.4402],[-78.35771,8.43505],[-78.36754,8.42262],[-78.37519,8.42649],[-78.37835,8.46521],[-78.37644,8.47006],[-78.38051,8.49491],[-78.39099,8.52341],[-78.38969,8.52723],[-78.38149,8.52917],[-78.38826,8.52938],[-78.38585,8.53195],[-78.38861,8.53321],[-78.38771,8.53741],[-78.38082,8.53233],[-78.37926,8.53663],[-78.38316,8.54136],[-78.38071,8.54573],[-78.38521,8.54638],[-78.37994,8.55153],[-78.3854,8.54812],[-78.38615,8.55027],[-78.3868,8.54647],[-78.39046,8.54638],[-78.39008,8.54293],[-78.39861,8.53844],[-78.39628,8.53614],[-78.39841,8.53064],[-78.4012,8.53591],[-78.40043,8.55991],[-78.40615,8.56255],[-78.40789,8.54755],[-78.41607,8.54411],[-78.41743,8.52889],[-78.40497,8.5163],[-78.41013,8.51594],[-78.40162,8.50786],[-78.3917,8.48799],[-78.38842,8.45955],[-78.39092,8.43094],[-78.38598,8.42208],[-78.37599,8.41394],[-78.37733,8.41224],[-78.36915,8.41002],[-78.36714,8.39405],[-78.37843,8.38536],[-78.37999,8.37791],[-78.38406,8.37894],[-78.38336,8.36491],[-78.38664,8.35904],[-78.38761,8.33728],[-78.3959,8.34193],[-78.40032,8.35],[-78.40683,8.35355],[-78.41896,8.34641],[-78.41333,8.35638],[-78.41965,8.3654],[-78.41758,8.37894],[-78.41168,8.38371],[-78.42678,8.41035],[-78.42628,8.41392],[-78.42204,8.41456],[-78.42374,8.42205],[-78.42895,8.42463],[-78.42898,8.4287],[-78.43333,8.43177],[-78.43633,8.44705],[-78.43431,8.45341],[-78.43979,8.46714],[-78.43756,8.47695],[-78.44203,8.48817],[-78.44855,8.49204],[-78.44888,8.49572],[-78.4526,8.49384],[-78.45885,8.50261],[-78.47843,8.54118],[-78.47154,8.54121],[-78.4706,8.54655],[-78.47571,8.54948],[-78.48226,8.567],[-78.47842,8.56747],[-78.47574,8.57452],[-78.4819,8.58214],[-78.47852,8.5886],[-78.48302,8.58879],[-78.48628,8.59371],[-78.4817,8.59592],[-78.48638,8.61765],[-78.46864,8.62368],[-78.46989,8.6333],[-78.47384,8.63825],[-78.47017,8.64634],[-78.47704,8.64884],[-78.47737,8.65499],[-78.48429,8.66251],[-78.48873,8.66014],[-78.495,8.66399],[-78.49462,8.66959],[-78.49106,8.67242],[-78.49183,8.67841],[-78.49595,8.68093],[-78.49679,8.68662],[-78.50425,8.68776],[-78.50908,8.6951],[-78.50312,8.69936],[-78.50958,8.70721],[-78.50576,8.71308],[-78.50189,8.71233],[-78.50372,8.72002],[-78.49817,8.72699],[-78.49989,8.73006],[-78.49735,8.74676],[-78.4902,8.74429],[-78.47999,8.74705],[-78.47157,8.75867],[-78.47326,8.76349],[-78.46749,8.76518],[-78.46861,8.77768],[-78.46388,8.78301],[-78.46654,8.78752],[-78.45944,8.80456],[-78.46466,8.81229],[-78.46424,8.82087],[-78.46859,8.825],[-78.46291,8.83649],[-78.45939,8.83973],[-78.43019,8.83929],[-78.42734,8.84373],[-78.41973,8.84669],[-78.41212,8.86112],[-78.4041,8.85845],[-78.3963,8.84976],[-78.38882,8.85215],[-78.38981,8.84956],[-78.38362,8.84826],[-78.37976,8.85196],[-78.37041,8.85337],[-78.36204,8.85035],[-78.36096,8.84796],[-78.36504,8.84498],[-78.3633,8.83711],[-78.36527,8.82373],[-78.35494,8.81865],[-78.35379,8.81226],[-78.35584,8.81075],[-78.33917,8.80353],[-78.3326,8.80532],[-78.327,8.81107],[-78.33213,8.81916],[-78.32719,8.81981],[-78.32316,8.8414],[-78.31332,8.84676],[-78.31552,8.85287],[-78.30822,8.86032],[-78.30563,8.86877],[-78.29111,8.86017],[-78.28855,8.86553],[-78.27715,8.87141],[-78.26927,8.88162],[-78.26112,8.8853],[-78.25504,8.89235],[-78.24928,8.89114],[-78.24865,8.88566],[-78.24105,8.88715],[-78.23678,8.87628],[-78.22993,8.87538],[-78.22761,8.86748],[-78.22176,8.87627],[-78.21053,8.87352],[-78.20802,8.86981],[-78.19932,8.87151],[-78.19642,8.86726],[-78.17402,8.8715],[-78.17109,8.87747],[-78.17208,8.88723],[-78.17572,8.8912],[-78.17483,8.89826],[-78.18008,8.90459],[-78.17731,8.90802],[-78.17937,8.91741],[-78.1753,8.92558],[-78.17591,8.93724],[-78.17187,8.94221],[-78.16658,8.9417],[-78.16003,8.94885],[-78.13714,8.95715],[-78.13376,8.96102],[-78.12969,8.96754],[-78.12741,8.98134],[-78.13232,8.98165],[-78.13302,8.99313],[-78.13047,8.98586],[-78.12569,8.98475],[-78.12579,8.98171],[-78.12044,8.97888],[-78.1217,8.96748],[-78.11706,8.9678],[-78.11242,8.95788],[-78.11653,8.9567],[-78.1159,8.95268],[-78.12233,8.94309],[-78.13196,8.94359],[-78.13481,8.95072],[-78.14294,8.95351],[-78.16106,8.92982],[-78.15573,8.92102],[-78.15077,8.92003],[-78.14429,8.92302],[-78.12898,8.9172],[-78.12337,8.90349],[-78.11719,8.89992],[-78.12801,8.88232],[-78.12737,8.86342],[-78.12447,8.85969],[-78.11464,8.85921],[-78.11287,8.84931],[-78.0928,8.84628],[-78.08127,8.83661],[-78.0771,8.8204],[-78.07911,8.80982],[-78.07131,8.80413],[-78.0698,8.79911],[-78.07398,8.79158],[-78.07097,8.77697],[-78.06309,8.77588],[-78.05596,8.7691],[-78.03747,8.7688],[-78.03131,8.76366],[-78.02475,8.76374],[-78.02132,8.75949],[-78.023,8.74509],[-78.00741,8.733],[-78.00175,8.73436],[-77.98785,8.73086],[-77.98482,8.7395],[-77.98056,8.7336],[-77.97852,8.73555],[-77.97468,8.72827],[-77.97046,8.73828],[-77.96761,8.73522],[-77.96741,8.72776],[-77.97005,8.72051],[-77.97331,8.72135],[-77.9732,8.71774],[-77.96607,8.71644],[-77.9667,8.71187],[-77.96211,8.70827],[-77.96496,8.70422],[-77.97032,8.70732],[-77.97147,8.69811],[-77.96804,8.69999],[-77.96819,8.69325],[-77.97114,8.69188],[-77.97193,8.69624],[-77.97636,8.69119],[-77.96641,8.68835],[-77.96567,8.69047],[-77.96745,8.68231],[-77.97063,8.68616],[-77.97234,8.68394],[-77.9681,8.678],[-77.97033,8.67548],[-77.9743,8.6756],[-77.97417,8.67761],[-77.9749,8.67353],[-77.97988,8.67298],[-77.99106,8.68035],[-78.00171,8.6808],[-78.00599,8.68423],[-78.00997,8.70136],[-78.015,8.7024],[-78.0201,8.71361],[-78.02844,8.71418],[-78.03313,8.72186],[-78.03913,8.72179],[-78.04315,8.71829],[-78.05234,8.72125],[-78.0559,8.72664],[-78.06726,8.72736],[-78.07967,8.74334],[-78.08411,8.74053],[-78.08332,8.73187],[-78.07636,8.72098],[-78.08389,8.70974],[-78.0765,8.70762],[-78.078,8.69911],[-78.06759,8.69589],[-78.06944,8.68818],[-78.06445,8.6865],[-78.06185,8.67718],[-78.05301,8.6721],[-78.05049,8.65734],[-78.04553,8.6529],[-78.04564,8.64338],[-78.05269,8.63958],[-78.05685,8.62689],[-78.07459,8.62899],[-78.07988,8.62647],[-78.08127,8.62131],[-78.06966,8.60763],[-78.06413,8.60857],[-78.06209,8.60411],[-78.04979,8.59845],[-78.03684,8.58159],[-78.04729,8.56869],[-78.0424,8.56281],[-78.04884,8.54982],[-78.04866,8.5448],[-78.06253,8.53299],[-78.05798,8.52294],[-78.06142,8.51433],[-78.05244,8.50118],[-78.06066,8.49711],[-78.05869,8.48417],[-78.06115,8.47918],[-78.04919,8.46838],[-78.03968,8.47235],[-78.03483,8.46713],[-78.03497,8.4724],[-78.03162,8.47515],[-78.02181,8.47384],[-77.99822,8.45582],[-77.99472,8.44608],[-77.98001,8.44726],[-77.9758,8.43568],[-77.9711,8.43344],[-77.96485,8.43522],[-77.95509,8.43137],[-77.94227,8.43302],[-77.92505,8.41398],[-77.92391,8.40429],[-77.91935,8.39784],[-77.92253,8.38954],[-77.91823,8.38416],[-77.91492,8.36397],[-77.90178,8.35637],[-77.89642,8.35862],[-77.88661,8.35122],[-77.87086,8.29026],[-77.86353,8.28763],[-77.85941,8.27895],[-77.86023,8.2731],[-77.83374,8.15774],[-77.83742,8.15344],[-77.83824,8.14567],[-77.8425,8.14334],[-77.8451,8.14833],[-77.83846,8.17457],[-77.8439,8.17725],[-77.84633,8.18649],[-77.85278,8.19405],[-77.86689,8.19771],[-77.88335,8.22245],[-77.89743,8.22979],[-77.92835,8.2386],[-77.94887,8.25021],[-77.99126,8.25646],[-78.00277,8.255],[-78.02576,8.27179],[-78.03076,8.29555],[-78.03068,8.30872],[-78.03573,8.31179],[-78.03985,8.32439],[-78.04485,8.32719],[-78.05245,8.34009],[-78.05742,8.36105],[-78.06961,8.38122],[-78.07209,8.39366],[-78.07849,8.40536],[-78.07705,8.41987],[-78.06658,8.41407],[-78.05761,8.42224],[-78.04349,8.41779],[-78.05709,8.4251],[-78.06804,8.41733],[-78.06905,8.42321],[-78.07747,8.42642],[-78.09419,8.45644],[-78.10859,8.46948],[-78.11436,8.479],[-78.11472,8.48787],[-78.10348,8.50155],[-78.09968,8.5109],[-78.09223,8.51119],[-78.09634,8.51346],[-78.09535,8.5165],[-78.09869,8.514],[-78.09726,8.51662],[-78.09348,8.51735],[-78.09654,8.51733],[-78.09841,8.51628],[-78.09739,8.51787],[-78.10053,8.51461],[-78.09978,8.51887],[-78.10945,8.52504],[-78.11095,8.52961],[-78.11998,8.53321],[-78.12372,8.54147],[-78.12373,8.53736],[-78.12594,8.53986],[-78.12469,8.53706],[-78.1264,8.53763],[-78.12855,8.56496],[-78.13066,8.56291],[-78.1383,8.57019],[-78.14266,8.57843],[-78.14087,8.57919],[-78.14045,8.57994],[-78.13998,8.57992],[-78.14082,8.57714],[-78.13985,8.57862],[-78.14006,8.58068],[-78.14305,8.57898],[-78.1414,8.58278],[-78.14391,8.58058],[-78.14533,8.58274],[-78.14212,8.5839],[-78.14772,8.58581],[-78.1506,8.5989],[-78.15589,8.60584],[-78.14877,8.60702],[-78.15012,8.61324],[-78.147,8.61833],[-78.14981,8.62052],[-78.15549,8.61987],[-78.15823,8.62258],[-78.15451,8.63413],[-78.15527,8.63664],[-78.15765,8.63775],[-78.16419,8.63775],[-78.16156,8.63996],[-78.159,8.64285],[-78.15679,8.64698],[-78.15429,8.64891],[-78.15473,8.64992],[-78.15602,8.65026],[-78.16088,8.64896],[-78.16171,8.65218],[-78.14998,8.65519],[-78.14952,8.65587],[-78.14988,8.65626],[-78.15364,8.65667],[-78.14953,8.65837],[-78.14915,8.65929],[-78.14963,8.66012],[-78.1538,8.65677],[-78.15238,8.65566],[-78.14988,8.65608],[-78.1502,8.65526],[-78.1617,8.65259],[-78.16183,8.64962],[-78.16099,8.64884],[-78.15446,8.64896],[-78.15723,8.64686],[-78.15908,8.64306],[-78.16406,8.63839],[-78.16438,8.63732],[-78.15615,8.63683],[-78.15888,8.62266],[-78.15611,8.61963],[-78.14793,8.61843],[-78.15173,8.61372],[-78.14978,8.60744],[-78.15511,8.60847],[-78.15669,8.60552],[-78.15253,8.59952],[-78.15036,8.58542],[-78.14312,8.57411],[-78.14315,8.56638],[-78.13204,8.55636],[-78.13272,8.54838],[-78.14003,8.54681],[-78.13957,8.54091],[-78.13488,8.53634],[-78.13608,8.52717],[-78.12807,8.52218],[-78.13613,8.51277],[-78.13466,8.51004],[-78.13344,8.51579],[-78.12719,8.51863],[-78.12865,8.51203],[-78.12657,8.51844],[-78.12479,8.51871],[-78.12577,8.51691],[-78.12666,8.51262],[-78.12339,8.51876],[-78.11815,8.51819],[-78.12168,8.5157],[-78.12306,8.51289],[-78.12375,8.50978],[-78.11761,8.51746],[-78.11903,8.51277],[-78.11705,8.51132],[-78.11625,8.51685],[-78.10674,8.51243],[-78.11165,8.50384],[-78.11928,8.50289],[-78.11383,8.50246],[-78.11562,8.50051],[-78.12215,8.4995],[-78.13133,8.50572],[-78.1307,8.50341],[-78.13356,8.50393],[-78.12297,8.49904],[-78.11651,8.49963],[-78.12173,8.49299],[-78.12113,8.47721],[-78.11324,8.45775],[-78.10256,8.4481],[-78.09751,8.42125],[-78.10053,8.41102],[-78.10638,8.41214],[-78.11803,8.43004],[-78.12193,8.43121],[-78.12918,8.44789],[-78.14167,8.46482],[-78.15812,8.47052],[-78.15968,8.47382],[-78.15541,8.47589],[-78.16022,8.47412],[-78.16047,8.478],[-78.16103,8.47861],[-78.16742,8.46408],[-78.17225,8.45909],[-78.17853,8.45891],[-78.18483,8.45004],[-78.18904,8.44844],[-78.19003,8.44394],[-78.19408,8.4431],[-78.18835,8.43732],[-78.18571,8.42629],[-78.1886,8.41893],[-78.18794,8.4107],[-78.20461,8.40297],[-78.21461,8.40503],[-78.21549,8.39719],[-78.21819,8.39335],[-78.22102,8.39563],[-78.22585,8.38571],[-78.23498,8.38848],[-78.23874,8.38508],[-78.24808,8.38339],[-78.25195,8.39282],[-78.25955,8.39004],[-78.26085,8.40153],[-78.26694,8.40853],[-78.25088,8.42231],[-78.25296,8.43706],[-78.23534,8.42948],[-78.2244,8.4334],[-78.22245,8.43743],[-78.21839,8.42648],[-78.2187,8.4386],[-78.21598,8.43552],[-78.21558,8.4222],[-78.21527,8.42436],[-78.21365,8.42228],[-78.21383,8.43142],[-78.21026,8.43055],[-78.21225,8.43697],[-78.20795,8.4338],[-78.20903,8.43851],[-78.21295,8.44026],[-78.2119,8.44283],[-78.21554,8.44187],[-78.21164,8.44302],[-78.21016,8.4521],[-78.20752,8.45163],[-78.22468,8.46642],[-78.21689,8.48597],[-78.21489,8.51167],[-78.21675,8.51888],[-78.21782,8.51399],[-78.22151,8.52339],[-78.21927,8.52973],[-78.21317,8.53016],[-78.21646,8.53508],[-78.21734,8.53184],[-78.2211,8.53102],[-78.21858,8.53519],[-78.22327,8.53433],[-78.23053,8.54721],[-78.2297,8.5439],[-78.23412,8.53646],[-78.23299,8.54472],[-78.23716,8.5492],[-78.2349,8.54407],[-78.23898,8.53339],[-78.24428,8.53637],[-78.24136,8.53008],[-78.24385,8.52954],[-78.24093,8.52258],[-78.24299,8.52229],[-78.22201,8.51046],[-78.21897,8.50389],[-78.22219,8.48913],[-78.23285,8.47152],[-78.23044,8.44849],[-78.23271,8.43684],[-78.2426,8.44041],[-78.25,8.45245],[-78.25787,8.45638],[-78.26744,8.45496],[-78.2678,8.46779],[-78.27532,8.47235],[-78.27919,8.47085],[-78.2797,8.46236],[-78.28506,8.45859],[-78.2832,8.45191],[-78.28549,8.44672],[-78.28769,8.44825],[-78.28646,8.44023],[-78.28911,8.43884],[-78.30417,8.4419],[-78.30955,8.4536],[-78.30789,8.46082],[-78.31266,8.46148],[-78.31498,8.4681],[-78.32407,8.46875]]],[[[-78.15963,8.44482],[-78.1583,8.43653],[-78.15194,8.43199],[-78.15056,8.42312],[-78.15106,8.42063],[-78.15824,8.42108],[-78.15945,8.41821],[-78.16595,8.4236],[-78.1642,8.42742],[-78.16688,8.44077],[-78.15963,8.44482]]]]}}]}