{"type":"FeatureCollection","features":[{"type":"Feature","properties":{"codigo":"5-2","provincia":"Darién","descripcion":"Pinogana y Cémaco","diputados_a_elegir":1,"poblacion_electores_2022":19153,"bbox":[-78.08413,7.50786,-77.15883,8.88312]},"geometry":{"type":"MultiPolygon","coordinates":[[[[-77.70257,7.94185],[-77.80171,8.10282],[-77.7904,8.11629],[-77.7911,8.12362],[-77.79521,8.12729],[-77.80973,8.12895],[-77.82326,8.15047],[-77.83374,8.15774],[-77.86023,8.2731],[-77.85941,8.27895],[-77.86353,8.28763],[-77.87086,8.29026],[-77.88661,8.35122],[-77.89642,8.35862],[-77.90178,8.35637],[-77.91492,8.36397],[-77.91823,8.38416],[-77.92253,8.38954],[-77.91935,8.39784],[-77.92391,8.40429],[-77.92505,8.41398],[-77.94227,8.43302],[-77.95509,8.43137],[-77.96485,8.43522],[-77.9711,8.43344],[-77.9758,8.43568],[-77.98001,8.44726],[-77.99472,8.44608],[-77.99822,8.45582],[-78.02191,8.47389],[-78.03162,8.47515],[-78.03492,8.47252],[-78.03523,8.46714],[-78.03968,8.47235],[-78.0495,8.46846],[-78.06012,8.47645],[-78.06075,8.49685],[-78.05244,8.50118],[-78.06142,8.51433],[-78.05798,8.52294],[-78.06255,8.53289],[-78.04866,8.5448],[-78.04884,8.54982],[-78.0424,8.56281],[-78.04729,8.56869],[-78.03684,8.58159],[-78.04979,8.59845],[-78.06209,8.60411],[-78.06413,8.60857],[-78.06966,8.60763],[-78.081,8.62051],[-78.07994,8.62638],[-78.07459,8.62899],[-78.05677,8.62697],[-78.05269,8.63958],[-78.04564,8.64338],[-78.04553,8.6529],[-78.05049,8.65734],[-78.05301,8.6721],[-78.06185,8.67718],[-78.06445,8.6865],[-78.06944,8.68818],[-78.06759,8.69589],[-78.078,8.69911],[-78.0765,8.70762],[-78.08389,8.70974],[-78.07636,8.72098],[-78.08345,8.73235],[-78.08413,8.74046],[-78.08034,8.74352],[-78.0698,8.73356],[-78.06726,8.72736],[-78.0559,8.72664],[-78.05234,8.72125],[-78.04315,8.71829],[-78.03913,8.72179],[-78.03313,8.72186],[-78.02844,8.71418],[-78.0201,8.71361],[-78.0149,8.7023],[-78.01042,8.70222],[-78.00872,8.68937],[-78.00221,8.68098],[-77.99106,8.68035],[-77.98835,8.67654],[-77.98151,8.67617],[-77.97847,8.6727],[-77.9749,8.67353],[-77.97417,8.67761],[-77.97423,8.67556],[-77.96994,8.67564],[-77.96798,8.67969],[-77.97234,8.68394],[-77.97063,8.68616],[-77.96745,8.68231],[-77.9656,8.69031],[-77.96641,8.68835],[-77.97634,8.69126],[-77.97193,8.69624],[-77.97114,8.69188],[-77.96819,8.69325],[-77.96804,8.69999],[-77.97147,8.69811],[-77.97032,8.70732],[-77.96496,8.70422],[-77.96211,8.70827],[-77.9667,8.71187],[-77.966,8.71637],[-77.97071,8.71557],[-77.97365,8.71947],[-77.96888,8.72294],[-77.96807,8.73627],[-77.97242,8.73799],[-77.97081,8.73321],[-77.97511,8.72834],[-77.97852,8.73555],[-77.98056,8.7336],[-77.98607,8.74008],[-77.98303,8.74557],[-77.97818,8.74834],[-77.97538,8.74667],[-77.97238,8.75045],[-77.97164,8.74799],[-77.96804,8.74906],[-77.96272,8.75421],[-77.96522,8.75723],[-77.95907,8.7569],[-77.95576,8.75096],[-77.94942,8.75099],[-77.94639,8.75164],[-77.94567,8.7566],[-77.93846,8.75571],[-77.93823,8.76029],[-77.93628,8.75915],[-77.93479,8.76228],[-77.9291,8.75928],[-77.929,8.76173],[-77.92579,8.76138],[-77.92964,8.76399],[-77.91788,8.76974],[-77.91434,8.77899],[-77.91979,8.77931],[-77.92093,8.78466],[-77.91767,8.78924],[-77.91589,8.78532],[-77.91089,8.78798],[-77.91124,8.79192],[-77.91701,8.79432],[-77.90907,8.79876],[-77.90688,8.8051],[-77.90875,8.80877],[-77.89933,8.80877],[-77.8978,8.8132],[-77.88758,8.81122],[-77.88638,8.81462],[-77.88219,8.81432],[-77.88238,8.80797],[-77.87768,8.80909],[-77.87502,8.80451],[-77.86918,8.8041],[-77.86818,8.79945],[-77.86121,8.80039],[-77.85969,8.79116],[-77.85514,8.79056],[-77.85149,8.79442],[-77.84403,8.78235],[-77.84498,8.77672],[-77.83763,8.77919],[-77.83899,8.76973],[-77.82935,8.77763],[-77.82672,8.77686],[-77.82574,8.7697],[-77.82349,8.7775],[-77.81777,8.78021],[-77.8185,8.78865],[-77.81136,8.78895],[-77.80879,8.79391],[-77.80416,8.78882],[-77.79959,8.79262],[-77.80046,8.79821],[-77.79585,8.7952],[-77.79503,8.80179],[-77.79079,8.80119],[-77.79229,8.8059],[-77.78789,8.80706],[-77.78947,8.81177],[-77.7801,8.81738],[-77.7847,8.82447],[-77.78338,8.82802],[-77.78808,8.83098],[-77.78498,8.83382],[-77.78595,8.83853],[-77.77624,8.8375],[-77.76967,8.84568],[-77.76978,8.85396],[-77.76554,8.85539],[-77.77611,8.87482],[-77.77251,8.88312],[-77.76566,8.87646],[-77.75981,8.87608],[-77.75203,8.86663],[-77.74649,8.86502],[-77.7497,8.85153],[-77.74651,8.84232],[-77.73124,8.83412],[-77.7275,8.82939],[-77.71714,8.83148],[-77.71525,8.82676],[-77.70852,8.82377],[-77.71249,8.81726],[-77.70887,8.81015],[-77.71203,8.80516],[-77.70619,8.79696],[-77.70743,8.78196],[-77.69913,8.78075],[-77.70122,8.77644],[-77.69641,8.76631],[-77.68388,8.76262],[-77.67895,8.76838],[-77.66259,8.75883],[-77.65431,8.74495],[-77.64414,8.7469],[-77.6399,8.74486],[-77.6355,8.73921],[-77.63649,8.72331],[-77.62769,8.7139],[-77.62159,8.69651],[-77.6016,8.69376],[-77.58751,8.6819],[-77.57816,8.67925],[-77.57169,8.66595],[-77.5778,8.65953],[-77.5768,8.64956],[-77.58388,8.63325],[-77.58261,8.62873],[-77.57247,8.61995],[-77.56891,8.6031],[-77.55332,8.59514],[-77.5476,8.58723],[-77.5383,8.59335],[-77.53093,8.5923],[-77.51771,8.6064],[-77.50933,8.60345],[-77.50497,8.60593],[-77.50219,8.61482],[-77.4968,8.61692],[-77.4895,8.60774],[-77.4952,8.59529],[-77.48529,8.58584],[-77.48629,8.57935],[-77.48169,8.5753],[-77.46999,8.57803],[-77.46338,8.5713],[-77.45419,8.5702],[-77.44719,8.55902],[-77.44036,8.55585],[-77.43736,8.54049],[-77.44063,8.52316],[-77.44513,8.51404],[-77.45627,8.50911],[-77.44796,8.49426],[-77.44757,8.47261],[-77.43784,8.47074],[-77.41795,8.47806],[-77.40387,8.47713],[-77.40356,8.46619],[-77.39787,8.46218],[-77.39538,8.4521],[-77.38587,8.43879],[-77.38619,8.43182],[-77.37006,8.40804],[-77.3591,8.40118],[-77.35502,8.38868],[-77.36171,8.3772],[-77.35773,8.36511],[-77.34991,8.36073],[-77.34592,8.35214],[-77.34953,8.34693],[-77.34937,8.335],[-77.35537,8.31715],[-77.35036,8.29766],[-77.3326,8.28154],[-77.33293,8.27337],[-77.3194,8.2741],[-77.31316,8.2705],[-77.3055,8.28661],[-77.29811,8.28518],[-77.29785,8.27756],[-77.30143,8.27196],[-77.2952,8.26627],[-77.29342,8.26038],[-77.28963,8.26007],[-77.28461,8.25399],[-77.2853,8.25055],[-77.28905,8.25001],[-77.29017,8.24421],[-77.28007,8.22751],[-77.28015,8.21665],[-77.26836,8.21142],[-77.26182,8.21195],[-77.25906,8.20432],[-77.26037,8.19282],[-77.25226,8.18925],[-77.25047,8.1854],[-77.24797,8.17692],[-77.24898,8.16221],[-77.25723,8.15791],[-77.25245,8.15498],[-77.25195,8.14996],[-77.2337,8.14269],[-77.22681,8.13633],[-77.22693,8.133],[-77.2318,8.13379],[-77.23482,8.12849],[-77.23214,8.11498],[-77.22715,8.10968],[-77.22527,8.10034],[-77.21786,8.08792],[-77.22022,8.07337],[-77.2243,8.0696],[-77.22716,8.05596],[-77.22998,8.05415],[-77.2276,8.04603],[-77.22951,8.04339],[-77.2261,8.04229],[-77.22432,8.03304],[-77.23299,8.02471],[-77.22825,8.02208],[-77.22121,8.02614],[-77.21508,8.02025],[-77.21694,8.01625],[-77.21323,8.00899],[-77.19939,7.9992],[-77.1911,7.98862],[-77.18686,7.98913],[-77.18252,7.98332],[-77.17107,7.97824],[-77.16227,7.96955],[-77.17787,7.96132],[-77.1848,7.94391],[-77.18151,7.93606],[-77.16801,7.93741],[-77.15883,7.93279],[-77.17605,7.91712],[-77.1913,7.92227],[-77.19689,7.91924],[-77.2088,7.92248],[-77.21571,7.91645],[-77.2317,7.92071],[-77.23796,7.92096],[-77.24005,7.91781],[-77.25748,7.91966],[-77.26939,7.91414],[-77.27584,7.90769],[-77.28993,7.90785],[-77.29525,7.91089],[-77.29795,7.90582],[-77.30796,7.90083],[-77.31054,7.89664],[-77.31677,7.89895],[-77.32498,7.89578],[-77.32274,7.88466],[-77.33563,7.87616],[-77.34018,7.86816],[-77.33983,7.85196],[-77.34723,7.84948],[-77.34588,7.84531],[-77.34811,7.84264],[-77.3527,7.84247],[-77.35759,7.83499],[-77.36296,7.8338],[-77.35587,7.82064],[-77.3572,7.81034],[-77.3473,7.80265],[-77.34846,7.79586],[-77.33728,7.7825],[-77.33891,7.77695],[-77.33522,7.77237],[-77.34057,7.77139],[-77.33951,7.76611],[-77.34452,7.76256],[-77.3536,7.76479],[-77.35811,7.76313],[-77.3688,7.7692],[-77.37469,7.76665],[-77.38071,7.75559],[-77.3915,7.7599],[-77.39484,7.74153],[-77.40033,7.73547],[-77.4002,7.72904],[-77.40495,7.72628],[-77.40481,7.72236],[-77.41452,7.72299],[-77.41853,7.71722],[-77.41628,7.70768],[-77.41847,7.69897],[-77.42689,7.69207],[-77.43094,7.69206],[-77.43713,7.6825],[-77.44107,7.65717],[-77.46702,7.65571],[-77.47011,7.6514],[-77.46521,7.63625],[-77.47529,7.61989],[-77.48098,7.61658],[-77.48238,7.60442],[-77.4899,7.59285],[-77.49239,7.58257],[-77.48824,7.57112],[-77.4916,7.56767],[-77.50231,7.56735],[-77.51537,7.575],[-77.52314,7.57292],[-77.52764,7.56754],[-77.52512,7.55924],[-77.5283,7.55781],[-77.53196,7.54658],[-77.54708,7.53127],[-77.54918,7.52309],[-77.55624,7.51997],[-77.56209,7.51273],[-77.56262,7.50806],[-77.56835,7.50786],[-77.57621,7.51474],[-77.58439,7.51426],[-77.59244,7.52654],[-77.59071,7.53029],[-77.59321,7.53502],[-77.59992,7.53643],[-77.61171,7.54859],[-77.609,7.5611],[-77.62412,7.57861],[-77.6265,7.58943],[-77.63106,7.59493],[-77.6316,7.60569],[-77.63738,7.61203],[-77.6406,7.62985],[-77.64496,7.63478],[-77.64614,7.65165],[-77.65633,7.66114],[-77.67169,7.66804],[-77.67542,7.67753],[-77.68242,7.67427],[-77.68619,7.68601],[-77.69156,7.68477],[-77.69832,7.69274],[-77.72862,7.69607],[-77.72816,7.70631],[-77.7449,7.7162],[-77.74297,7.73466],[-77.73366,7.76033],[-77.73729,7.77218],[-77.73267,7.77488],[-77.72301,7.78957],[-77.72569,7.79804],[-77.72289,7.81556],[-77.7102,7.8403],[-77.713,7.85406],[-77.7062,7.8607],[-77.70415,7.86989],[-77.69744,7.87774],[-77.69942,7.88248],[-77.69425,7.88719],[-77.69381,7.90101],[-77.69494,7.91033],[-77.70303,7.92687],[-77.70257,7.94185]]],[[[-77.81612,8.12828],[-77.79464,8.12365],[-77.79351,8.11951],[-77.80412,8.10674],[-77.82769,8.14499],[-77.82402,8.14313],[-77.81612,8.12828]]]]}}]}