{"type":"FeatureCollection","features":[{"type":"Feature","properties":{"codigo":"6-1","provincia":"Herrera","descripcion":"Distrito de Chitré","diputados_a_elegir":1,"poblacion_electores_2022":42143,"bbox":[-80.51188,7.93269,-80.38736,8.02771]},"geometry":{"type":"Polygon","coordinates":[[[-80.40329,7.95353],[-80.41771,7.94945],[-80.41855,7.94411],[-80.42304,7.93983],[-80.42491,7.94341],[-80.43403,7.94208],[-80.43584,7.93898],[-80.44281,7.9414],[-80.44372,7.93801],[-80.44885,7.93623],[-80.45927,7.94542],[-80.45982,7.93311],[-80.46327,7.93363],[-80.46582,7.94425],[-80.47243,7.94829],[-80.47975,7.94723],[-80.4845,7.94057],[-80.4975,7.93269],[-80.50755,7.93337],[-80.51188,7.93633],[-80.5002,7.97745],[-80.50206,7.97931],[-80.494,7.97986],[-80.49484,7.98492],[-80.48871,7.98701],[-80.49071,7.99165],[-80.48233,7.99936],[-80.48511,7.99915],[-80.48422,8.00128],[-80.47944,8.00122],[-80.48112,8.00395],[-80.47576,8.00787],[-80.47342,8.00612],[-80.4727,8.01102],[-80.46715,8.01207],[-80.46846,8.01418],[-80.46577,8.01638],[-80.46257,8.01412],[-80.46192,8.01607],[-80.46639,8.01771],[-80.46263,8.0201],[-80.46289,8.02396],[-80.45993,8.02233],[-80.46382,8.02514],[-80.46028,8.02771],[-80.45739,8.0237],[-80.46155,8.01914],[-80.45934,8.01699],[-80.45557,8.01688],[-80.44909,8.0273],[-80.4442,8.02249],[-80.42952,8.02103],[-80.42287,8.01454],[-80.40511,8.00597],[-80.40259,8.00156],[-80.39612,8.00358],[-80.38736,7.99782],[-80.39039,7.99282],[-80.39552,7.99315],[-80.39398,7.9876],[-80.39835,7.9928],[-80.40189,7.9928],[-80.398,7.98756],[-80.40206,7.98683],[-80.40121,7.97808],[-80.39572,7.97532],[-80.3941,7.97818],[-80.39181,7.97634],[-80.39419,7.97412],[-80.3893,7.97153],[-80.39421,7.96968],[-80.39937,7.95972],[-80.40505,7.9589],[-80.40329,7.95353]]]}}]}