{"type":"FeatureCollection","features":[{"type":"Feature","properties":{"codigo":"6-2","provincia":"Herrera","descripcion":"Los Pozos, Parita y Pesé","diputados_a_elegir":1,"poblacion_electores_2022":28613,"bbox":[-80.78003,7.53934,-80.44909,8.12401]},"geometry":{"type":"Polygon","coordinates":[[[-80.66162,7.60632],[-80.7216,7.53934],[-80.73252,7.54037],[-80.74124,7.54577],[-80.74206,7.5573],[-80.75614,7.57128],[-80.76892,7.56862],[-80.77628,7.5699],[-80.78003,7.57405],[-80.77295,7.61976],[-80.77872,7.61993],[-80.77575,7.63281],[-80.78001,7.63426],[-80.77991,7.64495],[-80.77353,7.6537],[-80.75404,7.65509],[-80.74659,7.64894],[-80.74056,7.65397],[-80.73396,7.65494],[-80.7317,7.65916],[-80.72454,7.66093],[-80.70963,7.70415],[-80.69508,7.7587],[-80.69159,7.78842],[-80.69618,7.79137],[-80.69121,7.7925],[-80.68825,7.7984],[-80.68793,7.81107],[-80.69323,7.81278],[-80.69104,7.8215],[-80.71303,7.83579],[-80.7119,7.83964],[-80.72092,7.85575],[-80.72539,7.85824],[-80.72359,7.86109],[-80.72997,7.8727],[-80.72751,7.87813],[-80.7232,7.87875],[-80.71659,7.892],[-80.71857,7.89554],[-80.71438,7.91938],[-80.70819,7.9239],[-80.70882,7.93111],[-80.69493,7.93895],[-80.69226,7.94328],[-80.68701,7.94273],[-80.67225,7.93284],[-80.66911,7.94453],[-80.66352,7.94198],[-80.65956,7.94629],[-80.6503,7.94741],[-80.65971,7.97915],[-80.66954,7.98684],[-80.67081,7.99082],[-80.676,7.99196],[-80.67488,7.99567],[-80.67767,7.99905],[-80.67515,8.00521],[-80.67946,8.01112],[-80.67712,8.02277],[-80.68877,8.0301],[-80.68939,8.0348],[-80.69507,8.0398],[-80.70145,8.04139],[-80.70268,8.04574],[-80.70959,8.04721],[-80.70736,8.05141],[-80.71234,8.05307],[-80.71369,8.05698],[-80.70983,8.05847],[-80.71999,8.06561],[-80.71625,8.07608],[-80.71252,8.07466],[-80.70882,8.08411],[-80.70296,8.08708],[-80.70196,8.08525],[-80.70029,8.08935],[-80.6856,8.08667],[-80.67878,8.0957],[-80.67335,8.09348],[-80.66406,8.09683],[-80.65238,8.09129],[-80.63836,8.09472],[-80.63646,8.09152],[-80.62663,8.09106],[-80.62633,8.08905],[-80.61663,8.09483],[-80.61312,8.09199],[-80.60738,8.09517],[-80.6047,8.09137],[-80.59125,8.09278],[-80.58623,8.08977],[-80.57956,8.0954],[-80.56771,8.09183],[-80.56726,8.09462],[-80.5556,8.09982],[-80.5577,8.10303],[-80.5527,8.10787],[-80.5514,8.11755],[-80.54054,8.11328],[-80.53907,8.12401],[-80.53179,8.12113],[-80.53346,8.11575],[-80.5269,8.11725],[-80.52548,8.12384],[-80.5231,8.11912],[-80.52574,8.11088],[-80.51737,8.11017],[-80.51904,8.10463],[-80.51701,8.10099],[-80.51014,8.10195],[-80.50851,8.10525],[-80.51067,8.11003],[-80.50609,8.11193],[-80.5052,8.10521],[-80.49769,8.10267],[-80.49771,8.09479],[-80.48449,8.09122],[-80.47899,8.08211],[-80.46997,8.07557],[-80.46566,8.05285],[-80.4503,8.03291],[-80.44909,8.0273],[-80.45601,8.01666],[-80.46157,8.01845],[-80.45744,8.02337],[-80.45957,8.0274],[-80.46339,8.02582],[-80.46041,8.0248],[-80.45977,8.02268],[-80.46289,8.02396],[-80.46263,8.0201],[-80.4664,8.01752],[-80.46379,8.01782],[-80.46257,8.01412],[-80.46577,8.01638],[-80.46846,8.01418],[-80.46715,8.01207],[-80.4727,8.01102],[-80.47342,8.00612],[-80.47576,8.00787],[-80.48112,8.00395],[-80.47944,8.00122],[-80.48422,8.00128],[-80.48511,7.99915],[-80.48233,7.99936],[-80.49071,7.99165],[-80.48871,7.98701],[-80.49484,7.98492],[-80.494,7.97986],[-80.50206,7.97931],[-80.5002,7.97745],[-80.51188,7.93633],[-80.50755,7.93337],[-80.50152,7.93402],[-80.49994,7.93345],[-80.50449,7.92861],[-80.50338,7.92331],[-80.50811,7.92343],[-80.51346,7.91667],[-80.52243,7.91284],[-80.52501,7.90462],[-80.52109,7.90203],[-80.5218,7.89539],[-80.52739,7.89916],[-80.52904,7.89756],[-80.53204,7.88922],[-80.53201,7.87631],[-80.53723,7.87037],[-80.53544,7.86606],[-80.54047,7.85863],[-80.5401,7.85171],[-80.54865,7.84872],[-80.55148,7.85317],[-80.55642,7.85427],[-80.55773,7.8462],[-80.56902,7.84445],[-80.56779,7.83796],[-80.57909,7.84094],[-80.58429,7.83711],[-80.58767,7.82816],[-80.5909,7.8292],[-80.5912,7.82532],[-80.59547,7.82466],[-80.59086,7.81957],[-80.59123,7.81494],[-80.58068,7.8184],[-80.5854,7.81082],[-80.57994,7.80713],[-80.58917,7.80067],[-80.5872,7.79667],[-80.58928,7.79404],[-80.58473,7.791],[-80.58805,7.78856],[-80.58748,7.78502],[-80.58238,7.77956],[-80.58152,7.77368],[-80.57435,7.77222],[-80.57214,7.76778],[-80.57324,7.75965],[-80.56941,7.76402],[-80.56359,7.76119],[-80.56736,7.75776],[-80.56719,7.74958],[-80.5638,7.74833],[-80.56393,7.74415],[-80.55934,7.74136],[-80.56022,7.73594],[-80.55685,7.73427],[-80.56287,7.71077],[-80.56965,7.71029],[-80.57071,7.69964],[-80.57936,7.68554],[-80.58672,7.68768],[-80.59349,7.68568],[-80.5942,7.6753],[-80.59984,7.67488],[-80.605,7.68005],[-80.61354,7.67602],[-80.61931,7.67673],[-80.62316,7.66933],[-80.63071,7.668],[-80.62951,7.66019],[-80.66162,7.60632]]]}}]}