{"type":"FeatureCollection","features":[{"type":"Feature","properties":{"codigo":"6-3","provincia":"Herrera","descripcion":"Las Minas, Ocú y Santa María","diputados_a_elegir":1,"poblacion_electores_2022":29460,"bbox":[-80.96351,7.57072,-80.55552,8.14641]},"geometry":{"type":"Polygon","coordinates":[[[-80.77277,7.65355],[-80.78046,7.64236],[-80.77996,7.63413],[-80.77575,7.63281],[-80.77872,7.61993],[-80.77295,7.61976],[-80.78003,7.57405],[-80.78718,7.57072],[-80.79326,7.57438],[-80.80067,7.5725],[-80.89132,7.70056],[-80.91291,7.73773],[-80.91636,7.73412],[-80.92284,7.73829],[-80.93339,7.73961],[-80.93494,7.74388],[-80.95132,7.75017],[-80.95122,7.75469],[-80.95711,7.75101],[-80.96077,7.75194],[-80.95325,7.76176],[-80.95632,7.76291],[-80.95458,7.76655],[-80.95941,7.76596],[-80.96351,7.77479],[-80.95558,7.78141],[-80.94858,7.78174],[-80.94619,7.78562],[-80.94964,7.78958],[-80.94622,7.79235],[-80.95502,7.80088],[-80.95317,7.8104],[-80.9511,7.81038],[-80.94203,7.82947],[-80.94999,7.83015],[-80.94497,7.85951],[-80.95065,7.87898],[-80.9419,7.88673],[-80.94353,7.89859],[-80.93667,7.90619],[-80.96257,7.91406],[-80.95129,7.91691],[-80.94555,7.91389],[-80.94093,7.9173],[-80.93164,7.91845],[-80.93109,7.92273],[-80.92555,7.92719],[-80.91777,7.92025],[-80.91389,7.92325],[-80.89601,7.9243],[-80.89431,7.94411],[-80.88254,7.95729],[-80.88146,7.96269],[-80.86518,7.96872],[-80.86333,7.9846],[-80.85778,7.98353],[-80.85351,8.00104],[-80.8399,8.00486],[-80.8471,8.01919],[-80.84574,8.02209],[-80.85097,8.02274],[-80.85472,8.02955],[-80.86329,8.03017],[-80.86061,8.03744],[-80.86579,8.04238],[-80.86345,8.04392],[-80.86956,8.05301],[-80.86813,8.05595],[-80.86231,8.05941],[-80.86276,8.06302],[-80.85414,8.06123],[-80.84911,8.06604],[-80.84585,8.06425],[-80.83837,8.07207],[-80.83328,8.06694],[-80.82779,8.07089],[-80.82188,8.06941],[-80.81872,8.07161],[-80.82015,8.07833],[-80.8181,8.07636],[-80.81015,8.08344],[-80.8013,8.08481],[-80.7961,8.08977],[-80.79321,8.087],[-80.78241,8.08869],[-80.7849,8.09223],[-80.78038,8.09888],[-80.781,8.10404],[-80.77828,8.1018],[-80.76747,8.10484],[-80.76682,8.10195],[-80.76239,8.10712],[-80.76213,8.11269],[-80.76544,8.11695],[-80.76197,8.1173],[-80.76576,8.12443],[-80.75874,8.13075],[-80.75639,8.12982],[-80.75758,8.13256],[-80.75197,8.13431],[-80.75477,8.14113],[-80.74554,8.14261],[-80.7438,8.14011],[-80.74156,8.14138],[-80.74291,8.14425],[-80.73427,8.14245],[-80.73246,8.14399],[-80.73466,8.14412],[-80.73491,8.1456],[-80.73251,8.14641],[-80.73049,8.1381],[-80.72262,8.14068],[-80.707,8.13123],[-80.7051,8.13437],[-80.7037,8.13071],[-80.69968,8.1353],[-80.6951,8.13577],[-80.69409,8.1334],[-80.69094,8.13481],[-80.69224,8.13722],[-80.67648,8.13862],[-80.67135,8.13326],[-80.67709,8.1351],[-80.67979,8.13247],[-80.66551,8.12926],[-80.66467,8.12318],[-80.65014,8.13137],[-80.6433,8.1291],[-80.6394,8.13412],[-80.62903,8.13846],[-80.61416,8.14114],[-80.59804,8.13994],[-80.59285,8.14523],[-80.5882,8.14498],[-80.58784,8.13931],[-80.59777,8.13796],[-80.5982,8.13407],[-80.58443,8.13],[-80.57736,8.13845],[-80.57302,8.13248],[-80.56655,8.13295],[-80.56717,8.12973],[-80.5568,8.1214],[-80.56139,8.10934],[-80.55671,8.1058],[-80.55552,8.09997],[-80.56726,8.09462],[-80.56763,8.09186],[-80.57956,8.0954],[-80.58623,8.08977],[-80.59125,8.09278],[-80.6047,8.09137],[-80.60738,8.09517],[-80.61312,8.09199],[-80.61663,8.09483],[-80.62633,8.08905],[-80.62663,8.09106],[-80.63646,8.09152],[-80.63836,8.09472],[-80.65238,8.09129],[-80.66406,8.09683],[-80.67335,8.09348],[-80.67872,8.09571],[-80.6856,8.08667],[-80.70049,8.0893],[-80.70196,8.08525],[-80.70296,8.08708],[-80.70893,8.084],[-80.71252,8.07466],[-80.71604,8.07629],[-80.7182,8.07161],[-80.72,8.06547],[-80.70983,8.05847],[-80.71313,8.05847],[-80.71369,8.05698],[-80.71234,8.05307],[-80.70736,8.05141],[-80.70959,8.04721],[-80.70268,8.04574],[-80.70145,8.04139],[-80.69507,8.0398],[-80.68939,8.0348],[-80.68877,8.0301],[-80.67712,8.02277],[-80.67946,8.01112],[-80.67515,8.00521],[-80.67767,7.99905],[-80.67488,7.99567],[-80.676,7.99196],[-80.67081,7.99082],[-80.66954,7.98684],[-80.65971,7.97915],[-80.6503,7.94741],[-80.65956,7.94629],[-80.66352,7.94198],[-80.66911,7.94453],[-80.67225,7.93284],[-80.68701,7.94273],[-80.69226,7.94328],[-80.69493,7.93895],[-80.70882,7.93111],[-80.70819,7.9239],[-80.71438,7.91938],[-80.71857,7.89554],[-80.71659,7.892],[-80.7232,7.87875],[-80.72751,7.87813],[-80.72997,7.8727],[-80.72359,7.86109],[-80.72539,7.85824],[-80.72092,7.85575],[-80.7119,7.83964],[-80.71303,7.83579],[-80.69104,7.8215],[-80.69323,7.81278],[-80.68793,7.81107],[-80.68825,7.7984],[-80.69121,7.7925],[-80.69618,7.79137],[-80.69159,7.78842],[-80.69508,7.7587],[-80.70963,7.70415],[-80.72454,7.66093],[-80.7317,7.65916],[-80.73396,7.65494],[-80.74056,7.65397],[-80.74659,7.64894],[-80.75404,7.65509],[-80.77277,7.65355]]]}}]}