{"type":"FeatureCollection","features":[{"type":"Feature","properties":{"codigo":"7-1","provincia":"Los Santos","descripcion":"Las Tablas, Pocrí, Pedasí y Guararé","diputados_a_elegir":1,"poblacion_electores_2022":41919,"bbox":[-80.51354,7.41126,-79.99288,7.90522]},"geometry":{"type":"Polygon","coordinates":[[[-80.37601,7.53712],[-80.51354,7.56181],[-80.41485,7.64789],[-80.43141,7.64719],[-80.43444,7.65757],[-80.42845,7.66689],[-80.42754,7.67644],[-80.42189,7.68369],[-80.42799,7.70451],[-80.41506,7.71784],[-80.4205,7.71956],[-80.41823,7.7228],[-80.42679,7.73194],[-80.43019,7.7394],[-80.4283,7.74154],[-80.43254,7.74416],[-80.43687,7.74298],[-80.4385,7.75],[-80.43527,7.75462],[-80.43734,7.75867],[-80.43199,7.7624],[-80.43524,7.76781],[-80.4311,7.77001],[-80.42734,7.77945],[-80.4291,7.78767],[-80.42581,7.78973],[-80.41881,7.78759],[-80.41701,7.79747],[-80.41454,7.79674],[-80.41129,7.80219],[-80.4067,7.79998],[-80.39276,7.80474],[-80.38836,7.8028],[-80.38655,7.8053],[-80.37326,7.7985],[-80.37252,7.80199],[-80.36829,7.80043],[-80.36663,7.80302],[-80.3697,7.80811],[-80.36472,7.81903],[-80.35265,7.82283],[-80.34471,7.83773],[-80.33016,7.84117],[-80.32517,7.85249],[-80.3299,7.86747],[-80.32584,7.8747],[-80.32568,7.88343],[-80.31972,7.88855],[-80.32296,7.89492],[-80.3215,7.90522],[-80.29978,7.88442],[-80.28685,7.86496],[-80.27975,7.86457],[-80.26373,7.84846],[-80.24381,7.83462],[-80.22522,7.82744],[-80.2243,7.82255],[-80.21773,7.81897],[-80.1979,7.79688],[-80.19358,7.78071],[-80.19168,7.78297],[-80.17093,7.76778],[-80.16756,7.75835],[-80.15705,7.75721],[-80.14243,7.7463],[-80.13221,7.73405],[-80.12291,7.71216],[-80.11471,7.70341],[-80.1173,7.69997],[-80.10806,7.70034],[-80.08971,7.67942],[-80.08435,7.66703],[-80.07334,7.65333],[-80.06855,7.64853],[-80.06501,7.65083],[-80.05628,7.64577],[-80.04745,7.63616],[-80.04903,7.62801],[-80.03291,7.59627],[-80.03186,7.57738],[-80.02821,7.56839],[-80.00691,7.54528],[-80.00301,7.52915],[-79.99762,7.52466],[-79.99288,7.51455],[-80.0023,7.50168],[-79.99786,7.48206],[-80.00268,7.47478],[-79.9991,7.47447],[-80.00018,7.47269],[-79.99845,7.47445],[-79.9982,7.47035],[-80.00121,7.46614],[-80.01356,7.46009],[-80.01323,7.45741],[-80.01706,7.45889],[-80.02444,7.45626],[-80.03104,7.44965],[-80.05214,7.45352],[-80.06442,7.45074],[-80.06979,7.44487],[-80.069,7.44138],[-80.07972,7.44081],[-80.08116,7.43568],[-80.09054,7.43582],[-80.09562,7.42906],[-80.12854,7.43281],[-80.13316,7.42619],[-80.14538,7.42381],[-80.14674,7.41639],[-80.15276,7.41857],[-80.15621,7.41582],[-80.16031,7.41724],[-80.16159,7.41126],[-80.17443,7.41172],[-80.17627,7.41371],[-80.17371,7.41618],[-80.17988,7.41923],[-80.18209,7.41582],[-80.1872,7.41819],[-80.18451,7.42305],[-80.18613,7.428],[-80.19635,7.43279],[-80.20609,7.43032],[-80.20501,7.42257],[-80.21153,7.42555],[-80.21887,7.41678],[-80.22961,7.42491],[-80.20702,7.4512],[-80.25998,7.47469],[-80.26103,7.47748],[-80.25767,7.48025],[-80.26274,7.48644],[-80.25762,7.49211],[-80.25744,7.49836],[-80.27308,7.51107],[-80.32332,7.50896],[-80.35162,7.46772],[-80.35836,7.47343],[-80.36818,7.49328],[-80.36796,7.5013],[-80.3717,7.50688],[-80.36817,7.51127],[-80.37601,7.53712]]]}}]}