{"type":"FeatureCollection","features":[{"type":"Feature","properties":{"codigo":"7-2","provincia":"Los Santos","descripcion":"Los Santos, Macaracas y Tonosí","diputados_a_elegir":1,"poblacion_electores_2022":39946,"bbox":[-80.73594,7.22778,-80.20702,8.0047]},"geometry":{"type":"Polygon","coordinates":[[[-80.44012,7.24105],[-80.45901,7.24745],[-80.46014,7.24562],[-80.48049,7.24735],[-80.49119,7.25035],[-80.50189,7.24853],[-80.50721,7.25114],[-80.52153,7.23762],[-80.54456,7.24323],[-80.56549,7.24437],[-80.58015,7.22778],[-80.58373,7.23317],[-80.59468,7.2359],[-80.60259,7.23039],[-80.61407,7.23269],[-80.61188,7.2435],[-80.61488,7.24894],[-80.61189,7.26105],[-80.61739,7.29713],[-80.6352,7.29777],[-80.63851,7.3017],[-80.65033,7.30486],[-80.65983,7.31703],[-80.65967,7.32448],[-80.67039,7.33007],[-80.67809,7.32695],[-80.68097,7.3183],[-80.68297,7.32057],[-80.67903,7.32816],[-80.66738,7.33676],[-80.66957,7.3406],[-80.66671,7.34826],[-80.66956,7.35181],[-80.66413,7.35411],[-80.66914,7.35817],[-80.66925,7.37324],[-80.67871,7.38836],[-80.68567,7.39463],[-80.697,7.39716],[-80.70314,7.40361],[-80.71524,7.40754],[-80.71938,7.41383],[-80.71292,7.42234],[-80.70148,7.42868],[-80.7091,7.43678],[-80.70916,7.44126],[-80.71492,7.44953],[-80.71483,7.4564],[-80.7208,7.45717],[-80.73142,7.46902],[-80.71558,7.49301],[-80.72271,7.50685],[-80.73006,7.51133],[-80.72908,7.52015],[-80.73594,7.52464],[-80.72855,7.53084],[-80.72753,7.53545],[-80.71923,7.54016],[-80.66136,7.60662],[-80.62951,7.66019],[-80.63071,7.668],[-80.62316,7.66933],[-80.61931,7.67673],[-80.61354,7.67602],[-80.605,7.68005],[-80.59984,7.67488],[-80.5942,7.6753],[-80.59349,7.68568],[-80.58672,7.68768],[-80.57936,7.68554],[-80.57071,7.69964],[-80.56965,7.71029],[-80.56287,7.71077],[-80.55685,7.73427],[-80.56022,7.73594],[-80.55934,7.74136],[-80.56393,7.74415],[-80.5638,7.74833],[-80.56719,7.74958],[-80.56736,7.75776],[-80.56359,7.76119],[-80.56941,7.76402],[-80.57324,7.75965],[-80.57214,7.76778],[-80.57435,7.77222],[-80.58152,7.77368],[-80.58238,7.77956],[-80.58748,7.78502],[-80.58805,7.78856],[-80.58473,7.791],[-80.58928,7.79404],[-80.5872,7.79667],[-80.58917,7.80067],[-80.57994,7.80713],[-80.5854,7.81082],[-80.58068,7.8184],[-80.59123,7.81494],[-80.59086,7.81957],[-80.59538,7.82484],[-80.5912,7.82532],[-80.5909,7.8292],[-80.58767,7.82816],[-80.58429,7.83711],[-80.57909,7.84094],[-80.56779,7.83796],[-80.56902,7.84445],[-80.55773,7.8462],[-80.55642,7.85427],[-80.55148,7.85317],[-80.54918,7.84882],[-80.54084,7.8508],[-80.54047,7.85863],[-80.53572,7.86424],[-80.53723,7.87037],[-80.53204,7.87618],[-80.53204,7.88922],[-80.52904,7.89756],[-80.52739,7.89916],[-80.5218,7.89539],[-80.52109,7.90203],[-80.52501,7.90462],[-80.52243,7.91284],[-80.51346,7.91667],[-80.50811,7.92343],[-80.50338,7.92331],[-80.50452,7.92853],[-80.50028,7.93341],[-80.48939,7.93684],[-80.47975,7.94723],[-80.47271,7.94829],[-80.46511,7.94327],[-80.46229,7.93293],[-80.45862,7.934],[-80.45911,7.94545],[-80.44902,7.93625],[-80.44372,7.93801],[-80.44281,7.9414],[-80.43584,7.93898],[-80.43403,7.94208],[-80.42491,7.94341],[-80.42288,7.93991],[-80.41855,7.94411],[-80.41771,7.94945],[-80.40358,7.95326],[-80.40505,7.9589],[-80.39937,7.95972],[-80.39421,7.96968],[-80.38938,7.97124],[-80.39419,7.97412],[-80.39181,7.97634],[-80.3941,7.97818],[-80.39572,7.97532],[-80.40121,7.97808],[-80.40206,7.98683],[-80.398,7.98756],[-80.40176,7.99297],[-80.39398,7.9876],[-80.39522,7.99342],[-80.39053,7.99274],[-80.37523,8.00426],[-80.3709,8.0047],[-80.3617,8.00033],[-80.3523,7.98094],[-80.34768,7.9794],[-80.33638,7.96696],[-80.33911,7.96292],[-80.32343,7.93045],[-80.31812,7.90284],[-80.32255,7.90445],[-80.32045,7.90104],[-80.32293,7.89468],[-80.31975,7.88842],[-80.32568,7.88343],[-80.32584,7.8747],[-80.32992,7.86736],[-80.32517,7.85249],[-80.33016,7.84117],[-80.34471,7.83773],[-80.35265,7.82283],[-80.36472,7.81903],[-80.3697,7.80811],[-80.36663,7.80302],[-80.36822,7.80047],[-80.37252,7.80199],[-80.37326,7.7985],[-80.38655,7.8053],[-80.38836,7.8028],[-80.39276,7.80474],[-80.4067,7.79998],[-80.41129,7.80219],[-80.41454,7.79674],[-80.41701,7.79747],[-80.41881,7.78759],[-80.42581,7.78973],[-80.42906,7.78775],[-80.42734,7.77945],[-80.4311,7.77001],[-80.43524,7.76781],[-80.43199,7.7624],[-80.43734,7.75867],[-80.43527,7.75462],[-80.4385,7.75],[-80.43687,7.74298],[-80.43254,7.74416],[-80.4283,7.74154],[-80.43019,7.7394],[-80.42679,7.73194],[-80.41823,7.7228],[-80.4205,7.71956],[-80.41506,7.71784],[-80.42799,7.70451],[-80.42189,7.68369],[-80.42754,7.67644],[-80.42845,7.66689],[-80.43444,7.65757],[-80.43141,7.64719],[-80.41485,7.64789],[-80.51354,7.56181],[-80.37601,7.53712],[-80.36817,7.51127],[-80.3717,7.50688],[-80.36796,7.5013],[-80.36818,7.49328],[-80.35836,7.47343],[-80.35162,7.46772],[-80.32332,7.50896],[-80.27316,7.51112],[-80.25744,7.49836],[-80.25762,7.49211],[-80.26274,7.48644],[-80.25767,7.48025],[-80.26103,7.47748],[-80.25998,7.47469],[-80.20702,7.4512],[-80.22961,7.42491],[-80.24235,7.42317],[-80.25,7.42969],[-80.26442,7.42264],[-80.2995,7.41579],[-80.31849,7.40729],[-80.34249,7.38945],[-80.35834,7.37268],[-80.36321,7.36361],[-80.36836,7.36358],[-80.36048,7.35118],[-80.35232,7.34769],[-80.35472,7.33349],[-80.34168,7.31983],[-80.37406,7.31399],[-80.3757,7.31102],[-80.37907,7.31233],[-80.3923,7.30492],[-80.40057,7.2861],[-80.39862,7.27934],[-80.4214,7.27272],[-80.42457,7.26425],[-80.42022,7.26137],[-80.4278,7.25496],[-80.42479,7.24985],[-80.42954,7.24925],[-80.43068,7.24323],[-80.44012,7.24105]]]}}]}