{"type":"FeatureCollection","features":[{"type":"Feature","properties":{"codigo":"8-1","provincia":"Panamá","descripcion":"Balboa, Chepo, Chimán y Taboga","diputados_a_elegir":1,"poblacion_electores_2022":44421,"bbox":[-79.57076,8.20882,-78.06435,9.3996]},"geometry":{"type":"MultiPolygon","coordinates":[[[[-79.13782,9.08926],[-79.13822,9.09356],[-79.15187,9.10058],[-79.15741,9.10132],[-79.16759,9.0966],[-79.18879,9.10074],[-79.19116,9.10653],[-79.20069,9.11544],[-79.21858,9.11591],[-79.23262,9.12699],[-79.23171,9.13388],[-79.24079,9.15483],[-79.24078,9.16286],[-79.23883,9.17094],[-79.23266,9.17747],[-79.22434,9.17927],[-79.22651,9.18682],[-79.21828,9.19506],[-79.21319,9.19712],[-79.21093,9.19531],[-79.19796,9.20367],[-79.19416,9.20324],[-79.1898,9.20691],[-79.1891,9.21179],[-79.17729,9.21531],[-79.17075,9.22101],[-79.15734,9.21895],[-79.16453,9.23293],[-79.1681,9.23341],[-79.16781,9.24373],[-79.17229,9.24357],[-79.18438,9.2515],[-79.18874,9.25252],[-79.19595,9.24278],[-79.20509,9.24685],[-79.21467,9.24725],[-79.21644,9.25383],[-79.22465,9.25404],[-79.23599,9.26282],[-79.26225,9.2635],[-79.27233,9.26889],[-79.27317,9.27442],[-79.28555,9.28691],[-79.2754,9.30057],[-79.2756,9.30641],[-79.27905,9.31],[-79.27708,9.32129],[-79.27323,9.32129],[-79.2688,9.31514],[-79.25909,9.31276],[-79.24582,9.31593],[-79.23904,9.31082],[-79.22492,9.31608],[-79.21785,9.31094],[-79.20494,9.31969],[-79.194,9.32146],[-79.19104,9.32666],[-79.1822,9.33021],[-79.16849,9.32946],[-79.16333,9.33371],[-79.15529,9.33355],[-79.15374,9.33581],[-79.14959,9.32616],[-79.1373,9.32653],[-79.13362,9.32345],[-79.11958,9.3306],[-79.10173,9.3321],[-79.09711,9.3215],[-79.08627,9.31089],[-79.09778,9.30261],[-79.0967,9.2956],[-79.08805,9.29808],[-79.08557,9.29602],[-79.07426,9.29683],[-79.06988,9.3028],[-79.05652,9.30484],[-79.05225,9.29803],[-79.04383,9.30006],[-79.04169,9.29654],[-79.02786,9.29537],[-79.02566,9.29817],[-79.01546,9.2925],[-79.01269,9.29612],[-79.00958,9.2951],[-79.00804,9.29891],[-78.99991,9.30109],[-78.99605,9.29686],[-78.98722,9.30054],[-78.98444,9.30877],[-78.99393,9.31137],[-78.99954,9.31642],[-79.0003,9.33072],[-78.99128,9.34171],[-78.98883,9.34043],[-78.98651,9.34404],[-78.9836,9.3425],[-78.98202,9.34536],[-78.97571,9.34555],[-78.96878,9.34129],[-78.96598,9.34461],[-78.96241,9.34074],[-78.95789,9.34216],[-78.94704,9.33584],[-78.94333,9.33961],[-78.94095,9.32962],[-78.9358,9.32761],[-78.93911,9.31598],[-78.93534,9.31091],[-78.94196,9.30799],[-78.93896,9.30299],[-78.93264,9.30212],[-78.92527,9.30385],[-78.92229,9.31166],[-78.93261,9.31503],[-78.93332,9.3217],[-78.92302,9.32694],[-78.92245,9.3331],[-78.91284,9.33441],[-78.91564,9.33755],[-78.91633,9.35049],[-78.90476,9.35303],[-78.90035,9.36547],[-78.89336,9.37022],[-78.87742,9.37236],[-78.87376,9.3694],[-78.86737,9.37203],[-78.86163,9.36676],[-78.8549,9.37178],[-78.84729,9.36975],[-78.83825,9.37228],[-78.81762,9.3688],[-78.81505,9.38127],[-78.81817,9.38875],[-78.806,9.387],[-78.79204,9.39474],[-78.78523,9.38986],[-78.77642,9.39585],[-78.77057,9.39045],[-78.76289,9.39839],[-78.76064,9.39346],[-78.74976,9.38754],[-78.73846,9.39068],[-78.73059,9.38807],[-78.72351,9.39332],[-78.71626,9.3957],[-78.71138,9.39418],[-78.7058,9.39886],[-78.69987,9.3996],[-78.69707,9.39224],[-78.68941,9.38793],[-78.68853,9.38473],[-78.67059,9.37639],[-78.66471,9.36236],[-78.65557,9.36163],[-78.65569,9.35753],[-78.64696,9.35765],[-78.64581,9.35381],[-78.6314,9.35503],[-78.63002,9.34477],[-78.62326,9.33739],[-78.60961,9.33986],[-78.59831,9.33713],[-78.59616,9.34248],[-78.58726,9.344],[-78.57289,9.33887],[-78.56299,9.3445],[-78.55353,9.34354],[-78.55036,9.34918],[-78.54074,9.35107],[-78.53934,9.35409],[-78.53509,9.35338],[-78.5364,9.36148],[-78.52722,9.36402],[-78.52685,9.36798],[-78.5141,9.36639],[-78.51205,9.36361],[-78.5098,9.36647],[-78.50113,9.36521],[-78.49705,9.35496],[-78.50456,9.34923],[-78.49555,9.3409],[-78.48277,9.33705],[-78.47879,9.33182],[-78.47958,9.31926],[-78.48903,9.31529],[-78.48875,9.30689],[-78.47524,9.29808],[-78.47573,9.27943],[-78.46989,9.27836],[-78.46269,9.26278],[-78.43338,9.26259],[-78.43062,9.26598],[-78.43091,9.27341],[-78.42663,9.27792],[-78.42073,9.27871],[-78.41394,9.28986],[-78.41104,9.28699],[-78.40271,9.28751],[-78.3966,9.29413],[-78.39137,9.29391],[-78.38712,9.27732],[-78.38104,9.27241],[-78.37143,9.2687],[-78.36501,9.27096],[-78.35528,9.26289],[-78.34889,9.26475],[-78.35036,9.27229],[-78.3305,9.27182],[-78.32154,9.28113],[-78.30875,9.28095],[-78.30329,9.26667],[-78.30082,9.24948],[-78.295,9.24105],[-78.29907,9.22894],[-78.29706,9.22407],[-78.292,9.22477],[-78.27938,9.21672],[-78.2715,9.22049],[-78.2659,9.21824],[-78.26549,9.22751],[-78.2566,9.22792],[-78.25648,9.21769],[-78.25217,9.21401],[-78.23722,9.21389],[-78.23389,9.21637],[-78.22095,9.2092],[-78.21086,9.20989],[-78.20753,9.20665],[-78.19483,9.20428],[-78.1845,9.20636],[-78.17383,9.20112],[-78.16374,9.20211],[-78.15756,9.19586],[-78.14618,9.19671],[-78.13496,9.19003],[-78.13012,9.1906],[-78.12776,9.18511],[-78.11619,9.17892],[-78.10998,9.18034],[-78.10934,9.18334],[-78.0974,9.1748],[-78.08691,9.17239],[-78.08734,9.1665],[-78.09374,9.16607],[-78.09533,9.16346],[-78.09184,9.16164],[-78.09072,9.14743],[-78.06897,9.14096],[-78.06435,9.13483],[-78.08,9.12636],[-78.08096,9.1194],[-78.08482,9.11584],[-78.08189,9.11101],[-78.06744,9.10786],[-78.06761,9.09345],[-78.07401,9.08326],[-78.07449,9.07481],[-78.07006,9.07237],[-78.074,9.05932],[-78.09173,9.05179],[-78.08961,9.0453],[-78.09131,9.04188],[-78.09773,9.04002],[-78.09586,9.03387],[-78.11149,9.02821],[-78.11943,9.02114],[-78.12124,9.01363],[-78.12609,9.01234],[-78.12962,9.00452],[-78.13392,9.00175],[-78.13367,8.98495],[-78.13217,8.98146],[-78.12741,8.98134],[-78.12969,8.96754],[-78.13387,8.96089],[-78.13714,8.95715],[-78.16003,8.94885],[-78.16631,8.94186],[-78.17156,8.94236],[-78.17581,8.9375],[-78.1753,8.92558],[-78.17937,8.91741],[-78.17731,8.90802],[-78.18008,8.90459],[-78.17483,8.89826],[-78.17572,8.8912],[-78.17208,8.88723],[-78.17109,8.87747],[-78.17393,8.87157],[-78.19642,8.86726],[-78.19932,8.87151],[-78.20802,8.86981],[-78.21053,8.87352],[-78.22176,8.87627],[-78.22761,8.86748],[-78.22993,8.87538],[-78.23678,8.87628],[-78.24105,8.88715],[-78.24865,8.88566],[-78.24928,8.89114],[-78.25504,8.89235],[-78.26112,8.8853],[-78.26927,8.88162],[-78.27715,8.87141],[-78.28855,8.86553],[-78.29111,8.86017],[-78.30563,8.86877],[-78.30822,8.86032],[-78.31552,8.85287],[-78.31332,8.84676],[-78.32316,8.8414],[-78.32719,8.81981],[-78.33213,8.81916],[-78.327,8.81107],[-78.3326,8.80532],[-78.33917,8.80353],[-78.35584,8.81075],[-78.35379,8.81226],[-78.35494,8.81865],[-78.36523,8.82367],[-78.3633,8.83711],[-78.36502,8.84509],[-78.36085,8.84864],[-78.37028,8.85336],[-78.37976,8.85196],[-78.38362,8.84826],[-78.38981,8.84956],[-78.38882,8.85215],[-78.3963,8.84976],[-78.4041,8.85845],[-78.412,8.86116],[-78.41973,8.84669],[-78.42734,8.84373],[-78.43019,8.83929],[-78.45949,8.83971],[-78.46705,8.82918],[-78.46858,8.82496],[-78.46315,8.81742],[-78.46466,8.81229],[-78.45944,8.80461],[-78.46654,8.78752],[-78.46388,8.78301],[-78.46861,8.77768],[-78.46747,8.76524],[-78.47326,8.76349],[-78.47157,8.75867],[-78.47999,8.74705],[-78.4902,8.74429],[-78.49728,8.74689],[-78.49989,8.73006],[-78.49817,8.72699],[-78.50372,8.72002],[-78.50189,8.71233],[-78.50576,8.71308],[-78.50958,8.70721],[-78.50312,8.69936],[-78.50908,8.6951],[-78.50425,8.68776],[-78.49679,8.68662],[-78.49595,8.68093],[-78.49183,8.67841],[-78.49106,8.67242],[-78.49462,8.66959],[-78.495,8.66399],[-78.48873,8.66014],[-78.48429,8.66251],[-78.47737,8.65499],[-78.47704,8.64884],[-78.47017,8.64634],[-78.47384,8.63825],[-78.46989,8.6333],[-78.46864,8.62368],[-78.48638,8.61765],[-78.4817,8.59592],[-78.48628,8.59371],[-78.48302,8.58879],[-78.47852,8.5886],[-78.4819,8.58214],[-78.47574,8.57452],[-78.47842,8.56747],[-78.48226,8.567],[-78.47571,8.54948],[-78.4706,8.54655],[-78.47154,8.54121],[-78.47843,8.54118],[-78.45885,8.50261],[-78.4526,8.49384],[-78.44888,8.49572],[-78.44855,8.49204],[-78.44203,8.48817],[-78.43756,8.47695],[-78.43979,8.46714],[-78.43431,8.45341],[-78.43633,8.44705],[-78.43333,8.43177],[-78.42898,8.4287],[-78.42895,8.42463],[-78.42374,8.42205],[-78.42204,8.41456],[-78.42628,8.41392],[-78.42678,8.41035],[-78.41168,8.38371],[-78.41758,8.37894],[-78.41965,8.3654],[-78.41333,8.35638],[-78.41956,8.34725],[-78.42363,8.36168],[-78.43096,8.36602],[-78.4307,8.37069],[-78.43669,8.37743],[-78.43878,8.38733],[-78.4425,8.38456],[-78.44902,8.38586],[-78.45084,8.38263],[-78.45025,8.40656],[-78.45272,8.41215],[-78.45084,8.41771],[-78.46275,8.42966],[-78.47187,8.43003],[-78.47249,8.42705],[-78.47449,8.42524],[-78.47932,8.43663],[-78.49651,8.44741],[-78.50855,8.46636],[-78.5068,8.47451],[-78.49893,8.47437],[-78.49756,8.48117],[-78.50159,8.48937],[-78.49979,8.49243],[-78.50342,8.49258],[-78.50473,8.49761],[-78.50192,8.50168],[-78.50333,8.50558],[-78.4964,8.50709],[-78.49823,8.51751],[-78.49479,8.52113],[-78.4993,8.52392],[-78.50158,8.52198],[-78.50401,8.52592],[-78.51411,8.52959],[-78.51564,8.53423],[-78.51251,8.53308],[-78.51204,8.53862],[-78.50684,8.54005],[-78.50914,8.54532],[-78.51303,8.54335],[-78.5239,8.55241],[-78.5315,8.55438],[-78.52851,8.55635],[-78.52968,8.56255],[-78.53461,8.56738],[-78.53238,8.56993],[-78.542,8.57748],[-78.54232,8.58401],[-78.5463,8.58772],[-78.53526,8.58414],[-78.5275,8.58887],[-78.52575,8.58734],[-78.52772,8.58385],[-78.52506,8.58761],[-78.52262,8.58654],[-78.52047,8.57998],[-78.51965,8.58401],[-78.51666,8.58143],[-78.51714,8.56851],[-78.51616,8.57646],[-78.51413,8.5709],[-78.5139,8.57345],[-78.51221,8.57034],[-78.51131,8.57217],[-78.51485,8.57456],[-78.51594,8.57839],[-78.51075,8.57244],[-78.51045,8.57849],[-78.50597,8.56726],[-78.51197,8.56509],[-78.51248,8.56456],[-78.51256,8.56388],[-78.50605,8.56663],[-78.5078,8.56104],[-78.50394,8.55494],[-78.5023,8.55608],[-78.50532,8.56289],[-78.50073,8.56425],[-78.49672,8.55836],[-78.49784,8.55982],[-78.50022,8.55553],[-78.49822,8.5542],[-78.49675,8.55793],[-78.49438,8.55308],[-78.49309,8.55262],[-78.49413,8.54924],[-78.49005,8.5444],[-78.48726,8.54304],[-78.49388,8.54981],[-78.49264,8.55264],[-78.49528,8.55605],[-78.49306,8.55401],[-78.48947,8.55479],[-78.49552,8.5569],[-78.49378,8.55981],[-78.49109,8.55844],[-78.48969,8.55863],[-78.49233,8.56022],[-78.49537,8.56015],[-78.49241,8.56089],[-78.49346,8.56802],[-78.49397,8.56398],[-78.50101,8.56644],[-78.49699,8.57075],[-78.49513,8.56898],[-78.49636,8.57256],[-78.48827,8.56542],[-78.49828,8.58158],[-78.50429,8.58174],[-78.50619,8.58556],[-78.50417,8.58586],[-78.5119,8.59275],[-78.50968,8.59414],[-78.5056,8.59278],[-78.50401,8.59396],[-78.50034,8.59256],[-78.5,8.59251],[-78.5,8.59295],[-78.51602,8.59742],[-78.51469,8.60008],[-78.5172,8.60211],[-78.52634,8.60122],[-78.52444,8.60329],[-78.5261,8.60987],[-78.52279,8.61073],[-78.52466,8.61527],[-78.52018,8.61985],[-78.52506,8.62947],[-78.52125,8.63687],[-78.52368,8.64192],[-78.55357,8.64903],[-78.57925,8.663],[-78.57971,8.66663],[-78.57462,8.67168],[-78.5814,8.6731],[-78.58601,8.68089],[-78.59698,8.68448],[-78.60065,8.68915],[-78.60494,8.68809],[-78.60578,8.68308],[-78.60901,8.68538],[-78.60741,8.67723],[-78.61178,8.67803],[-78.61481,8.68458],[-78.61552,8.67498],[-78.62317,8.67359],[-78.6222,8.67595],[-78.62713,8.68073],[-78.62698,8.68849],[-78.63587,8.68928],[-78.63807,8.69243],[-78.63589,8.70152],[-78.64117,8.70591],[-78.63416,8.71543],[-78.63547,8.71922],[-78.63223,8.72095],[-78.63423,8.72921],[-78.64418,8.73284],[-78.65036,8.73172],[-78.66545,8.71521],[-78.66147,8.70761],[-78.66531,8.70813],[-78.68249,8.72279],[-78.6735,8.72779],[-78.67514,8.73489],[-78.67105,8.73769],[-78.67673,8.74462],[-78.67419,8.74878],[-78.68028,8.74749],[-78.68164,8.75373],[-78.68686,8.74785],[-78.70138,8.74912],[-78.70476,8.75113],[-78.70405,8.75908],[-78.71035,8.75587],[-78.72497,8.75671],[-78.73447,8.7644],[-78.74153,8.76478],[-78.74041,8.77004],[-78.74334,8.76894],[-78.74653,8.77541],[-78.75192,8.77415],[-78.75134,8.77635],[-78.7547,8.77721],[-78.75213,8.78109],[-78.75465,8.78184],[-78.75805,8.79955],[-78.75636,8.80764],[-78.7718,8.82069],[-78.78358,8.8204],[-78.78616,8.81832],[-78.78672,8.81431],[-78.78452,8.81388],[-78.78687,8.81006],[-78.80836,8.79583],[-78.8111,8.80182],[-78.8064,8.81047],[-78.80755,8.81418],[-78.81158,8.81399],[-78.80932,8.81557],[-78.81086,8.81817],[-78.82905,8.82125],[-78.83684,8.81284],[-78.84829,8.81836],[-78.85833,8.83001],[-78.8615,8.82814],[-78.86417,8.83796],[-78.86746,8.83993],[-78.87831,8.86531],[-78.8757,8.86675],[-78.88035,8.86742],[-78.87703,8.87539],[-78.88042,8.87791],[-78.88591,8.89141],[-78.88464,8.89371],[-78.89067,8.89443],[-78.89013,8.90046],[-78.89941,8.90381],[-78.89884,8.90786],[-78.90479,8.908],[-78.90895,8.9115],[-78.91067,8.91393],[-78.90722,8.91953],[-78.91126,8.92564],[-78.9162,8.92354],[-78.91401,8.92821],[-78.92457,8.92944],[-78.92824,8.92721],[-78.93385,8.93713],[-78.941,8.93223],[-78.95156,8.93601],[-78.9538,8.93951],[-78.9577,8.93775],[-78.95968,8.94198],[-78.96321,8.94035],[-78.96527,8.94528],[-78.96765,8.94387],[-78.97098,8.94684],[-78.97692,8.94459],[-78.97786,8.94845],[-78.98699,8.95451],[-79.01237,8.96659],[-79.02767,8.97003],[-79.03025,8.97747],[-79.03886,8.98351],[-79.04293,8.97508],[-79.08102,8.99104],[-79.09719,8.98565],[-79.10615,8.99441],[-79.10199,9.00204],[-79.09542,9.00551],[-79.09381,9.01837],[-79.09955,9.02179],[-79.11618,9.00332],[-79.12404,9.00041],[-79.13919,9.00928],[-79.16771,9.01417],[-79.17382,9.02194],[-79.17313,9.03434],[-79.15961,9.03765],[-79.1582,9.03233],[-79.16246,9.02191],[-79.15843,9.01852],[-79.15118,9.02968],[-79.15346,9.04272],[-79.13733,9.03875],[-79.14202,9.03061],[-79.13984,9.02849],[-79.13161,9.0354],[-79.13707,9.04695],[-79.12864,9.04796],[-79.12497,9.05247],[-79.12866,9.05665],[-79.13715,9.05372],[-79.13989,9.05738],[-79.13162,9.06326],[-79.13716,9.06651],[-79.13233,9.07246],[-79.13729,9.07222],[-79.14046,9.07693],[-79.13924,9.08082],[-79.13729,9.07952],[-79.13449,9.08231],[-79.1413,9.08631],[-79.13782,9.08926]],[[-78.59321,9.08106],[-78.5931,9.07874],[-78.59447,9.07778],[-78.5917,9.07843],[-78.58848,9.08291],[-78.58579,9.09245],[-78.58294,9.09221],[-78.58836,9.10507],[-78.58429,9.10431],[-78.58449,9.09597],[-78.58074,9.09595],[-78.5828,9.0995],[-78.5787,9.1006],[-78.58134,9.10155],[-78.58107,9.10485],[-78.5753,9.10511],[-78.57892,9.10746],[-78.57881,9.11269],[-78.56976,9.11699],[-78.56615,9.11462],[-78.57267,9.10946],[-78.57253,9.10221],[-78.57034,9.10928],[-78.56819,9.10662],[-78.56841,9.11049],[-78.56514,9.10566],[-78.55899,9.10327],[-78.56614,9.09985],[-78.56222,9.09495],[-78.56405,9.09476],[-78.56391,9.09394],[-78.56065,9.09382],[-78.56152,9.0875],[-78.56491,9.09124],[-78.56405,9.08815],[-78.56613,9.0878],[-78.56298,9.08754],[-78.56336,9.08426],[-78.56915,9.08523],[-78.56516,9.08186],[-78.55581,9.08176],[-78.55774,9.07604],[-78.56346,9.0745],[-78.55833,9.07326],[-78.56126,9.07014],[-78.56059,9.06558],[-78.55831,9.07227],[-78.55492,9.0732],[-78.55183,9.06943],[-78.54569,9.08123],[-78.54325,9.07733],[-78.53809,9.07757],[-78.53993,9.07222],[-78.53062,9.06455],[-78.52652,9.06574],[-78.51816,9.07678],[-78.51736,9.07101],[-78.5213,9.06959],[-78.52037,9.06672],[-78.51659,9.06893],[-78.51577,9.0671],[-78.52251,9.06476],[-78.52318,9.06158],[-78.51951,9.05536],[-78.51753,9.0605],[-78.51586,9.0598],[-78.517,9.05638],[-78.51474,9.05432],[-78.51296,9.069],[-78.51266,9.06574],[-78.51215,9.06855],[-78.50878,9.06981],[-78.51148,9.05304],[-78.50536,9.05301],[-78.50807,9.05508],[-78.50467,9.06223],[-78.50386,9.05689],[-78.5066,9.05535],[-78.50107,9.04829],[-78.50486,9.04097],[-78.50197,9.04435],[-78.49945,9.05206],[-78.50553,9.06471],[-78.50082,9.06605],[-78.5046,9.06427],[-78.50201,9.06043],[-78.49742,9.06254],[-78.50134,9.06361],[-78.49947,9.06891],[-78.49882,9.06591],[-78.49453,9.06911],[-78.49787,9.07381],[-78.49112,9.07176],[-78.49062,9.06324],[-78.48948,9.0668],[-78.48981,9.06479],[-78.48308,9.06785],[-78.4831,9.0707],[-78.48677,9.06792],[-78.49047,9.07121],[-78.49033,9.07339],[-78.48784,9.07308],[-78.48765,9.07384],[-78.48585,9.07356],[-78.48574,9.0738],[-78.48546,9.07359],[-78.48453,9.07402],[-78.48704,9.07555],[-78.48463,9.08095],[-78.48023,9.07584],[-78.4825,9.07364],[-78.48264,9.07252],[-78.47709,9.0774],[-78.47301,9.0721],[-78.46991,9.07512],[-78.46877,9.07375],[-78.46658,9.07325],[-78.46782,9.07247],[-78.46905,9.06807],[-78.46524,9.07443],[-78.47022,9.07597],[-78.47364,9.07491],[-78.47382,9.08257],[-78.47687,9.07803],[-78.47819,9.0785],[-78.47408,9.08264],[-78.47439,9.08386],[-78.48199,9.08004],[-78.48125,9.0832],[-78.49189,9.08315],[-78.49395,9.08655],[-78.49636,9.08435],[-78.49573,9.0816],[-78.49592,9.0807],[-78.49637,9.07986],[-78.49653,9.08406],[-78.49582,9.08551],[-78.49375,9.08684],[-78.48721,9.08502],[-78.4894,9.08942],[-78.48473,9.08757],[-78.48239,9.0926],[-78.47673,9.08702],[-78.47644,9.09203],[-78.46336,9.09229],[-78.4699,9.0983],[-78.4655,9.09794],[-78.46804,9.09937],[-78.46611,9.10247],[-78.48467,9.09733],[-78.48609,9.09873],[-78.484,9.0987],[-78.48161,9.10005],[-78.48589,9.09943],[-78.48674,9.10166],[-78.48906,9.104],[-78.48635,9.09911],[-78.49036,9.09785],[-78.49497,9.09093],[-78.49363,9.08766],[-78.49654,9.08551],[-78.49685,9.08235],[-78.49845,9.08133],[-78.49759,9.08553],[-78.50128,9.08627],[-78.49791,9.08726],[-78.49788,9.09263],[-78.49377,9.09689],[-78.49774,9.09636],[-78.49433,9.09886],[-78.49613,9.10126],[-78.49522,9.09895],[-78.49923,9.0993],[-78.49733,9.09361],[-78.50144,9.08652],[-78.50334,9.09016],[-78.49904,9.09521],[-78.49992,9.10064],[-78.49628,9.09969],[-78.49681,9.10477],[-78.49881,9.10423],[-78.49962,9.10662],[-78.50064,9.10714],[-78.49515,9.10628],[-78.49581,9.10303],[-78.49346,9.10088],[-78.49042,9.1044],[-78.49463,9.10368],[-78.49482,9.10737],[-78.49169,9.10671],[-78.49388,9.10924],[-78.50026,9.10881],[-78.50176,9.10604],[-78.49969,9.10512],[-78.50359,9.10337],[-78.5111,9.10906],[-78.50955,9.11365],[-78.51344,9.11256],[-78.51455,9.1162],[-78.50971,9.12194],[-78.50769,9.11756],[-78.50848,9.12275],[-78.50346,9.12476],[-78.50727,9.12443],[-78.50644,9.12525],[-78.50567,9.12692],[-78.50768,9.12489],[-78.5082,9.12662],[-78.51164,9.12834],[-78.51439,9.12133],[-78.52007,9.12652],[-78.5192,9.12445],[-78.528,9.12468],[-78.55011,9.12941],[-78.54678,9.1337],[-78.5399,9.1334],[-78.53963,9.13596],[-78.54419,9.13385],[-78.54526,9.13587],[-78.54707,9.13579],[-78.54533,9.13414],[-78.54905,9.1346],[-78.54805,9.1327],[-78.55327,9.12903],[-78.55222,9.12994],[-78.55248,9.13156],[-78.55537,9.13135],[-78.55307,9.13256],[-78.55661,9.13154],[-78.55397,9.1376],[-78.55722,9.14052],[-78.55517,9.1375],[-78.55807,9.13257],[-78.55604,9.12863],[-78.56197,9.12955],[-78.56029,9.13153],[-78.56266,9.13068],[-78.56373,9.13493],[-78.56528,9.13016],[-78.57195,9.13021],[-78.57319,9.13275],[-78.57424,9.13307],[-78.5825,9.12975],[-78.57949,9.1322],[-78.5823,9.1319],[-78.57952,9.13674],[-78.59308,9.14214],[-78.58655,9.14722],[-78.5909,9.14738],[-78.6048,9.13632],[-78.60474,9.13861],[-78.61069,9.13896],[-78.60966,9.14178],[-78.61218,9.14171],[-78.60755,9.14609],[-78.60493,9.14413],[-78.60375,9.14462],[-78.60574,9.14597],[-78.60152,9.14964],[-78.60301,9.15206],[-78.59857,9.15108],[-78.5977,9.15221],[-78.60193,9.15272],[-78.60192,9.16055],[-78.60476,9.15929],[-78.60294,9.16127],[-78.60501,9.15936],[-78.60216,9.15432],[-78.60409,9.15221],[-78.60335,9.15051],[-78.60547,9.14878],[-78.60743,9.15002],[-78.60708,9.15185],[-78.60784,9.15243],[-78.60846,9.14952],[-78.60554,9.14715],[-78.61069,9.14619],[-78.61046,9.14882],[-78.61175,9.14858],[-78.61328,9.14331],[-78.61556,9.14596],[-78.61345,9.14811],[-78.61554,9.1467],[-78.61603,9.14907],[-78.61379,9.15201],[-78.61735,9.15247],[-78.61641,9.1463],[-78.61843,9.14728],[-78.62125,9.14779],[-78.61458,9.14422],[-78.61734,9.14248],[-78.61277,9.13936],[-78.61901,9.13284],[-78.61662,9.13572],[-78.6182,9.14183],[-78.62306,9.14259],[-78.62895,9.12878],[-78.63324,9.13657],[-78.63122,9.13765],[-78.63776,9.1394],[-78.63524,9.14044],[-78.63755,9.14064],[-78.6359,9.14573],[-78.63402,9.14492],[-78.63529,9.14687],[-78.62882,9.14442],[-78.63098,9.1465],[-78.62823,9.14731],[-78.64345,9.15141],[-78.64971,9.14618],[-78.64974,9.14996],[-78.6441,9.15143],[-78.64697,9.15288],[-78.65049,9.15061],[-78.65161,9.15447],[-78.64996,9.15298],[-78.64719,9.15655],[-78.65211,9.15649],[-78.65285,9.15038],[-78.65651,9.14799],[-78.65669,9.15091],[-78.65869,9.15012],[-78.65429,9.15417],[-78.665,9.15813],[-78.66169,9.15365],[-78.66656,9.15271],[-78.66907,9.15932],[-78.67143,9.15792],[-78.66712,9.15082],[-78.66479,9.15263],[-78.65802,9.14672],[-78.65423,9.14846],[-78.65315,9.14201],[-78.64533,9.14406],[-78.64483,9.14644],[-78.63945,9.14528],[-78.63884,9.14261],[-78.64647,9.14156],[-78.64316,9.13949],[-78.64505,9.13884],[-78.64614,9.14017],[-78.64737,9.14026],[-78.64411,9.13671],[-78.64242,9.14013],[-78.64321,9.14143],[-78.63945,9.14067],[-78.63841,9.14273],[-78.63858,9.13608],[-78.64129,9.14],[-78.64155,9.1347],[-78.63509,9.13606],[-78.6324,9.12944],[-78.64675,9.13086],[-78.65629,9.13669],[-78.6535,9.13327],[-78.65724,9.13253],[-78.65414,9.12925],[-78.65994,9.12785],[-78.66519,9.13462],[-78.6691,9.13374],[-78.66242,9.12834],[-78.66575,9.12732],[-78.66207,9.12598],[-78.66357,9.12318],[-78.65817,9.12588],[-78.6541,9.12325],[-78.65631,9.12221],[-78.65592,9.11702],[-78.65877,9.1164],[-78.65522,9.11445],[-78.65898,9.10694],[-78.65792,9.09482],[-78.65072,9.10844],[-78.6466,9.1071],[-78.64358,9.12394],[-78.63444,9.12226],[-78.63315,9.12453],[-78.63212,9.12195],[-78.63681,9.1212],[-78.63712,9.12019],[-78.62718,9.11808],[-78.63039,9.10981],[-78.62844,9.10603],[-78.63282,9.10258],[-78.63163,9.09798],[-78.62928,9.09701],[-78.62786,9.10244],[-78.62668,9.0988],[-78.62489,9.10214],[-78.6189,9.09873],[-78.6188,9.10123],[-78.62408,9.10331],[-78.6213,9.10544],[-78.62463,9.10963],[-78.61997,9.10995],[-78.62104,9.11271],[-78.61766,9.11598],[-78.62225,9.11991],[-78.62033,9.12379],[-78.61881,9.12283],[-78.6122,9.12598],[-78.6181,9.12697],[-78.61939,9.12405],[-78.62483,9.12327],[-78.62212,9.13622],[-78.61896,9.13089],[-78.61261,9.1365],[-78.60377,9.13331],[-78.59562,9.13893],[-78.58883,9.13444],[-78.58419,9.13467],[-78.5849,9.13189],[-78.60359,9.12697],[-78.59994,9.12429],[-78.60423,9.12182],[-78.60293,9.11994],[-78.60373,9.1189],[-78.60693,9.12211],[-78.60568,9.11817],[-78.61003,9.10948],[-78.60861,9.10114],[-78.60153,9.10198],[-78.60623,9.0976],[-78.60237,9.09705],[-78.59798,9.10066],[-78.60261,9.09047],[-78.60023,9.08788],[-78.59427,9.09936],[-78.59181,9.0908],[-78.59578,9.0847],[-78.59528,9.07777],[-78.59321,9.08106]],[[-78.80697,9.18738],[-78.80764,9.18573],[-78.80684,9.1847],[-78.80819,9.18362],[-78.80681,9.18116],[-78.80851,9.1821],[-78.80962,9.17711],[-78.81318,9.17708],[-78.81173,9.18018],[-78.81538,9.17694],[-78.81791,9.17938],[-78.81858,9.17686],[-78.82098,9.17721],[-78.81775,9.18243],[-78.81155,9.18394],[-78.81581,9.18563],[-78.81053,9.18671],[-78.81568,9.18773],[-78.81611,9.19116],[-78.80658,9.19088],[-78.80798,9.19348],[-78.80557,9.19519],[-78.81074,9.19272],[-78.81054,9.19545],[-78.81167,9.19333],[-78.81405,9.19472],[-78.81093,9.20039],[-78.81426,9.20052],[-78.81538,9.19526],[-78.81817,9.19624],[-78.8176,9.19979],[-78.82071,9.19924],[-78.81869,9.19621],[-78.82122,9.19498],[-78.81435,9.19322],[-78.81905,9.19346],[-78.81602,9.18919],[-78.81727,9.18433],[-78.82094,9.18732],[-78.8199,9.18479],[-78.82345,9.18421],[-78.82383,9.19041],[-78.8252,9.18887],[-78.82824,9.19201],[-78.82421,9.19322],[-78.82524,9.19909],[-78.82831,9.20416],[-78.8318,9.20577],[-78.82821,9.20364],[-78.82613,9.19461],[-78.82935,9.19342],[-78.82941,9.19695],[-78.83005,9.19749],[-78.83109,9.19728],[-78.83175,9.19237],[-78.82521,9.18446],[-78.8277,9.18197],[-78.83396,9.18808],[-78.83298,9.18423],[-78.84001,9.18371],[-78.84422,9.17685],[-78.84549,9.18127],[-78.84295,9.18197],[-78.84877,9.1909],[-78.84488,9.19119],[-78.84305,9.19335],[-78.84797,9.19248],[-78.84971,9.19588],[-78.85144,9.19106],[-78.85359,9.19481],[-78.85416,9.19148],[-78.85543,9.19301],[-78.85975,9.18838],[-78.86021,9.17596],[-78.86465,9.17071],[-78.86397,9.18296],[-78.86625,9.18692],[-78.86381,9.19049],[-78.86603,9.18898],[-78.8662,9.18992],[-78.86531,9.1914],[-78.86536,9.19202],[-78.86678,9.19166],[-78.86698,9.19395],[-78.87,9.19545],[-78.86709,9.18633],[-78.87146,9.18509],[-78.8671,9.18332],[-78.86674,9.17239],[-78.87556,9.17988],[-78.87657,9.17763],[-78.88372,9.18139],[-78.88486,9.17855],[-78.88354,9.17548],[-78.87521,9.1726],[-78.87571,9.17023],[-78.87407,9.17258],[-78.87239,9.17107],[-78.87616,9.16208],[-78.87025,9.15962],[-78.87452,9.15923],[-78.87232,9.15757],[-78.8738,9.15414],[-78.87601,9.15409],[-78.87681,9.1534],[-78.87709,9.15153],[-78.87273,9.15374],[-78.8749,9.15076],[-78.87147,9.14892],[-78.8752,9.14697],[-78.86905,9.14727],[-78.86914,9.14227],[-78.865,9.14936],[-78.86463,9.14567],[-78.85838,9.14602],[-78.86238,9.14292],[-78.86019,9.13617],[-78.86304,9.13652],[-78.85629,9.13045],[-78.85815,9.12811],[-78.85664,9.12641],[-78.85784,9.12542],[-78.85963,9.12746],[-78.86085,9.12745],[-78.85932,9.12424],[-78.85703,9.12508],[-78.85528,9.12962],[-78.85374,9.12278],[-78.85187,9.12666],[-78.85008,9.12722],[-78.85311,9.11944],[-78.85859,9.11621],[-78.86751,9.12093],[-78.86605,9.12745],[-78.86989,9.12789],[-78.87228,9.12489],[-78.87532,9.12676],[-78.88296,9.12413],[-78.87506,9.1228],[-78.87151,9.12402],[-78.87017,9.12689],[-78.86681,9.1257],[-78.87,9.11905],[-78.87639,9.11511],[-78.86628,9.11879],[-78.86502,9.1129],[-78.87049,9.11146],[-78.86733,9.10737],[-78.86439,9.11043],[-78.86304,9.10673],[-78.86045,9.10752],[-78.8631,9.11285],[-78.8615,9.11529],[-78.85225,9.10989],[-78.85602,9.10919],[-78.85325,9.10846],[-78.85474,9.10601],[-78.85282,9.10544],[-78.85604,9.10322],[-78.85362,9.10134],[-78.85169,9.10665],[-78.85267,9.10755],[-78.85009,9.10833],[-78.85004,9.10565],[-78.84642,9.10528],[-78.84802,9.10161],[-78.84335,9.10466],[-78.84468,9.10021],[-78.84288,9.10156],[-78.84251,9.09867],[-78.84055,9.0991],[-78.84225,9.10246],[-78.83921,9.10089],[-78.84006,9.10432],[-78.83587,9.09852],[-78.83207,9.1016],[-78.83539,9.09673],[-78.83251,9.09456],[-78.82985,9.09884],[-78.82031,9.09048],[-78.82128,9.09431],[-78.81771,9.09451],[-78.81671,9.08677],[-78.82058,9.08385],[-78.8157,9.08644],[-78.81016,9.08289],[-78.81389,9.08749],[-78.81107,9.08719],[-78.80573,9.08046],[-78.80378,9.08234],[-78.79624,9.07961],[-78.79156,9.08569],[-78.78668,9.08238],[-78.78829,9.07715],[-78.78189,9.07757],[-78.78023,9.0802],[-78.77227,9.07799],[-78.77257,9.07594],[-78.75722,9.075],[-78.76022,9.08168],[-78.75518,9.08534],[-78.75442,9.09023],[-78.76525,9.10167],[-78.76189,9.10255],[-78.76217,9.10577],[-78.75708,9.1034],[-78.75834,9.09951],[-78.75511,9.09384],[-78.75131,9.09313],[-78.75421,9.08461],[-78.74992,9.08219],[-78.74762,9.0873],[-78.74558,9.08837],[-78.74636,9.08117],[-78.74318,9.0808],[-78.74123,9.08401],[-78.73702,9.0778],[-78.74123,9.0887],[-78.73985,9.09173],[-78.73692,9.08399],[-78.73524,9.0854],[-78.73216,9.0807],[-78.72873,9.08246],[-78.72937,9.07853],[-78.72573,9.07845],[-78.72139,9.08267],[-78.7254,9.08255],[-78.72606,9.08774],[-78.7216,9.08772],[-78.71888,9.09188],[-78.72655,9.09021],[-78.7264,9.09201],[-78.72374,9.09265],[-78.72246,9.09356],[-78.7224,9.0943],[-78.72617,9.09477],[-78.72497,9.09867],[-78.7294,9.09715],[-78.7275,9.10224],[-78.73358,9.10083],[-78.73434,9.10418],[-78.7322,9.10205],[-78.72799,9.10578],[-78.7335,9.10654],[-78.7343,9.10939],[-78.72946,9.10852],[-78.73104,9.1111],[-78.72782,9.11173],[-78.72925,9.10991],[-78.72675,9.10906],[-78.72605,9.11282],[-78.72542,9.11038],[-78.7243,9.11337],[-78.72254,9.11172],[-78.7235,9.11489],[-78.72093,9.11719],[-78.72036,9.11415],[-78.71932,9.11563],[-78.71771,9.11441],[-78.7211,9.11115],[-78.71732,9.11155],[-78.72393,9.10976],[-78.72268,9.10638],[-78.72017,9.10858],[-78.71775,9.10569],[-78.71576,9.11317],[-78.71396,9.10967],[-78.71456,9.11244],[-78.70906,9.11178],[-78.7087,9.10841],[-78.71196,9.10829],[-78.70955,9.10682],[-78.70764,9.10945],[-78.70083,9.10599],[-78.70092,9.10843],[-78.71973,9.11845],[-78.72266,9.12397],[-78.71692,9.12836],[-78.71071,9.12858],[-78.71148,9.13114],[-78.70198,9.12706],[-78.70237,9.13094],[-78.70567,9.12931],[-78.70847,9.13317],[-78.71164,9.13263],[-78.70861,9.13518],[-78.70555,9.13334],[-78.70756,9.13883],[-78.71599,9.13238],[-78.71228,9.13904],[-78.7171,9.13348],[-78.71434,9.13895],[-78.71958,9.13578],[-78.71663,9.13901],[-78.71598,9.14122],[-78.71828,9.13941],[-78.71802,9.14198],[-78.71867,9.14361],[-78.71874,9.13985],[-78.72035,9.13667],[-78.72003,9.13977],[-78.72415,9.14021],[-78.72219,9.14207],[-78.7267,9.1432],[-78.72518,9.14561],[-78.72129,9.14366],[-78.72468,9.14631],[-78.72343,9.14847],[-78.71695,9.14679],[-78.7185,9.14853],[-78.71407,9.14982],[-78.72156,9.15009],[-78.71593,9.15209],[-78.72378,9.15582],[-78.71893,9.15408],[-78.71587,9.15542],[-78.72306,9.1568],[-78.72346,9.16069],[-78.72321,9.15647],[-78.72556,9.1566],[-78.72392,9.15508],[-78.72793,9.14954],[-78.72943,9.15614],[-78.73505,9.1533],[-78.73071,9.15223],[-78.73434,9.14852],[-78.73192,9.14471],[-78.73388,9.13748],[-78.7366,9.13944],[-78.73383,9.14054],[-78.73364,9.14475],[-78.73561,9.14676],[-78.73749,9.1444],[-78.73835,9.14786],[-78.7414,9.14645],[-78.74035,9.14389],[-78.74646,9.14537],[-78.74415,9.14283],[-78.7461,9.13954],[-78.74685,9.14289],[-78.74936,9.14052],[-78.7469,9.1386],[-78.74824,9.1369],[-78.74934,9.13919],[-78.75064,9.13664],[-78.75349,9.13788],[-78.74754,9.14577],[-78.75005,9.14784],[-78.74923,9.14596],[-78.75252,9.14548],[-78.75104,9.14482],[-78.75106,9.14282],[-78.75452,9.14387],[-78.75255,9.14823],[-78.75518,9.14676],[-78.7552,9.1502],[-78.74819,9.15108],[-78.74827,9.14693],[-78.7434,9.14806],[-78.74607,9.14951],[-78.74282,9.15109],[-78.74213,9.14832],[-78.74011,9.15156],[-78.73753,9.14922],[-78.73982,9.15297],[-78.7369,9.15412],[-78.74267,9.15404],[-78.74153,9.15704],[-78.7347,9.15823],[-78.73712,9.15871],[-78.73512,9.15981],[-78.73495,9.16076],[-78.74212,9.15926],[-78.74434,9.1552],[-78.74659,9.15855],[-78.75173,9.15912],[-78.74312,9.16131],[-78.74395,9.16489],[-78.74752,9.16151],[-78.7556,9.16558],[-78.75386,9.16034],[-78.75832,9.16108],[-78.75741,9.16571],[-78.76514,9.16774],[-78.76098,9.17364],[-78.76388,9.17292],[-78.76612,9.16708],[-78.7712,9.16934],[-78.77565,9.16561],[-78.77242,9.16946],[-78.77383,9.16994],[-78.77619,9.16588],[-78.77649,9.16774],[-78.77718,9.16848],[-78.77743,9.16556],[-78.78135,9.16429],[-78.78209,9.16859],[-78.78307,9.16382],[-78.78678,9.16338],[-78.78622,9.16893],[-78.78439,9.16861],[-78.78299,9.17004],[-78.78552,9.17152],[-78.78812,9.16779],[-78.79198,9.17176],[-78.79344,9.16874],[-78.79769,9.175],[-78.79121,9.1775],[-78.79336,9.17908],[-78.79115,9.18367],[-78.78464,9.18326],[-78.78488,9.18108],[-78.78246,9.18314],[-78.78845,9.18394],[-78.791,9.18796],[-78.79184,9.18568],[-78.79238,9.18955],[-78.78965,9.19076],[-78.79218,9.19235],[-78.77682,9.18844],[-78.7784,9.18705],[-78.7744,9.1848],[-78.77557,9.18861],[-78.77066,9.18907],[-78.76913,9.19193],[-78.76723,9.18848],[-78.76565,9.1912],[-78.76165,9.18865],[-78.75866,9.18832],[-78.76504,9.19223],[-78.76745,9.19083],[-78.77082,9.19542],[-78.75011,9.19739],[-78.75107,9.20024],[-78.74766,9.19816],[-78.74874,9.20245],[-78.74287,9.20087],[-78.74455,9.20285],[-78.74413,9.20333],[-78.73892,9.20003],[-78.72426,9.19835],[-78.72548,9.20216],[-78.72119,9.20411],[-78.70321,9.1962],[-78.69287,9.19737],[-78.68951,9.1907],[-78.69161,9.19005],[-78.6872,9.18825],[-78.69671,9.18786],[-78.69448,9.18483],[-78.68088,9.18827],[-78.67915,9.18345],[-78.67745,9.18677],[-78.67487,9.18407],[-78.66287,9.18272],[-78.65151,9.18725],[-78.64547,9.18285],[-78.65022,9.18109],[-78.64562,9.18086],[-78.65173,9.17545],[-78.64695,9.17647],[-78.64731,9.16973],[-78.64981,9.1723],[-78.65142,9.1701],[-78.65387,9.17221],[-78.65565,9.17173],[-78.65158,9.16942],[-78.64959,9.17073],[-78.64716,9.16441],[-78.6542,9.16082],[-78.65608,9.16371],[-78.65608,9.15933],[-78.66057,9.16019],[-78.6593,9.16196],[-78.65931,9.16414],[-78.65996,9.16178],[-78.66311,9.16312],[-78.66214,9.15973],[-78.65734,9.15892],[-78.65934,9.15604],[-78.6562,9.1553],[-78.65043,9.16011],[-78.64714,9.15829],[-78.64718,9.16174],[-78.64268,9.15861],[-78.64159,9.15978],[-78.64074,9.15688],[-78.63868,9.15755],[-78.64326,9.16111],[-78.64311,9.16358],[-78.63967,9.16183],[-78.63942,9.16364],[-78.64261,9.16532],[-78.64186,9.16401],[-78.64379,9.16379],[-78.64368,9.16136],[-78.64616,9.1624],[-78.64473,9.1697],[-78.63947,9.17026],[-78.64004,9.17345],[-78.63709,9.17442],[-78.63425,9.17132],[-78.63316,9.17145],[-78.63613,9.17552],[-78.63974,9.17526],[-78.6368,9.17971],[-78.62881,9.17806],[-78.63256,9.18376],[-78.62423,9.18014],[-78.62634,9.18259],[-78.61924,9.18059],[-78.61943,9.18426],[-78.61483,9.18496],[-78.61043,9.17982],[-78.60992,9.18218],[-78.59854,9.18437],[-78.60231,9.18748],[-78.60378,9.18447],[-78.60862,9.184],[-78.6075,9.18759],[-78.61138,9.18443],[-78.61062,9.18946],[-78.62165,9.18622],[-78.62037,9.18801],[-78.62079,9.18906],[-78.62529,9.18451],[-78.62084,9.19325],[-78.6287,9.18732],[-78.63167,9.19148],[-78.62813,9.18963],[-78.62151,9.19785],[-78.61288,9.19928],[-78.61715,9.19935],[-78.61653,9.20086],[-78.61705,9.20134],[-78.61856,9.19928],[-78.62241,9.20093],[-78.62432,9.19608],[-78.63154,9.19306],[-78.63196,9.19945],[-78.63339,9.19152],[-78.64387,9.18976],[-78.64152,9.19335],[-78.63485,9.1939],[-78.63917,9.19564],[-78.6395,9.19866],[-78.64062,9.19675],[-78.64134,9.19938],[-78.64624,9.19988],[-78.64302,9.20655],[-78.65325,9.20115],[-78.65789,9.20398],[-78.65581,9.20457],[-78.65729,9.21],[-78.66861,9.20567],[-78.67058,9.20903],[-78.66587,9.21001],[-78.67072,9.21533],[-78.67043,9.21121],[-78.67282,9.2121],[-78.67204,9.21714],[-78.66866,9.21743],[-78.67371,9.22288],[-78.67606,9.22286],[-78.67301,9.21878],[-78.67562,9.21985],[-78.67543,9.21459],[-78.68009,9.21488],[-78.67917,9.22005],[-78.67986,9.21733],[-78.68202,9.21916],[-78.68284,9.21446],[-78.68652,9.217],[-78.69534,9.21507],[-78.69619,9.21797],[-78.69276,9.22087],[-78.68545,9.22087],[-78.68987,9.2278],[-78.68262,9.22987],[-78.68693,9.22957],[-78.68992,9.23437],[-78.69263,9.22728],[-78.69015,9.22276],[-78.69418,9.22392],[-78.69459,9.22081],[-78.69909,9.22109],[-78.70059,9.21606],[-78.70221,9.22158],[-78.70414,9.22214],[-78.70341,9.2176],[-78.71089,9.21442],[-78.71011,9.21677],[-78.71459,9.2179],[-78.71159,9.22112],[-78.71197,9.22311],[-78.71746,9.21919],[-78.71958,9.22326],[-78.72319,9.22238],[-78.71902,9.22934],[-78.71667,9.22867],[-78.72048,9.23445],[-78.71831,9.2369],[-78.71862,9.2375],[-78.71944,9.23796],[-78.72071,9.2346],[-78.71861,9.23073],[-78.72387,9.22496],[-78.72581,9.22743],[-78.72486,9.22468],[-78.72965,9.22247],[-78.72843,9.22408],[-78.7285,9.22619],[-78.7294,9.22674],[-78.73428,9.22175],[-78.73584,9.22891],[-78.73882,9.21873],[-78.73797,9.22322],[-78.74234,9.22215],[-78.74035,9.22469],[-78.74643,9.22258],[-78.74721,9.22597],[-78.74747,9.22238],[-78.74957,9.22466],[-78.75088,9.22173],[-78.75123,9.22443],[-78.75517,9.22285],[-78.75108,9.22694],[-78.75753,9.22891],[-78.75469,9.23385],[-78.75627,9.23645],[-78.7552,9.23373],[-78.75815,9.23118],[-78.76037,9.23255],[-78.75871,9.23036],[-78.75889,9.22955],[-78.76508,9.23018],[-78.75883,9.22878],[-78.75857,9.227],[-78.75976,9.22773],[-78.75948,9.22704],[-78.76149,9.22772],[-78.76245,9.22701],[-78.75819,9.22553],[-78.76006,9.22473],[-78.75781,9.21933],[-78.76462,9.22196],[-78.76391,9.21873],[-78.76705,9.21861],[-78.76567,9.21991],[-78.76912,9.22016],[-78.76966,9.22321],[-78.7726,9.21871],[-78.77125,9.22419],[-78.77207,9.22741],[-78.77471,9.22111],[-78.77482,9.2232],[-78.78086,9.22094],[-78.77974,9.22356],[-78.78462,9.22097],[-78.78428,9.22764],[-78.78787,9.22902],[-78.78718,9.23432],[-78.78799,9.23478],[-78.79003,9.23513],[-78.78759,9.23423],[-78.78885,9.22999],[-78.78804,9.22854],[-78.78507,9.2263],[-78.78532,9.21985],[-78.80447,9.21788],[-78.80353,9.22009],[-78.81579,9.21541],[-78.8177,9.21729],[-78.82271,9.20561],[-78.8047,9.20696],[-78.79901,9.20508],[-78.80427,9.20324],[-78.79708,9.20363],[-78.79748,9.20001],[-78.79387,9.20014],[-78.79918,9.19525],[-78.80217,9.19649],[-78.79605,9.18428],[-78.79826,9.17991],[-78.8005,9.18363],[-78.80303,9.18299],[-78.80012,9.18013],[-78.80333,9.17431],[-78.79737,9.17031],[-78.80033,9.16601],[-78.7986,9.16424],[-78.80072,9.16153],[-78.8022,9.16539],[-78.80223,9.16131],[-78.80752,9.16008],[-78.80653,9.16449],[-78.80436,9.16227],[-78.80463,9.16515],[-78.80134,9.16688],[-78.80304,9.16675],[-78.80418,9.17791],[-78.8079,9.17593],[-78.80784,9.17955],[-78.80398,9.17959],[-78.80697,9.18738]],[[-78.69585,9.09819],[-78.69618,9.098],[-78.69574,9.09775],[-78.69585,9.09819]],[[-78.69744,9.09862],[-78.69779,9.0992],[-78.69796,9.09888],[-78.69744,9.09862]],[[-78.70631,9.10068],[-78.70628,9.09625],[-78.70412,9.09672],[-78.70369,9.10027],[-78.70631,9.10068]],[[-78.70707,9.10162],[-78.71239,9.10117],[-78.7128,9.10079],[-78.70707,9.10162]],[[-78.71402,9.10297],[-78.71139,9.10586],[-78.71303,9.10802],[-78.71505,9.10625],[-78.71402,9.10297]]],[[[-78.85741,9.15776],[-78.84973,9.15558],[-78.84638,9.1581],[-78.84634,9.15217],[-78.84367,9.1571],[-78.84394,9.15178],[-78.84202,9.15003],[-78.84195,9.15349],[-78.83931,9.15315],[-78.84083,9.15564],[-78.83647,9.15253],[-78.83733,9.15673],[-78.83455,9.15446],[-78.83362,9.15816],[-78.83061,9.15377],[-78.83521,9.1534],[-78.83304,9.15287],[-78.83466,9.14851],[-78.82997,9.15201],[-78.83042,9.14784],[-78.8265,9.1498],[-78.82884,9.14749],[-78.82582,9.14527],[-78.82273,9.14908],[-78.82319,9.14503],[-78.82026,9.15084],[-78.82028,9.14581],[-78.81748,9.14675],[-78.82024,9.14434],[-78.81371,9.14562],[-78.81682,9.14201],[-78.81197,9.1419],[-78.81159,9.14611],[-78.809,9.14289],[-78.80679,9.14573],[-78.8069,9.13969],[-78.80156,9.13839],[-78.80632,9.13499],[-78.81225,9.13904],[-78.8133,9.13613],[-78.81504,9.13631],[-78.81514,9.13785],[-78.8162,9.13808],[-78.81526,9.13744],[-78.81528,9.13624],[-78.81435,9.13551],[-78.81707,9.13549],[-78.81687,9.13463],[-78.80755,9.13377],[-78.81187,9.13275],[-78.80903,9.13048],[-78.81673,9.12846],[-78.83259,9.13152],[-78.83128,9.13312],[-78.83133,9.13357],[-78.84258,9.13206],[-78.84758,9.12833],[-78.84666,9.13205],[-78.85273,9.12848],[-78.85726,9.13189],[-78.85974,9.14035],[-78.85463,9.14455],[-78.84991,9.14303],[-78.85105,9.14981],[-78.85207,9.147],[-78.85418,9.15157],[-78.85685,9.15164],[-78.84921,9.15306],[-78.85033,9.1554],[-78.85636,9.156],[-78.85665,9.15469],[-78.85881,9.15335],[-78.85741,9.15776]]],[[[-78.82597,8.39678],[-78.81851,8.39325],[-78.81959,8.38907],[-78.81583,8.39049],[-78.81239,8.38748],[-78.81628,8.38405],[-78.81471,8.38149],[-78.80936,8.38117],[-78.80886,8.37464],[-78.81307,8.36922],[-78.81772,8.3717],[-78.8251,8.36941],[-78.83445,8.37625],[-78.82868,8.39036],[-78.83045,8.39189],[-78.83343,8.38723],[-78.83325,8.39113],[-78.82597,8.39678]]],[[[-78.9715,8.30944],[-78.96455,8.31203],[-78.96543,8.32737],[-78.96224,8.32816],[-78.96166,8.33162],[-78.95965,8.32962],[-78.9628,8.32624],[-78.96216,8.31899],[-78.95522,8.31175],[-78.95422,8.32389],[-78.94577,8.31983],[-78.94312,8.32155],[-78.9383,8.31959],[-78.93767,8.32322],[-78.93987,8.32101],[-78.94865,8.32286],[-78.95404,8.33183],[-78.9558,8.32631],[-78.95705,8.33902],[-78.94823,8.34189],[-78.94728,8.33747],[-78.94441,8.33938],[-78.94221,8.33932],[-78.94288,8.33837],[-78.94058,8.33761],[-78.93945,8.33866],[-78.93931,8.3401],[-78.93849,8.33979],[-78.9367,8.34025],[-78.93532,8.3425],[-78.93444,8.34116],[-78.92853,8.33986],[-78.93529,8.34271],[-78.93941,8.34021],[-78.94054,8.33783],[-78.94201,8.33943],[-78.9445,8.33976],[-78.94728,8.33814],[-78.94689,8.34138],[-78.95565,8.35264],[-78.95172,8.34275],[-78.95618,8.35161],[-78.97178,8.36905],[-78.96796,8.37227],[-78.9685,8.3757],[-78.96502,8.37456],[-78.96078,8.3805],[-78.95731,8.37756],[-78.96069,8.3816],[-78.96245,8.3803],[-78.9609,8.38714],[-78.95749,8.38725],[-78.95969,8.39032],[-78.95689,8.39097],[-78.96141,8.39514],[-78.96017,8.40044],[-78.96432,8.40201],[-78.96805,8.41185],[-78.9646,8.41197],[-78.96561,8.41988],[-78.96344,8.42084],[-78.96773,8.42119],[-78.97114,8.42583],[-78.9656,8.43056],[-78.96981,8.43285],[-78.97315,8.43094],[-78.97003,8.43766],[-78.97486,8.44493],[-78.97173,8.45216],[-78.97319,8.45566],[-78.96611,8.46127],[-78.96362,8.45627],[-78.95886,8.45944],[-78.95281,8.45786],[-78.95051,8.45983],[-78.95028,8.45325],[-78.94558,8.45283],[-78.93295,8.46061],[-78.93243,8.45661],[-78.92844,8.45598],[-78.92781,8.45434],[-78.92929,8.45378],[-78.92936,8.45342],[-78.92867,8.45294],[-78.92266,8.45753],[-78.92864,8.46045],[-78.92982,8.46449],[-78.9249,8.46264],[-78.92,8.46692],[-78.91992,8.46084],[-78.91485,8.46375],[-78.91657,8.46776],[-78.90888,8.47089],[-78.90583,8.46886],[-78.90765,8.46097],[-78.90526,8.46612],[-78.90362,8.45906],[-78.89577,8.45923],[-78.89951,8.45751],[-78.90228,8.45261],[-78.90215,8.45021],[-78.89834,8.45702],[-78.89687,8.45675],[-78.89685,8.45387],[-78.89628,8.45332],[-78.89587,8.45376],[-78.89327,8.46347],[-78.8963,8.46601],[-78.89218,8.47458],[-78.88901,8.47516],[-78.88444,8.47056],[-78.88141,8.47183],[-78.88335,8.46435],[-78.87923,8.46217],[-78.87753,8.46788],[-78.87315,8.46125],[-78.87779,8.45645],[-78.8714,8.45774],[-78.87407,8.45246],[-78.86994,8.44922],[-78.87097,8.44805],[-78.87124,8.44723],[-78.87105,8.44619],[-78.87202,8.44533],[-78.8742,8.43643],[-78.87108,8.44316],[-78.87072,8.44805],[-78.86765,8.44915],[-78.86875,8.45472],[-78.86584,8.4547],[-78.86668,8.45017],[-78.8612,8.44989],[-78.8616,8.4458],[-78.85812,8.44674],[-78.86244,8.44053],[-78.85958,8.43224],[-78.8616,8.43232],[-78.86424,8.4161],[-78.87179,8.40508],[-78.86531,8.41229],[-78.86416,8.41078],[-78.85815,8.42243],[-78.85602,8.41642],[-78.8653,8.40354],[-78.85915,8.40592],[-78.85332,8.41527],[-78.85224,8.4113],[-78.84824,8.41217],[-78.84673,8.40595],[-78.84256,8.41298],[-78.84155,8.4074],[-78.83807,8.40566],[-78.83912,8.40222],[-78.83605,8.40087],[-78.84272,8.3996],[-78.8362,8.39401],[-78.83565,8.38957],[-78.8412,8.38402],[-78.84794,8.38293],[-78.84982,8.38849],[-78.85147,8.38482],[-78.85707,8.38641],[-78.84841,8.3788],[-78.85461,8.38154],[-78.85461,8.37905],[-78.86257,8.38413],[-78.86348,8.38375],[-78.85352,8.37805],[-78.85146,8.37103],[-78.84997,8.37365],[-78.84785,8.37289],[-78.85173,8.36705],[-78.84429,8.36757],[-78.83831,8.36301],[-78.83907,8.35873],[-78.84295,8.35656],[-78.84185,8.34791],[-78.84721,8.34605],[-78.85145,8.34151],[-78.85165,8.33974],[-78.85361,8.34063],[-78.85887,8.33798],[-78.85154,8.33958],[-78.8455,8.34628],[-78.83097,8.34467],[-78.83555,8.34068],[-78.84078,8.34067],[-78.83962,8.34266],[-78.84067,8.34285],[-78.8459,8.33139],[-78.84304,8.32052],[-78.8517,8.31452],[-78.85432,8.3036],[-78.85608,8.30299],[-78.85714,8.30558],[-78.85771,8.30585],[-78.85891,8.30559],[-78.85947,8.30592],[-78.8555,8.30184],[-78.85198,8.30404],[-78.85701,8.29581],[-78.87004,8.29713],[-78.87236,8.30221],[-78.87338,8.30246],[-78.87235,8.30092],[-78.88012,8.29954],[-78.88406,8.30214],[-78.89436,8.29956],[-78.89206,8.30394],[-78.89828,8.29682],[-78.89976,8.29979],[-78.89573,8.30711],[-78.89875,8.30891],[-78.89723,8.30624],[-78.90371,8.30878],[-78.91145,8.29419],[-78.91355,8.29938],[-78.92081,8.29784],[-78.91669,8.29153],[-78.92187,8.28296],[-78.91944,8.27505],[-78.92272,8.26523],[-78.91252,8.25498],[-78.9113,8.23884],[-78.91259,8.24439],[-78.91417,8.2459],[-78.91241,8.24142],[-78.91459,8.23999],[-78.90975,8.23188],[-78.90379,8.22733],[-78.8984,8.23067],[-78.89746,8.2234],[-78.9068,8.22089],[-78.9115,8.22738],[-78.91837,8.22784],[-78.9279,8.2359],[-78.92262,8.23786],[-78.92744,8.24126],[-78.92414,8.25122],[-78.93044,8.25775],[-78.9297,8.26198],[-78.93233,8.26442],[-78.93257,8.26924],[-78.92902,8.26924],[-78.92639,8.27337],[-78.93343,8.27835],[-78.92954,8.28026],[-78.92904,8.28264],[-78.93318,8.28065],[-78.93401,8.28644],[-78.93503,8.2874],[-78.93316,8.27357],[-78.94662,8.2877],[-78.94427,8.28786],[-78.94344,8.28846],[-78.94341,8.2888],[-78.95691,8.29008],[-78.95811,8.293],[-78.96498,8.29384],[-78.96675,8.30149],[-78.96323,8.30049],[-78.96305,8.30124],[-78.97149,8.3055],[-78.9715,8.30944]]],[[[-78.8496,9.18645],[-78.84967,9.1748],[-78.84553,9.17254],[-78.83656,9.17483],[-78.83379,9.17013],[-78.83806,9.17206],[-78.8354,9.16999],[-78.83979,9.16843],[-78.83958,9.17057],[-78.84131,9.1714],[-78.84006,9.16647],[-78.84204,9.16808],[-78.84323,9.16808],[-78.84349,9.1675],[-78.84068,9.1649],[-78.83526,9.16847],[-78.83808,9.16415],[-78.83388,9.16233],[-78.83643,9.16254],[-78.83591,9.16001],[-78.84375,9.16232],[-78.8433,9.16004],[-78.83851,9.15963],[-78.84189,9.15591],[-78.84314,9.15962],[-78.84629,9.16111],[-78.84954,9.15844],[-78.85294,9.16167],[-78.85459,9.15906],[-78.85947,9.16189],[-78.8594,9.15772],[-78.86048,9.16198],[-78.86148,9.15669],[-78.86474,9.15509],[-78.86255,9.16173],[-78.87122,9.16282],[-78.86897,9.1683],[-78.86589,9.16537],[-78.85624,9.16891],[-78.85602,9.1655],[-78.85304,9.16453],[-78.85418,9.16875],[-78.84981,9.17084],[-78.85415,9.17182],[-78.85137,9.17519],[-78.85739,9.1711],[-78.85399,9.1754],[-78.85375,9.18448],[-78.8496,9.18645]]],[[[-78.97464,8.48948],[-78.97964,8.48418],[-78.9791,8.47648],[-78.98458,8.47801],[-78.98726,8.47491],[-78.98743,8.4774],[-78.99681,8.46941],[-78.98819,8.46983],[-78.99036,8.46723],[-78.99595,8.46762],[-78.99603,8.46459],[-78.98615,8.46609],[-78.98771,8.46339],[-78.98534,8.46047],[-78.9729,8.46284],[-78.98043,8.45596],[-78.97636,8.44738],[-78.98069,8.44298],[-78.97948,8.45032],[-78.98682,8.45069],[-78.98926,8.46063],[-79.00337,8.46318],[-79.00816,8.45829],[-79.00812,8.46121],[-79.01469,8.46664],[-79.02315,8.46592],[-79.02044,8.47143],[-79.01713,8.46926],[-79.01215,8.47305],[-79.00925,8.46676],[-79.00885,8.47127],[-79.00468,8.46976],[-79.002,8.47684],[-78.99675,8.47687],[-78.9964,8.47378],[-78.99364,8.47916],[-78.99085,8.47812],[-78.98338,8.48275],[-78.98222,8.48887],[-78.97464,8.48948]]],[[[-79.10345,8.31564],[-79.10264,8.31045],[-79.09931,8.31009],[-79.08404,8.28835],[-79.0839,8.27213],[-79.07655,8.26898],[-79.07627,8.263],[-79.06891,8.2643],[-79.07017,8.2624],[-79.06618,8.25851],[-79.07791,8.25895],[-79.07781,8.25564],[-79.08212,8.254],[-79.08327,8.25883],[-79.08688,8.26055],[-79.10244,8.25654],[-79.10649,8.24585],[-79.1031,8.23924],[-79.09838,8.23852],[-79.09982,8.23013],[-79.10575,8.23132],[-79.10821,8.22678],[-79.11091,8.22698],[-79.11156,8.22202],[-79.10828,8.21794],[-79.11117,8.2096],[-79.11283,8.21392],[-79.12087,8.20882],[-79.12274,8.21266],[-79.12958,8.21403],[-79.13104,8.22166],[-79.12709,8.22739],[-79.13457,8.22362],[-79.13231,8.2283],[-79.13737,8.23669],[-79.13773,8.24415],[-79.14445,8.2395],[-79.14267,8.25081],[-79.13978,8.24971],[-79.13687,8.25964],[-79.13452,8.25436],[-79.12033,8.25816],[-79.13086,8.26405],[-79.12983,8.26806],[-79.12623,8.26884],[-79.12822,8.27147],[-79.1238,8.27949],[-79.12925,8.28155],[-79.1249,8.28396],[-79.12942,8.28685],[-79.1276,8.2914],[-79.12968,8.29489],[-79.1214,8.30363],[-79.12272,8.30668],[-79.11623,8.31321],[-79.11703,8.31544],[-79.10345,8.31564]]],[[[-79.11408,8.42819],[-79.11572,8.42132],[-79.10147,8.41522],[-79.10048,8.41145],[-79.10323,8.40806],[-79.10061,8.40629],[-79.09576,8.40852],[-79.09448,8.40096],[-79.09079,8.4023],[-79.09106,8.40761],[-79.088,8.40971],[-79.08829,8.41354],[-79.09126,8.4131],[-79.08996,8.41892],[-79.0869,8.41953],[-79.08229,8.41406],[-79.08704,8.40194],[-79.08003,8.3966],[-79.08586,8.38583],[-79.08405,8.38253],[-79.08601,8.37806],[-79.09341,8.3799],[-79.09559,8.37795],[-79.09622,8.38369],[-79.09947,8.38278],[-79.10378,8.38939],[-79.11716,8.39169],[-79.1154,8.39655],[-79.11865,8.40173],[-79.11769,8.40205],[-79.11727,8.4038],[-79.12005,8.40104],[-79.12165,8.40459],[-79.12798,8.40058],[-79.12856,8.4036],[-79.13176,8.40406],[-79.12667,8.41253],[-79.1296,8.41686],[-79.12697,8.42145],[-79.11941,8.42849],[-79.11408,8.42819]]],[[[-79.56639,8.80407],[-79.55507,8.80065],[-79.5552,8.79608],[-79.54908,8.78765],[-79.5456,8.78927],[-79.54158,8.78625],[-79.54053,8.77928],[-79.54369,8.77522],[-79.54937,8.77521],[-79.55245,8.7825],[-79.56459,8.78349],[-79.56609,8.78139],[-79.56974,8.78387],[-79.57076,8.79897],[-79.56639,8.80407]]]]}}]}