{"type":"FeatureCollection","features":[{"type":"Feature","properties":{"codigo":"8-2","provincia":"Panamá","descripcion":"Distrito de San Miguelito","diputados_a_elegir":7,"poblacion_electores_2022":243978,"bbox":[-79.55212,9.02537,-79.43595,9.09125]},"geometry":{"type":"Polygon","coordinates":[[[-79.46481,9.04716],[-79.49583,9.02553],[-79.50458,9.0254],[-79.50685,9.02923],[-79.51104,9.02537],[-79.51492,9.03359],[-79.52303,9.03343],[-79.55212,9.06077],[-79.54088,9.05847],[-79.53832,9.0616],[-79.52745,9.06328],[-79.52567,9.06963],[-79.51899,9.07701],[-79.51244,9.08042],[-79.50679,9.0749],[-79.49953,9.07589],[-79.49475,9.08251],[-79.49558,9.08524],[-79.49049,9.08963],[-79.48356,9.08869],[-79.48391,9.09125],[-79.47017,9.08894],[-79.47038,9.08647],[-79.45695,9.08267],[-79.45941,9.08171],[-79.45706,9.08005],[-79.44666,9.08279],[-79.43595,9.06668],[-79.43978,9.05421],[-79.46481,9.04716]]]}}]}