{"type":"FeatureCollection","features":[{"type":"Feature","properties":{"codigo":"8-3","provincia":"Panamá","descripcion":"San Felipe, El Chorrillo, Santa Ana, Calidonia, Curundú, Ancón, Bella Vista, Betania y Pueblo Nuevo","diputados_a_elegir":5,"poblacion_electores_2022":159132,"bbox":[-79.69455,8.90685,-79.50458,9.20982]},"geometry":{"type":"MultiPolygon","coordinates":[[[[-79.64822,9.17692],[-79.64671,9.17512],[-79.64904,9.17647],[-79.65373,9.17056],[-79.62684,9.14257],[-79.61275,9.11847],[-79.59683,9.09884],[-79.52303,9.03343],[-79.51771,9.03497],[-79.51104,9.02537],[-79.50685,9.02923],[-79.50458,9.0254],[-79.5101,9.01993],[-79.50488,9.01052],[-79.5153,9.00385],[-79.51967,8.99396],[-79.51332,8.98519],[-79.5178,8.98134],[-79.51845,8.97477],[-79.52619,8.97371],[-79.53606,8.96014],[-79.53591,8.95427],[-79.53222,8.954],[-79.53191,8.94912],[-79.53748,8.9507],[-79.54857,8.94703],[-79.54928,8.9445],[-79.55316,8.94637],[-79.55215,8.94393],[-79.5442,8.94306],[-79.54368,8.93024],[-79.53199,8.91636],[-79.52841,8.91534],[-79.5279,8.9184],[-79.51944,8.91589],[-79.5245,8.91265],[-79.51952,8.91164],[-79.51937,8.91493],[-79.51931,8.90685],[-79.52248,8.90721],[-79.52653,8.91486],[-79.52997,8.91466],[-79.5264,8.91242],[-79.52892,8.91051],[-79.52977,8.91369],[-79.53624,8.91594],[-79.53454,8.91567],[-79.53418,8.91785],[-79.54707,8.93373],[-79.56718,8.94774],[-79.5685,8.95423],[-79.56495,8.95716],[-79.57118,8.96449],[-79.56928,8.96514],[-79.57384,8.96677],[-79.58196,8.99193],[-79.58842,8.99867],[-79.59409,9.00044],[-79.59651,9.00712],[-79.60566,9.01536],[-79.61021,9.01538],[-79.61839,9.02373],[-79.64399,9.04058],[-79.65668,9.05829],[-79.67024,9.06962],[-79.68317,9.09672],[-79.69455,9.11137],[-79.69101,9.11364],[-79.68541,9.11158],[-79.68805,9.11448],[-79.68596,9.11308],[-79.68066,9.11898],[-79.68559,9.11956],[-79.68517,9.12169],[-79.6798,9.12304],[-79.68426,9.12461],[-79.68606,9.12897],[-79.68127,9.12886],[-79.67584,9.13327],[-79.67354,9.14025],[-79.66759,9.14517],[-79.6657,9.14974],[-79.67475,9.14076],[-79.67474,9.14403],[-79.65312,9.16565],[-79.65687,9.16334],[-79.65495,9.17082],[-79.65197,9.17297],[-79.65246,9.17438],[-79.65532,9.17154],[-79.6578,9.16296],[-79.65455,9.17509],[-79.65136,9.17447],[-79.65086,9.17507],[-79.65061,9.17702],[-79.64822,9.17692]]],[[[-79.61599,9.20982],[-79.6164,9.20275],[-79.61169,9.20375],[-79.60259,9.18795],[-79.61116,9.18491],[-79.61534,9.18755],[-79.61459,9.1956],[-79.63057,9.19961],[-79.63712,9.19912],[-79.64076,9.19551],[-79.63898,9.19412],[-79.64704,9.19185],[-79.64612,9.18826],[-79.65155,9.18652],[-79.65092,9.18439],[-79.64276,9.18674],[-79.64233,9.18307],[-79.63522,9.18489],[-79.63496,9.18133],[-79.6379,9.18132],[-79.63478,9.17815],[-79.63859,9.17187],[-79.63401,9.17552],[-79.63586,9.16555],[-79.63361,9.16728],[-79.62687,9.16489],[-79.62306,9.17166],[-79.6237,9.17446],[-79.62284,9.17563],[-79.62528,9.17555],[-79.62612,9.17821],[-79.62426,9.18066],[-79.62481,9.17645],[-79.62292,9.17678],[-79.6213,9.17267],[-79.62335,9.16916],[-79.62009,9.1693],[-79.62595,9.16472],[-79.61956,9.16481],[-79.62442,9.16281],[-79.61839,9.15869],[-79.62139,9.16015],[-79.62431,9.15739],[-79.62559,9.1631],[-79.62833,9.16134],[-79.62885,9.16405],[-79.63121,9.16242],[-79.63431,9.16599],[-79.63412,9.15474],[-79.62493,9.1529],[-79.63187,9.15308],[-79.63233,9.15103],[-79.6373,9.15458],[-79.63819,9.16995],[-79.64183,9.17286],[-79.64001,9.17462],[-79.64332,9.17438],[-79.64443,9.17705],[-79.64902,9.18013],[-79.63993,9.17652],[-79.64648,9.18144],[-79.64917,9.18021],[-79.64782,9.17716],[-79.6507,9.1772],[-79.65128,9.17468],[-79.6542,9.17557],[-79.655,9.17467],[-79.65547,9.17332],[-79.65381,9.18055],[-79.65225,9.18112],[-79.65256,9.19194],[-79.64365,9.19981],[-79.64553,9.20533],[-79.62033,9.20293],[-79.619,9.20923],[-79.61599,9.20982]]]]}}]}