{"type":"FeatureCollection","features":[{"type":"Feature","properties":{"codigo":"8-4","provincia":"Panamá","descripcion":"Río Abajo, San Francisco, Parque Lefevre, Juan Díaz y Don Bosco","diputados_a_elegir":5,"poblacion_electores_2022":161151,"bbox":[-79.51967,8.96984,-79.3986,9.06499]},"geometry":{"type":"Polygon","coordinates":[[[-79.4948,9.00296],[-79.4955,8.99943],[-79.49198,8.99865],[-79.49716,8.98873],[-79.50669,8.98117],[-79.50623,8.97405],[-79.51199,8.97512],[-79.51749,8.96984],[-79.51905,8.97818],[-79.51281,8.98678],[-79.51967,8.99396],[-79.5153,9.00385],[-79.50488,9.01052],[-79.5101,9.01993],[-79.50458,9.0254],[-79.49583,9.02553],[-79.49428,9.02885],[-79.46481,9.04716],[-79.44574,9.05153],[-79.41598,9.06499],[-79.40634,9.05588],[-79.4085,9.05437],[-79.40651,9.04905],[-79.39914,9.04854],[-79.39929,9.04044],[-79.40383,9.03122],[-79.3986,9.02666],[-79.4009,9.01778],[-79.40611,9.01937],[-79.40937,9.01601],[-79.43098,9.01263],[-79.43511,9.01312],[-79.4356,9.0179],[-79.4446,9.0112],[-79.45566,9.01144],[-79.46355,9.00774],[-79.46931,9.00968],[-79.47557,9.00589],[-79.48209,9.00806],[-79.48362,9.00447],[-79.4948,9.00296]]]}}]}