{"type":"FeatureCollection","features":[{"type":"Feature","properties":{"codigo":"8-5","provincia":"Panamá","descripcion":"Chilibre, Las Cumbres, Alcalde Díaz, Ernesto Córdoba Campos y Caimitillo","diputados_a_elegir":3,"poblacion_electores_2022":133448,"bbox":[-79.65376,9.05878,-79.2439,9.4997]},"geometry":{"type":"Polygon","coordinates":[[[-79.59186,9.09447],[-79.61275,9.11847],[-79.62684,9.14257],[-79.65376,9.17062],[-79.64885,9.17656],[-79.64015,9.17476],[-79.64183,9.17286],[-79.63819,9.16995],[-79.63729,9.15455],[-79.63233,9.15103],[-79.63182,9.15309],[-79.62661,9.1516],[-79.62499,9.15308],[-79.63409,9.15472],[-79.63542,9.15961],[-79.63404,9.16606],[-79.62833,9.16134],[-79.62559,9.1631],[-79.62456,9.15751],[-79.6218,9.15739],[-79.62139,9.16015],[-79.61842,9.15861],[-79.62442,9.16281],[-79.61951,9.16478],[-79.62595,9.16472],[-79.62009,9.1693],[-79.62335,9.16916],[-79.6213,9.17267],[-79.62292,9.17678],[-79.62481,9.17645],[-79.62428,9.1807],[-79.62612,9.17821],[-79.62528,9.17555],[-79.62284,9.17563],[-79.62306,9.17166],[-79.62687,9.16489],[-79.63361,9.16728],[-79.63586,9.16555],[-79.63401,9.17552],[-79.63859,9.17187],[-79.63478,9.17815],[-79.6379,9.18132],[-79.63496,9.18133],[-79.63522,9.18489],[-79.64233,9.18307],[-79.64286,9.18678],[-79.65092,9.18439],[-79.65156,9.18646],[-79.64611,9.18828],[-79.64704,9.19185],[-79.63898,9.19412],[-79.64076,9.19551],[-79.63712,9.19912],[-79.63057,9.19961],[-79.61459,9.1956],[-79.61534,9.18755],[-79.61116,9.18491],[-79.60259,9.18795],[-79.61169,9.20375],[-79.60367,9.20788],[-79.60811,9.21351],[-79.6105,9.21114],[-79.60976,9.21645],[-79.61505,9.22009],[-79.61306,9.22297],[-79.61024,9.21944],[-79.6064,9.22026],[-79.59507,9.21489],[-79.5912,9.21055],[-79.59226,9.20496],[-79.59013,9.20294],[-79.59426,9.19984],[-79.59358,9.19828],[-79.59073,9.20053],[-79.58753,9.19772],[-79.58725,9.20147],[-79.58425,9.20144],[-79.58522,9.19649],[-79.58716,9.19729],[-79.59192,9.18952],[-79.58728,9.19302],[-79.58506,9.19151],[-79.58631,9.19364],[-79.58324,9.19555],[-79.5818,9.1912],[-79.58639,9.18909],[-79.58208,9.1864],[-79.58257,9.18412],[-79.58179,9.18194],[-79.58058,9.18617],[-79.58245,9.19005],[-79.57638,9.19003],[-79.58114,9.19134],[-79.57914,9.19634],[-79.57314,9.19766],[-79.57869,9.19902],[-79.57823,9.20103],[-79.57045,9.19661],[-79.57029,9.20017],[-79.56858,9.19585],[-79.56401,9.19748],[-79.56448,9.19152],[-79.56245,9.19038],[-79.56156,9.19674],[-79.55721,9.1983],[-79.55633,9.19623],[-79.55533,9.19688],[-79.55537,9.19532],[-79.55471,9.19423],[-79.55371,9.19361],[-79.55669,9.20049],[-79.56551,9.19737],[-79.56353,9.20461],[-79.56565,9.21036],[-79.55878,9.21751],[-79.56043,9.22023],[-79.56765,9.21659],[-79.56159,9.22331],[-79.5647,9.22254],[-79.56282,9.22511],[-79.56482,9.22633],[-79.55745,9.22398],[-79.55526,9.22751],[-79.54921,9.22842],[-79.55042,9.22582],[-79.54818,9.22682],[-79.54422,9.22064],[-79.53784,9.22276],[-79.53537,9.22058],[-79.5368,9.2193],[-79.53471,9.21735],[-79.53581,9.21881],[-79.53169,9.21768],[-79.5305,9.22059],[-79.52962,9.22081],[-79.53005,9.22048],[-79.52917,9.22031],[-79.52916,9.21933],[-79.52801,9.21524],[-79.52726,9.21309],[-79.52612,9.21123],[-79.5289,9.22072],[-79.53045,9.22137],[-79.53193,9.21817],[-79.53395,9.21926],[-79.53394,9.22519],[-79.53813,9.22613],[-79.53818,9.22886],[-79.53373,9.23122],[-79.52953,9.22751],[-79.52709,9.22806],[-79.52542,9.23103],[-79.53108,9.23598],[-79.52943,9.23952],[-79.53253,9.24177],[-79.53058,9.24509],[-79.52836,9.24452],[-79.51726,9.24824],[-79.52214,9.25552],[-79.51676,9.25674],[-79.51692,9.25816],[-79.51932,9.26054],[-79.51749,9.26103],[-79.51971,9.2609],[-79.51706,9.25702],[-79.52284,9.25571],[-79.5202,9.24828],[-79.53054,9.24589],[-79.53303,9.24234],[-79.53258,9.24078],[-79.52996,9.23933],[-79.53175,9.23654],[-79.52747,9.2287],[-79.53389,9.23234],[-79.53907,9.22938],[-79.54197,9.22289],[-79.54719,9.22985],[-79.54268,9.23211],[-79.54799,9.23321],[-79.54802,9.23035],[-79.55102,9.23397],[-79.55095,9.23485],[-79.54973,9.2355],[-79.54949,9.23622],[-79.55184,9.23781],[-79.55124,9.23488],[-79.55399,9.23364],[-79.55472,9.24023],[-79.5576,9.23864],[-79.5565,9.24358],[-79.54728,9.24251],[-79.55105,9.24621],[-79.54945,9.24889],[-79.55357,9.24427],[-79.55565,9.24512],[-79.55414,9.2462],[-79.55315,9.24825],[-79.55708,9.2452],[-79.55617,9.24821],[-79.55858,9.24922],[-79.56048,9.24111],[-79.56374,9.24353],[-79.56129,9.24811],[-79.56498,9.24472],[-79.56282,9.24926],[-79.56879,9.24703],[-79.56511,9.2514],[-79.56869,9.25056],[-79.56729,9.25256],[-79.57117,9.25429],[-79.56835,9.25624],[-79.57522,9.26151],[-79.5717,9.2636],[-79.57698,9.2659],[-79.57225,9.26631],[-79.57287,9.26915],[-79.56819,9.27056],[-79.56915,9.27424],[-79.57653,9.26951],[-79.57914,9.27076],[-79.576,9.27694],[-79.5713,9.27579],[-79.56931,9.27861],[-79.57283,9.27812],[-79.57212,9.28077],[-79.57511,9.27773],[-79.57613,9.28226],[-79.56707,9.28446],[-79.57101,9.28625],[-79.57621,9.28596],[-79.57423,9.28503],[-79.57837,9.28287],[-79.58208,9.29117],[-79.5785,9.29105],[-79.57726,9.2939],[-79.5812,9.29369],[-79.57771,9.29731],[-79.57508,9.29529],[-79.57413,9.295],[-79.57668,9.29779],[-79.57427,9.30083],[-79.57799,9.29859],[-79.58296,9.30124],[-79.57941,9.30409],[-79.58083,9.30838],[-79.56777,9.32285],[-79.56512,9.3232],[-79.56223,9.3139],[-79.56201,9.31695],[-79.55874,9.31408],[-79.55698,9.31531],[-79.56436,9.32175],[-79.56315,9.32471],[-79.5686,9.32504],[-79.5601,9.3263],[-79.56605,9.32727],[-79.55791,9.33808],[-79.55407,9.33697],[-79.55226,9.34248],[-79.55068,9.34084],[-79.54919,9.3424],[-79.55221,9.34455],[-79.54757,9.34791],[-79.55124,9.34701],[-79.54996,9.3552],[-79.54429,9.34973],[-79.54345,9.35488],[-79.53992,9.35348],[-79.53732,9.35365],[-79.53699,9.35562],[-79.53951,9.35742],[-79.53689,9.35839],[-79.5338,9.36249],[-79.53348,9.36826],[-79.53113,9.36714],[-79.52824,9.36932],[-79.52768,9.37101],[-79.52822,9.37479],[-79.52532,9.37654],[-79.52877,9.37459],[-79.52876,9.3692],[-79.53406,9.36832],[-79.53405,9.3626],[-79.54001,9.35797],[-79.53817,9.35369],[-79.5425,9.35552],[-79.54557,9.35376],[-79.5487,9.35668],[-79.55488,9.355],[-79.55606,9.36178],[-79.56599,9.36077],[-79.5657,9.36581],[-79.56923,9.36771],[-79.56633,9.36984],[-79.56977,9.37285],[-79.56308,9.37784],[-79.56482,9.38092],[-79.55926,9.38327],[-79.56422,9.38623],[-79.55993,9.38987],[-79.55931,9.39557],[-79.55241,9.39807],[-79.55661,9.39959],[-79.55599,9.40901],[-79.55013,9.41098],[-79.54783,9.41667],[-79.54484,9.41455],[-79.54159,9.4196],[-79.54484,9.42092],[-79.54685,9.43295],[-79.54061,9.43602],[-79.54153,9.4421],[-79.53739,9.44197],[-79.53898,9.44574],[-79.53692,9.44726],[-79.53957,9.4501],[-79.53657,9.45271],[-79.53915,9.45252],[-79.53808,9.45747],[-79.54159,9.46001],[-79.53613,9.46132],[-79.53642,9.47496],[-79.51472,9.47864],[-79.51236,9.48641],[-79.50135,9.48375],[-79.4993,9.48749],[-79.49835,9.48054],[-79.48538,9.47696],[-79.48235,9.48375],[-79.46958,9.49176],[-79.46576,9.48999],[-79.46416,9.49539],[-79.45316,9.49946],[-79.44377,9.49439],[-79.43846,9.49751],[-79.43142,9.49168],[-79.42794,9.4977],[-79.41954,9.49697],[-79.41394,9.4997],[-79.3993,9.49448],[-79.39754,9.48349],[-79.40673,9.47807],[-79.40966,9.47113],[-79.39618,9.46018],[-79.40105,9.45239],[-79.39568,9.44219],[-79.39461,9.42494],[-79.40863,9.41462],[-79.41885,9.41146],[-79.41773,9.40108],[-79.40608,9.40862],[-79.38448,9.40722],[-79.37823,9.41736],[-79.36981,9.42152],[-79.36006,9.41999],[-79.35782,9.41192],[-79.34871,9.40944],[-79.3389,9.41618],[-79.33639,9.42423],[-79.33068,9.42404],[-79.32562,9.42766],[-79.32599,9.43536],[-79.31939,9.44179],[-79.30498,9.44125],[-79.30018,9.43652],[-79.29911,9.43035],[-79.28797,9.42726],[-79.28614,9.42121],[-79.28086,9.41793],[-79.27289,9.42398],[-79.264,9.4234],[-79.26475,9.41619],[-79.2741,9.40229],[-79.26786,9.39894],[-79.26635,9.39364],[-79.25479,9.39263],[-79.25007,9.3834],[-79.24424,9.37983],[-79.2439,9.37233],[-79.24793,9.35945],[-79.25502,9.35095],[-79.2556,9.34449],[-79.26388,9.33954],[-79.26521,9.33349],[-79.27012,9.33453],[-79.27066,9.32785],[-79.27715,9.32119],[-79.27905,9.31],[-79.2756,9.30641],[-79.27558,9.30027],[-79.2945,9.29011],[-79.33549,9.27779],[-79.35207,9.25917],[-79.35148,9.24303],[-79.35797,9.23959],[-79.3583,9.23376],[-79.36296,9.22808],[-79.37061,9.22591],[-79.37157,9.22055],[-79.37517,9.22006],[-79.38615,9.23342],[-79.4002,9.23124],[-79.40631,9.22309],[-79.40075,9.21293],[-79.40889,9.19486],[-79.44377,9.19274],[-79.44829,9.19022],[-79.45316,9.19936],[-79.45986,9.19897],[-79.46012,9.20598],[-79.46625,9.20832],[-79.46792,9.21361],[-79.47871,9.21616],[-79.47706,9.21085],[-79.47249,9.20901],[-79.46908,9.20327],[-79.4624,9.1844],[-79.46759,9.17643],[-79.46188,9.16841],[-79.46128,9.15951],[-79.46667,9.14924],[-79.46293,9.13748],[-79.45746,9.13222],[-79.46322,9.10851],[-79.45907,9.10218],[-79.4632,9.09883],[-79.45179,9.0819],[-79.45871,9.08051],[-79.45684,9.08258],[-79.47038,9.08647],[-79.47017,9.08894],[-79.48391,9.09125],[-79.48356,9.08869],[-79.49049,9.08963],[-79.49558,9.08524],[-79.49475,9.08251],[-79.49949,9.07591],[-79.50679,9.0749],[-79.51252,9.08041],[-79.5216,9.07503],[-79.52739,9.06331],[-79.54764,9.05878],[-79.59186,9.09447]]]}}]}