{"type":"FeatureCollection","features":[{"type":"Feature","properties":{"codigo":"8-6","provincia":"Panamá","descripcion":"Pedregal, Pacora, San Martín, Tocumen, Las Mañanitas, 24 de Diciembre y Las Garzas","diputados_a_elegir":4,"poblacion_electores_2022":209336,"bbox":[-79.47828,9.01388,-79.12497,9.29982]},"geometry":{"type":"Polygon","coordinates":[[[-79.41602,9.06498],[-79.43978,9.05421],[-79.43595,9.06668],[-79.44369,9.0797],[-79.44679,9.08286],[-79.45179,9.0819],[-79.4626,9.09626],[-79.46316,9.09901],[-79.45907,9.10218],[-79.46322,9.10851],[-79.45746,9.13222],[-79.46286,9.13736],[-79.46624,9.14615],[-79.46462,9.15698],[-79.46128,9.15951],[-79.46188,9.16841],[-79.4676,9.1763],[-79.4624,9.1844],[-79.46908,9.20327],[-79.47249,9.20901],[-79.47706,9.21085],[-79.47828,9.21668],[-79.47447,9.21359],[-79.46792,9.21361],[-79.46625,9.20832],[-79.46012,9.20598],[-79.45986,9.19897],[-79.45316,9.19936],[-79.44829,9.19022],[-79.44377,9.19274],[-79.40889,9.19486],[-79.40075,9.21293],[-79.40631,9.22309],[-79.4002,9.23124],[-79.38615,9.23342],[-79.37517,9.22006],[-79.37157,9.22055],[-79.37061,9.22591],[-79.36296,9.22808],[-79.3583,9.23376],[-79.35797,9.23959],[-79.35148,9.24303],[-79.35207,9.25917],[-79.33549,9.27779],[-79.2945,9.29011],[-79.27742,9.29982],[-79.27859,9.29477],[-79.2851,9.28943],[-79.285,9.28506],[-79.27317,9.27442],[-79.27236,9.26891],[-79.26253,9.2636],[-79.23599,9.26282],[-79.22465,9.25404],[-79.21644,9.25383],[-79.21467,9.24725],[-79.20509,9.24685],[-79.19595,9.24278],[-79.1883,9.25277],[-79.17222,9.24354],[-79.16777,9.24368],[-79.1681,9.23341],[-79.16453,9.23293],[-79.15734,9.21895],[-79.1707,9.22103],[-79.17729,9.21531],[-79.1891,9.21179],[-79.1898,9.20691],[-79.19416,9.20324],[-79.19796,9.20367],[-79.21093,9.19531],[-79.21319,9.19712],[-79.21858,9.19488],[-79.22665,9.18661],[-79.22435,9.17925],[-79.23243,9.17764],[-79.23883,9.17094],[-79.2408,9.15491],[-79.2356,9.14739],[-79.23171,9.13388],[-79.23273,9.12718],[-79.21985,9.11645],[-79.20069,9.11544],[-79.19116,9.10653],[-79.18879,9.10074],[-79.16759,9.0966],[-79.15741,9.10132],[-79.15187,9.10058],[-79.13803,9.09336],[-79.13768,9.08914],[-79.14133,9.08638],[-79.13449,9.08231],[-79.13729,9.07952],[-79.13924,9.08082],[-79.14049,9.07707],[-79.13729,9.07222],[-79.13233,9.07246],[-79.13716,9.06651],[-79.13162,9.06326],[-79.13989,9.05738],[-79.13715,9.05372],[-79.12866,9.05665],[-79.12497,9.05241],[-79.12864,9.04796],[-79.13688,9.04735],[-79.13153,9.03566],[-79.13872,9.02872],[-79.14202,9.03061],[-79.13733,9.03875],[-79.15244,9.04319],[-79.15481,9.0401],[-79.15118,9.02968],[-79.15772,9.01882],[-79.16239,9.02135],[-79.15816,9.03257],[-79.16137,9.03838],[-79.17439,9.03293],[-79.17128,9.01789],[-79.18396,9.01388],[-79.21049,9.01425],[-79.27452,9.02282],[-79.28651,9.02603],[-79.28612,9.02867],[-79.29136,9.02499],[-79.31568,9.02254],[-79.34665,9.02205],[-79.35355,9.02673],[-79.3585,9.02096],[-79.39123,9.01839],[-79.39757,9.02254],[-79.40138,9.03125],[-79.40379,9.03105],[-79.39929,9.04044],[-79.39914,9.04854],[-79.40651,9.04905],[-79.4085,9.05437],[-79.40634,9.05588],[-79.41602,9.06498]]]}}]}