{"type":"FeatureCollection","features":[{"type":"Feature","properties":{"codigo":"9-1","provincia":"Veraguas","descripcion":"Distrito de Santiago","diputados_a_elegir":2,"poblacion_electores_2022":71592,"bbox":[-81.15259,7.72757,-80.68486,8.25654]},"geometry":{"type":"Polygon","coordinates":[[[-80.94992,7.83115],[-80.94203,7.82958],[-80.9511,7.81038],[-80.95317,7.8104],[-80.95502,7.80088],[-80.94622,7.79235],[-80.94964,7.78958],[-80.94619,7.78562],[-80.94858,7.78174],[-80.95558,7.78141],[-80.96352,7.77465],[-80.95941,7.76596],[-80.95446,7.76646],[-80.95632,7.76291],[-80.95327,7.76162],[-80.96022,7.75226],[-80.96418,7.75173],[-80.96245,7.74857],[-80.97037,7.74],[-80.9734,7.74025],[-80.97327,7.73783],[-80.98067,7.74347],[-80.98671,7.74134],[-80.98341,7.73292],[-80.99152,7.73008],[-80.99351,7.73195],[-80.99816,7.72757],[-81.00381,7.7316],[-81.01418,7.72875],[-81.01949,7.73605],[-81.01508,7.74358],[-81.02836,7.74253],[-81.0346,7.75217],[-81.04047,7.74998],[-81.05521,7.75094],[-81.06374,7.74738],[-81.06508,7.75733],[-81.07492,7.75696],[-81.07953,7.76641],[-81.08982,7.77346],[-81.08617,7.79459],[-81.07913,7.80787],[-81.06867,7.817],[-81.05925,7.81824],[-81.05822,7.82361],[-81.06187,7.82545],[-81.06116,7.83275],[-81.06529,7.84693],[-81.06136,7.86931],[-81.06551,7.87537],[-81.06475,7.88102],[-81.06714,7.88157],[-81.00883,7.9166],[-81.01424,7.92697],[-81.00457,7.94952],[-81.0058,7.95639],[-81.01714,7.95526],[-81.02228,7.95959],[-81.03315,7.95545],[-81.03276,7.96063],[-81.02317,7.97232],[-81.02642,7.98038],[-81.0228,7.98123],[-81.02411,7.9897],[-81.02966,7.99294],[-81.0261,7.99759],[-81.0277,7.99979],[-81.01705,8.00757],[-81.00607,8.00368],[-81.00834,8.01152],[-81.01265,8.01552],[-81.02288,8.01665],[-81.03121,8.02901],[-81.04326,8.0222],[-81.04768,8.03353],[-81.04455,8.04639],[-81.04634,8.0564],[-81.05081,8.0595],[-81.05965,8.06086],[-81.06615,8.0545],[-81.09471,8.04083],[-81.0918,8.05139],[-81.10019,8.06043],[-81.09221,8.0643],[-81.09552,8.06612],[-81.09458,8.07809],[-81.09122,8.08413],[-81.09473,8.08922],[-81.09335,8.09628],[-81.08982,8.09779],[-81.09601,8.10012],[-81.0997,8.11009],[-81.09628,8.11197],[-81.09863,8.13408],[-81.09432,8.13804],[-81.09953,8.14699],[-81.0962,8.15383],[-81.09257,8.15204],[-81.08434,8.16756],[-81.08824,8.17296],[-81.08632,8.17975],[-81.10025,8.18916],[-81.09884,8.19376],[-81.10759,8.19951],[-81.11043,8.19609],[-81.12648,8.20454],[-81.1323,8.20276],[-81.13518,8.20555],[-81.14486,8.22658],[-81.14224,8.2303],[-81.1502,8.23846],[-81.14702,8.24245],[-81.15259,8.24734],[-81.14891,8.25526],[-81.13617,8.24296],[-81.13129,8.24742],[-81.12672,8.2451],[-81.11705,8.24796],[-81.10731,8.25651],[-81.10091,8.25285],[-81.09383,8.25654],[-81.08092,8.22649],[-81.00192,8.20096],[-80.99313,8.20353],[-80.98604,8.21159],[-80.97843,8.21146],[-80.97454,8.21525],[-80.9664,8.2152],[-80.96142,8.21079],[-80.95935,8.21336],[-80.95413,8.2124],[-80.95098,8.21731],[-80.94435,8.20668],[-80.93367,8.21791],[-80.91782,8.20906],[-80.91217,8.20947],[-80.90747,8.19839],[-80.89363,8.2077],[-80.88927,8.20096],[-80.88074,8.19798],[-80.87014,8.20487],[-80.86306,8.19585],[-80.86361,8.18897],[-80.84997,8.18552],[-80.84749,8.17733],[-80.83971,8.17976],[-80.83425,8.18893],[-80.83112,8.18697],[-80.83242,8.17808],[-80.82983,8.1781],[-80.82326,8.19657],[-80.80732,8.18065],[-80.78553,8.17631],[-80.77527,8.18358],[-80.77114,8.18256],[-80.76855,8.17734],[-80.76358,8.18125],[-80.74616,8.18609],[-80.73589,8.179],[-80.73418,8.17461],[-80.715,8.16498],[-80.72064,8.16215],[-80.71963,8.15903],[-80.71065,8.15273],[-80.70265,8.15544],[-80.7004,8.15324],[-80.702,8.14686],[-80.69386,8.13942],[-80.68486,8.13782],[-80.6923,8.1372],[-80.69094,8.13481],[-80.69409,8.1334],[-80.6951,8.13577],[-80.69992,8.13521],[-80.70381,8.13072],[-80.7051,8.13437],[-80.707,8.13123],[-80.72262,8.14068],[-80.73049,8.1381],[-80.73251,8.14641],[-80.73491,8.1456],[-80.73246,8.14399],[-80.73427,8.14245],[-80.74291,8.14425],[-80.74156,8.14138],[-80.7438,8.14011],[-80.74547,8.14259],[-80.75011,8.14063],[-80.75164,8.14275],[-80.75514,8.14055],[-80.75197,8.13431],[-80.7651,8.12677],[-80.76364,8.12409],[-80.76576,8.12443],[-80.76583,8.12136],[-80.76196,8.11725],[-80.76544,8.11695],[-80.7621,8.11254],[-80.76314,8.10574],[-80.76682,8.10195],[-80.76747,8.10484],[-80.77828,8.1018],[-80.781,8.10404],[-80.78038,8.09888],[-80.7849,8.09223],[-80.78241,8.08869],[-80.79321,8.087],[-80.7961,8.08977],[-80.8013,8.08481],[-80.81015,8.08344],[-80.8181,8.07636],[-80.82015,8.07833],[-80.81872,8.07161],[-80.82188,8.06941],[-80.82779,8.07089],[-80.83328,8.06694],[-80.83837,8.07207],[-80.84649,8.06405],[-80.85758,8.06842],[-80.86168,8.06668],[-80.86362,8.0776],[-80.8823,8.08467],[-80.92838,8.07233],[-80.94856,8.09416],[-80.94618,8.07856],[-80.94907,8.06917],[-80.9587,8.06447],[-80.95515,8.05649],[-80.95843,8.05351],[-80.95898,8.04482],[-80.96159,8.0414],[-80.9666,8.04244],[-80.96845,8.03747],[-80.97327,8.03788],[-80.97155,8.03028],[-80.96486,8.02886],[-80.97048,8.02314],[-80.97129,8.01541],[-80.96444,8.00084],[-80.97117,7.99365],[-80.9638,7.98984],[-80.96397,7.98622],[-80.95852,7.98025],[-80.95743,7.96439],[-80.94656,7.95315],[-80.91676,7.95602],[-80.90935,7.94922],[-80.90311,7.9494],[-80.90171,7.95349],[-80.89926,7.95335],[-80.89432,7.94966],[-80.8929,7.93948],[-80.89649,7.93646],[-80.89634,7.9241],[-80.91186,7.92362],[-80.91777,7.92025],[-80.92555,7.92719],[-80.93109,7.92273],[-80.93164,7.91845],[-80.94093,7.9173],[-80.94555,7.91389],[-80.95129,7.91691],[-80.96257,7.91406],[-80.93667,7.90619],[-80.94353,7.89859],[-80.9419,7.88673],[-80.95065,7.87898],[-80.94497,7.85951],[-80.94992,7.83115]]]}}]}