{"type":"FeatureCollection","features":[{"type":"Feature","properties":{"codigo":"9-2","provincia":"Veraguas","descripcion":"La Mesa, Soná y Las Palmas","diputados_a_elegir":1,"poblacion_electores_2022":51614,"bbox":[-81.68198,7.60842,-81.08434,8.39835]},"geometry":{"type":"MultiPolygon","coordinates":[[[[-81.58432,7.82184],[-81.58889,7.83263],[-81.57979,7.83086],[-81.57619,7.83667],[-81.57713,7.83995],[-81.58195,7.84054],[-81.581,7.8479],[-81.58584,7.85167],[-81.58081,7.85148],[-81.57692,7.85476],[-81.57746,7.8502],[-81.57551,7.84874],[-81.57598,7.85088],[-81.56592,7.85536],[-81.56327,7.86141],[-81.57258,7.86139],[-81.57917,7.86584],[-81.58009,7.87132],[-81.58672,7.87232],[-81.60159,7.86453],[-81.60586,7.86866],[-81.61085,7.86362],[-81.61007,7.87717],[-81.60355,7.87171],[-81.59917,7.87292],[-81.59896,7.87566],[-81.60464,7.88012],[-81.59625,7.88353],[-81.59356,7.89374],[-81.60414,7.90037],[-81.60559,7.89825],[-81.60869,7.90037],[-81.61219,7.89575],[-81.61887,7.90319],[-81.62344,7.9009],[-81.62297,7.90661],[-81.61665,7.90721],[-81.62394,7.92447],[-81.62327,7.93701],[-81.62774,7.94117],[-81.63123,7.93961],[-81.63687,7.94305],[-81.65537,7.98617],[-81.68198,8.0172],[-81.68005,8.0193],[-81.66243,8.01118],[-81.65937,8.00262],[-81.656,8.00101],[-81.6478,8.01877],[-81.64024,8.02487],[-81.64602,8.03171],[-81.63344,8.03969],[-81.64749,8.05196],[-81.64835,8.059],[-81.63882,8.05797],[-81.63573,8.06134],[-81.63196,8.07394],[-81.63326,8.07771],[-81.63653,8.07799],[-81.63078,8.09362],[-81.63211,8.09732],[-81.62314,8.09969],[-81.61888,8.10684],[-81.62408,8.11331],[-81.62083,8.12554],[-81.62456,8.13102],[-81.61648,8.1372],[-81.61783,8.14367],[-81.61225,8.15482],[-81.5973,8.15679],[-81.60413,8.16635],[-81.59059,8.16854],[-81.58198,8.18309],[-81.57325,8.1799],[-81.57387,8.18826],[-81.56539,8.18855],[-81.56452,8.19204],[-81.55611,8.19299],[-81.55541,8.20038],[-81.56134,8.20288],[-81.55852,8.20651],[-81.56042,8.21195],[-81.55515,8.21388],[-81.55877,8.21714],[-81.55814,8.22285],[-81.5547,8.22557],[-81.55072,8.22405],[-81.5493,8.23032],[-81.54493,8.23249],[-81.5413,8.23021],[-81.54041,8.22393],[-81.53347,8.22487],[-81.53137,8.22263],[-81.53092,8.21398],[-81.53401,8.21489],[-81.53132,8.21065],[-81.53398,8.21078],[-81.53053,8.208],[-81.52864,8.21739],[-81.51271,8.22421],[-81.50948,8.23066],[-81.50886,8.24314],[-81.51237,8.24192],[-81.51258,8.23701],[-81.51445,8.24024],[-81.51089,8.24865],[-81.51531,8.25011],[-81.5154,8.25769],[-81.5187,8.25806],[-81.5178,8.25405],[-81.52177,8.25105],[-81.51725,8.24442],[-81.51355,8.24548],[-81.5201,8.23247],[-81.51872,8.22398],[-81.5242,8.22833],[-81.53154,8.22703],[-81.53625,8.23274],[-81.53987,8.2327],[-81.53767,8.23967],[-81.52974,8.24838],[-81.53402,8.25],[-81.52873,8.25403],[-81.52961,8.25836],[-81.51949,8.25598],[-81.51612,8.26505],[-81.51344,8.26308],[-81.51143,8.26526],[-81.50861,8.26195],[-81.50982,8.25862],[-81.50464,8.25646],[-81.51127,8.25031],[-81.50789,8.25244],[-81.50532,8.2505],[-81.50084,8.25412],[-81.49888,8.25015],[-81.50279,8.25122],[-81.50261,8.24829],[-81.49282,8.24434],[-81.49732,8.23844],[-81.49297,8.23356],[-81.48575,8.24254],[-81.47993,8.24412],[-81.484,8.25265],[-81.47627,8.25232],[-81.47969,8.24661],[-81.47885,8.23752],[-81.47279,8.23366],[-81.46942,8.2373],[-81.46853,8.24446],[-81.46492,8.24087],[-81.45503,8.24506],[-81.45302,8.2551],[-81.44248,8.25713],[-81.42945,8.26672],[-81.42387,8.26468],[-81.42079,8.26682],[-81.42338,8.27073],[-81.41948,8.27379],[-81.40372,8.2784],[-81.39573,8.27263],[-81.39048,8.27496],[-81.38204,8.27095],[-81.38076,8.25847],[-81.3758,8.25795],[-81.37303,8.2522],[-81.21263,8.26344],[-81.20079,8.25032],[-81.15483,8.24504],[-81.1518,8.25026],[-81.15249,8.24694],[-81.14697,8.24223],[-81.14978,8.23726],[-81.14224,8.2303],[-81.14486,8.22658],[-81.13518,8.20555],[-81.1323,8.20276],[-81.12648,8.20454],[-81.11043,8.19609],[-81.10759,8.19951],[-81.09884,8.19376],[-81.10018,8.18909],[-81.09158,8.18493],[-81.09014,8.18077],[-81.08709,8.18152],[-81.08823,8.1729],[-81.08434,8.16756],[-81.09257,8.15204],[-81.0962,8.15383],[-81.09953,8.14699],[-81.09432,8.13804],[-81.09863,8.13408],[-81.09628,8.11197],[-81.0997,8.11009],[-81.09601,8.10012],[-81.08982,8.09779],[-81.09335,8.09628],[-81.09473,8.08922],[-81.09122,8.08413],[-81.09458,8.07809],[-81.09552,8.06612],[-81.09221,8.0643],[-81.10019,8.06043],[-81.09637,8.05785],[-81.10112,8.05412],[-81.10141,8.05611],[-81.10939,8.05451],[-81.11319,8.07359],[-81.12044,8.0773],[-81.12205,8.07441],[-81.12929,8.07453],[-81.13833,8.06851],[-81.14138,8.07051],[-81.15329,8.06905],[-81.15522,8.06662],[-81.15793,8.06918],[-81.16364,8.0675],[-81.17228,8.04761],[-81.18051,8.04925],[-81.19275,8.04633],[-81.19694,8.04114],[-81.20236,8.0414],[-81.20532,8.03728],[-81.2188,8.03131],[-81.21626,8.0271],[-81.22387,8.01671],[-81.22067,8.01296],[-81.22376,8.01036],[-81.20994,7.99941],[-81.22976,7.99113],[-81.24676,7.98797],[-81.24492,7.98702],[-81.24664,7.97258],[-81.24407,7.97392],[-81.23982,7.97126],[-81.23576,7.96497],[-81.23863,7.95866],[-81.23474,7.95304],[-81.23706,7.95021],[-81.23445,7.94921],[-81.23448,7.94497],[-81.23959,7.93697],[-81.23418,7.9339],[-81.23539,7.9303],[-81.23115,7.91667],[-81.21811,7.90125],[-81.20106,7.89903],[-81.19682,7.89393],[-81.20125,7.88424],[-81.21946,7.88121],[-81.21967,7.8724],[-81.20105,7.86453],[-81.20031,7.87358],[-81.19339,7.8783],[-81.18012,7.86814],[-81.1788,7.86169],[-81.18566,7.86049],[-81.19179,7.85527],[-81.19021,7.84814],[-81.17837,7.84882],[-81.17724,7.84187],[-81.1804,7.83959],[-81.18457,7.8446],[-81.18132,7.83728],[-81.18452,7.83959],[-81.18747,7.83916],[-81.18196,7.83372],[-81.18496,7.8328],[-81.18408,7.83533],[-81.18723,7.8327],[-81.1885,7.83542],[-81.18986,7.82887],[-81.19088,7.8286],[-81.19118,7.82982],[-81.19193,7.8294],[-81.19211,7.83001],[-81.19306,7.82972],[-81.19402,7.83062],[-81.19503,7.83056],[-81.16987,7.80874],[-81.17021,7.7959],[-81.17362,7.7866],[-81.16841,7.77548],[-81.17202,7.76416],[-81.17924,7.75559],[-81.17669,7.74959],[-81.18478,7.75014],[-81.1957,7.7409],[-81.20947,7.73819],[-81.20963,7.73328],[-81.21739,7.73157],[-81.21575,7.71927],[-81.22081,7.71479],[-81.21925,7.71184],[-81.20976,7.70918],[-81.20325,7.71457],[-81.19709,7.71372],[-81.19345,7.70111],[-81.20963,7.6682],[-81.20319,7.66364],[-81.20274,7.6565],[-81.19747,7.65235],[-81.20341,7.638],[-81.20353,7.63098],[-81.20835,7.62349],[-81.22644,7.60842],[-81.23829,7.61581],[-81.23887,7.62195],[-81.24588,7.62843],[-81.25136,7.62533],[-81.25742,7.62668],[-81.26086,7.63468],[-81.27843,7.63366],[-81.28292,7.63766],[-81.28126,7.64303],[-81.28697,7.64419],[-81.28903,7.65224],[-81.29516,7.65254],[-81.29419,7.65701],[-81.29883,7.66034],[-81.30746,7.66157],[-81.31288,7.65611],[-81.30897,7.65244],[-81.3138,7.65063],[-81.32032,7.65662],[-81.33349,7.66024],[-81.33733,7.65811],[-81.34925,7.66462],[-81.35604,7.66518],[-81.36003,7.66968],[-81.36416,7.66717],[-81.3672,7.67049],[-81.37332,7.67082],[-81.37537,7.67001],[-81.3756,7.66793],[-81.37647,7.66679],[-81.37729,7.66669],[-81.3777,7.67205],[-81.39012,7.67925],[-81.38923,7.68263],[-81.39312,7.6817],[-81.3961,7.68447],[-81.39915,7.68144],[-81.39736,7.67585],[-81.40331,7.67294],[-81.40807,7.67476],[-81.41013,7.67906],[-81.41526,7.67684],[-81.41617,7.68342],[-81.42439,7.6785],[-81.43715,7.67946],[-81.4389,7.68076],[-81.43594,7.68755],[-81.43808,7.68978],[-81.43299,7.68976],[-81.43263,7.69405],[-81.43621,7.69842],[-81.44037,7.69821],[-81.44078,7.70318],[-81.44682,7.69982],[-81.45135,7.70878],[-81.45519,7.70834],[-81.45536,7.7051],[-81.46446,7.70929],[-81.46386,7.70472],[-81.46769,7.70565],[-81.46798,7.70274],[-81.47119,7.70418],[-81.46936,7.70613],[-81.47565,7.70585],[-81.47789,7.70849],[-81.48016,7.70129],[-81.48154,7.70468],[-81.48704,7.70422],[-81.48317,7.7078],[-81.48454,7.71041],[-81.49116,7.7121],[-81.49329,7.70606],[-81.49665,7.70515],[-81.49762,7.70881],[-81.50506,7.70473],[-81.50775,7.70515],[-81.50731,7.71068],[-81.51549,7.70795],[-81.51863,7.71274],[-81.53238,7.71535],[-81.53918,7.71975],[-81.53024,7.72525],[-81.53066,7.72882],[-81.52646,7.72734],[-81.5175,7.73316],[-81.50127,7.73282],[-81.49589,7.73561],[-81.49703,7.74177],[-81.50346,7.74535],[-81.49637,7.74608],[-81.50064,7.74955],[-81.4966,7.74902],[-81.49088,7.75873],[-81.49349,7.76103],[-81.49976,7.75849],[-81.50894,7.76842],[-81.51505,7.76399],[-81.51923,7.76748],[-81.51771,7.76324],[-81.52125,7.76086],[-81.5269,7.76247],[-81.52574,7.76461],[-81.52826,7.7661],[-81.53432,7.7642],[-81.5427,7.76744],[-81.55042,7.76192],[-81.54555,7.76085],[-81.55045,7.75582],[-81.54905,7.75152],[-81.54187,7.75064],[-81.54483,7.74389],[-81.54038,7.74151],[-81.54334,7.73958],[-81.55292,7.74777],[-81.55042,7.75076],[-81.55678,7.75451],[-81.5601,7.75311],[-81.5597,7.75037],[-81.56273,7.75217],[-81.56784,7.75822],[-81.566,7.76057],[-81.57124,7.76143],[-81.57367,7.76612],[-81.5814,7.76421],[-81.57995,7.76651],[-81.5844,7.76946],[-81.57149,7.77296],[-81.57145,7.77826],[-81.57439,7.77936],[-81.5707,7.784],[-81.57365,7.78828],[-81.58253,7.78318],[-81.58255,7.78628],[-81.57723,7.78904],[-81.57793,7.79497],[-81.58922,7.79652],[-81.59279,7.80175],[-81.59207,7.81054],[-81.58737,7.812],[-81.5884,7.81674],[-81.58432,7.82184]],[[-81.56781,8.17382],[-81.56705,8.16355],[-81.56447,8.1628],[-81.56898,8.15714],[-81.57816,8.16835],[-81.57023,8.17197],[-81.57036,8.17465],[-81.57484,8.17554],[-81.58407,8.17288],[-81.5798,8.17166],[-81.58327,8.16843],[-81.58227,8.16209],[-81.57618,8.15762],[-81.57495,8.15392],[-81.57822,8.15172],[-81.57468,8.14866],[-81.57495,8.14439],[-81.57072,8.14776],[-81.55205,8.14683],[-81.5456,8.15196],[-81.54399,8.14857],[-81.54229,8.15148],[-81.5422,8.14709],[-81.53463,8.14673],[-81.53079,8.13674],[-81.5234,8.1418],[-81.51962,8.13993],[-81.51495,8.14756],[-81.51161,8.14703],[-81.50793,8.15142],[-81.49997,8.15066],[-81.49696,8.1529],[-81.50221,8.16001],[-81.49751,8.16501],[-81.50286,8.16559],[-81.50434,8.16946],[-81.49864,8.16995],[-81.49839,8.17364],[-81.50708,8.17493],[-81.51019,8.18054],[-81.50769,8.18475],[-81.5069,8.18177],[-81.50019,8.18293],[-81.51155,8.18886],[-81.51105,8.20149],[-81.51665,8.19978],[-81.51201,8.19373],[-81.51618,8.19196],[-81.50931,8.18704],[-81.51319,8.18323],[-81.51003,8.17979],[-81.51577,8.17928],[-81.51804,8.18899],[-81.52209,8.19137],[-81.52495,8.18891],[-81.52885,8.19011],[-81.52723,8.19426],[-81.52977,8.19275],[-81.52996,8.19673],[-81.5354,8.19801],[-81.53617,8.19226],[-81.54038,8.18959],[-81.53957,8.18568],[-81.53503,8.18225],[-81.52884,8.1894],[-81.52391,8.18669],[-81.52932,8.17718],[-81.53337,8.1771],[-81.53605,8.17192],[-81.54179,8.17009],[-81.54487,8.1819],[-81.54972,8.17871],[-81.56207,8.17943],[-81.56312,8.17473],[-81.56039,8.17637],[-81.56012,8.17448],[-81.5636,8.17151],[-81.56781,8.17382]]],[[[-81.47887,8.39519],[-81.47955,8.38683],[-81.48398,8.38241],[-81.48112,8.3767],[-81.48517,8.36957],[-81.47893,8.36378],[-81.4817,8.35847],[-81.48031,8.35534],[-81.48596,8.3471],[-81.46821,8.33217],[-81.47244,8.33078],[-81.4681,8.32202],[-81.47059,8.31504],[-81.47317,8.31625],[-81.47249,8.31239],[-81.47552,8.31314],[-81.47417,8.31016],[-81.48129,8.3085],[-81.4815,8.30186],[-81.48496,8.30417],[-81.48675,8.30196],[-81.48482,8.29654],[-81.4906,8.29381],[-81.48829,8.28874],[-81.49283,8.27871],[-81.49235,8.27343],[-81.4955,8.2712],[-81.4929,8.26438],[-81.50099,8.26264],[-81.50598,8.26775],[-81.51119,8.26583],[-81.51754,8.26816],[-81.51507,8.27187],[-81.51889,8.2745],[-81.51692,8.27776],[-81.52187,8.28292],[-81.52102,8.28802],[-81.51289,8.28984],[-81.51476,8.30253],[-81.51169,8.30484],[-81.51163,8.3118],[-81.51612,8.31795],[-81.51148,8.33461],[-81.51475,8.34129],[-81.51785,8.33763],[-81.51806,8.34394],[-81.53219,8.35284],[-81.53079,8.35909],[-81.52814,8.36008],[-81.5294,8.36744],[-81.52099,8.36832],[-81.5232,8.37067],[-81.5221,8.3774],[-81.52755,8.38263],[-81.5257,8.38515],[-81.52807,8.38936],[-81.51893,8.39189],[-81.51864,8.39622],[-81.51172,8.39767],[-81.50198,8.3957],[-81.48163,8.39835],[-81.47887,8.39519]]]]}}]}