{"type":"FeatureCollection","features":[{"type":"Feature","properties":{"codigo":"9-3","provincia":"Veraguas","descripcion":"Cañazas, Calobre, Santa Fe y San Francisco","diputados_a_elegir":1,"poblacion_electores_2022":48714,"bbox":[-81.48675,8.17635,-80.70224,8.88796]},"geometry":{"type":"Polygon","coordinates":[[[-81.09415,8.25536],[-81.10178,8.25287],[-81.10166,8.25512],[-81.10731,8.25651],[-81.11705,8.24796],[-81.12672,8.2451],[-81.13129,8.24742],[-81.13617,8.24296],[-81.1422,8.24636],[-81.14742,8.25587],[-81.15483,8.24504],[-81.20079,8.25032],[-81.21263,8.26344],[-81.37303,8.2522],[-81.3758,8.25795],[-81.38076,8.25847],[-81.38204,8.27095],[-81.39048,8.27496],[-81.39573,8.27263],[-81.40372,8.2784],[-81.41948,8.27379],[-81.42338,8.27073],[-81.42079,8.26682],[-81.42387,8.26468],[-81.42926,8.26678],[-81.44248,8.25713],[-81.44747,8.25754],[-81.44744,8.26625],[-81.43751,8.26817],[-81.44802,8.27493],[-81.4437,8.28427],[-81.44127,8.28679],[-81.43557,8.28627],[-81.43018,8.28246],[-81.42819,8.28444],[-81.42208,8.28214],[-81.42163,8.28526],[-81.42353,8.29025],[-81.42814,8.28599],[-81.43551,8.28746],[-81.43652,8.29182],[-81.44038,8.29349],[-81.4455,8.29095],[-81.45278,8.27907],[-81.4651,8.28165],[-81.46992,8.27651],[-81.47794,8.28112],[-81.47679,8.28733],[-81.47901,8.28976],[-81.48411,8.28799],[-81.48675,8.30196],[-81.48496,8.30417],[-81.4815,8.30186],[-81.48129,8.3085],[-81.47417,8.31016],[-81.47552,8.31314],[-81.47249,8.31239],[-81.47317,8.31625],[-81.47059,8.31504],[-81.46807,8.32223],[-81.47243,8.33067],[-81.46821,8.33217],[-81.48594,8.34698],[-81.48031,8.35534],[-81.4817,8.35847],[-81.47893,8.36378],[-81.48516,8.36951],[-81.48112,8.3767],[-81.48386,8.37995],[-81.48311,8.38522],[-81.47955,8.38683],[-81.47952,8.3948],[-81.47199,8.3977],[-81.4737,8.39582],[-81.46721,8.387],[-81.45629,8.38824],[-81.45732,8.39479],[-81.45235,8.40098],[-81.4485,8.40017],[-81.44821,8.40448],[-81.44922,8.40858],[-81.45521,8.40653],[-81.45886,8.41094],[-81.45877,8.41722],[-81.4489,8.41441],[-81.44634,8.4192],[-81.44342,8.41624],[-81.43237,8.41628],[-81.43553,8.41305],[-81.42963,8.41056],[-81.43138,8.40105],[-81.42953,8.3947],[-81.43257,8.39054],[-81.43879,8.39173],[-81.44043,8.39795],[-81.44721,8.39333],[-81.44793,8.38692],[-81.44284,8.38287],[-81.44224,8.37866],[-81.43029,8.38094],[-81.42483,8.38654],[-81.41687,8.38931],[-81.41987,8.41095],[-81.4288,8.41666],[-81.41485,8.41556],[-81.41295,8.40992],[-81.40642,8.40712],[-81.40477,8.41229],[-81.41789,8.44096],[-81.40381,8.44648],[-81.40133,8.46473],[-81.39502,8.46926],[-81.38913,8.46967],[-81.38815,8.474],[-81.38157,8.46931],[-81.37867,8.46142],[-81.37107,8.45521],[-81.37233,8.45184],[-81.36884,8.45147],[-81.36408,8.44432],[-81.36667,8.43924],[-81.36341,8.43621],[-81.36497,8.43221],[-81.3717,8.42728],[-81.36051,8.42529],[-81.35774,8.42774],[-81.35241,8.42034],[-81.34978,8.42371],[-81.34324,8.42126],[-81.34373,8.43805],[-81.33348,8.43579],[-81.33231,8.43898],[-81.35081,8.44715],[-81.34861,8.43963],[-81.35334,8.43694],[-81.35647,8.44016],[-81.35592,8.45425],[-81.33715,8.45624],[-81.33408,8.45422],[-81.32481,8.45765],[-81.31427,8.45331],[-81.313,8.45654],[-81.31665,8.46719],[-81.32384,8.46298],[-81.33427,8.46532],[-81.33355,8.46851],[-81.34364,8.47534],[-81.35739,8.46724],[-81.36196,8.47435],[-81.36365,8.47966],[-81.36133,8.48117],[-81.36064,8.49582],[-81.35668,8.49535],[-81.35439,8.50128],[-81.34334,8.50678],[-81.34055,8.51368],[-81.34185,8.51852],[-81.33845,8.52149],[-81.33182,8.51861],[-81.33002,8.50973],[-81.32186,8.50552],[-81.3373,8.48699],[-81.34387,8.48639],[-81.34483,8.48164],[-81.33445,8.4799],[-81.32531,8.48785],[-81.30829,8.49241],[-81.31177,8.49746],[-81.3114,8.50468],[-81.30602,8.50859],[-81.30277,8.50775],[-81.30141,8.51221],[-81.29912,8.50793],[-81.28188,8.50238],[-81.29107,8.49041],[-81.30027,8.48686],[-81.30065,8.46615],[-81.30525,8.46089],[-81.30069,8.45083],[-81.29066,8.45868],[-81.28352,8.47079],[-81.27714,8.46691],[-81.27589,8.46186],[-81.27025,8.45704],[-81.25821,8.45532],[-81.24988,8.44851],[-81.25345,8.45841],[-81.25114,8.46555],[-81.26256,8.48617],[-81.24841,8.48877],[-81.25539,8.50026],[-81.25355,8.50358],[-81.24865,8.50404],[-81.24689,8.49833],[-81.24474,8.50047],[-81.23298,8.49919],[-81.23426,8.48724],[-81.24079,8.48286],[-81.23892,8.47736],[-81.24087,8.47067],[-81.23643,8.4667],[-81.23801,8.45811],[-81.23559,8.45136],[-81.22918,8.44962],[-81.22941,8.45281],[-81.22403,8.45492],[-81.22243,8.44966],[-81.22238,8.44479],[-81.23121,8.44208],[-81.22151,8.44163],[-81.21527,8.44742],[-81.21033,8.44727],[-81.2172,8.45358],[-81.21002,8.44913],[-81.20651,8.45274],[-81.2026,8.44835],[-81.20043,8.45215],[-81.19359,8.45236],[-81.19237,8.44928],[-81.18956,8.45358],[-81.18375,8.4506],[-81.17879,8.45537],[-81.16951,8.45518],[-81.16893,8.43671],[-81.16573,8.4395],[-81.16037,8.43326],[-81.15301,8.43443],[-81.14872,8.41911],[-81.14593,8.41854],[-81.13775,8.43335],[-81.14334,8.44384],[-81.14656,8.44218],[-81.15073,8.44426],[-81.1517,8.4551],[-81.15967,8.4654],[-81.15138,8.47479],[-81.14728,8.49902],[-81.16098,8.52894],[-81.16259,8.5417],[-81.16667,8.54963],[-81.17153,8.55248],[-81.18581,8.55203],[-81.1895,8.56103],[-81.19539,8.56531],[-81.19598,8.57011],[-81.21314,8.58384],[-81.21228,8.58813],[-81.21739,8.58947],[-81.21547,8.59336],[-81.21826,8.59905],[-81.21133,8.61619],[-81.22039,8.62887],[-81.21878,8.63489],[-81.22161,8.63787],[-81.2193,8.64369],[-81.22388,8.6549],[-81.2142,8.66278],[-81.2202,8.66717],[-81.217,8.67292],[-81.22176,8.67678],[-81.21862,8.68683],[-81.20652,8.68912],[-81.20934,8.6952],[-81.20635,8.70098],[-81.20944,8.7067],[-81.22027,8.70986],[-81.21593,8.72043],[-81.21994,8.72153],[-81.22316,8.7296],[-81.22016,8.74168],[-81.22142,8.74806],[-81.22726,8.74805],[-81.2305,8.75391],[-81.22131,8.7617],[-81.23035,8.77099],[-81.23326,8.7798],[-81.23118,8.78451],[-81.21623,8.79015],[-81.20012,8.78664],[-81.19563,8.79087],[-81.17771,8.79672],[-81.16811,8.79465],[-81.15695,8.79715],[-81.1472,8.7959],[-81.14177,8.80034],[-81.12149,8.80447],[-81.11404,8.80898],[-81.0936,8.80804],[-81.09207,8.81115],[-81.08443,8.80804],[-81.07505,8.80903],[-81.06854,8.81125],[-81.05618,8.8235],[-81.04173,8.82169],[-81.03747,8.82747],[-81.03026,8.82723],[-81.02569,8.8329],[-80.99385,8.83487],[-80.98554,8.84401],[-80.9725,8.84281],[-80.9684,8.84917],[-80.95334,8.85512],[-80.95132,8.86116],[-80.94434,8.86306],[-80.94306,8.86627],[-80.90978,8.86609],[-80.90329,8.87335],[-80.90131,8.88036],[-80.89416,8.88539],[-80.88749,8.88796],[-80.87261,8.88686],[-80.86996,8.88561],[-80.87205,8.88278],[-80.87023,8.87969],[-80.87519,8.85611],[-80.86475,8.84667],[-80.86777,8.84037],[-80.86118,8.83194],[-80.85248,8.83016],[-80.85182,8.82475],[-80.84496,8.8232],[-80.84297,8.8178],[-80.83603,8.81714],[-80.83104,8.82028],[-80.82539,8.81687],[-80.8315,8.81514],[-80.82992,8.8083],[-80.8215,8.80402],[-80.81775,8.80511],[-80.81284,8.79748],[-80.80689,8.80113],[-80.80279,8.79183],[-80.78572,8.79739],[-80.7795,8.79528],[-80.77637,8.79744],[-80.77387,8.79227],[-80.76647,8.78847],[-80.76864,8.78128],[-80.76584,8.77698],[-80.76192,8.77952],[-80.76017,8.77391],[-80.75547,8.77426],[-80.75589,8.76724],[-80.75264,8.76786],[-80.74912,8.75999],[-80.74424,8.7602],[-80.74284,8.75525],[-80.73976,8.75547],[-80.73828,8.74928],[-80.73263,8.74517],[-80.73425,8.74138],[-80.72806,8.73894],[-80.72914,8.73182],[-80.725,8.73104],[-80.72989,8.72683],[-80.74898,8.72201],[-80.75123,8.71745],[-80.75513,8.7185],[-80.76051,8.70789],[-80.75676,8.69358],[-80.74914,8.68362],[-80.74984,8.67506],[-80.73779,8.67458],[-80.73101,8.66383],[-80.72933,8.64587],[-80.73363,8.63882],[-80.74151,8.6358],[-80.74532,8.63096],[-80.75195,8.62987],[-80.75389,8.62653],[-80.75659,8.61868],[-80.749,8.60354],[-80.75183,8.59448],[-80.76065,8.59322],[-80.77035,8.585],[-80.77467,8.57638],[-80.77878,8.57411],[-80.77986,8.56488],[-80.78478,8.55678],[-80.79174,8.55491],[-80.81396,8.5647],[-80.82333,8.55729],[-80.82532,8.55214],[-80.8329,8.54906],[-80.82516,8.54416],[-80.81978,8.53384],[-80.80651,8.52794],[-80.80571,8.52312],[-80.80106,8.52161],[-80.79351,8.50911],[-80.78307,8.50011],[-80.78688,8.47597],[-80.77805,8.4747],[-80.76837,8.46844],[-80.76959,8.46502],[-80.76134,8.45963],[-80.75551,8.45148],[-80.75743,8.44684],[-80.75552,8.44262],[-80.75857,8.43759],[-80.75243,8.43053],[-80.75486,8.42857],[-80.72411,8.374],[-80.72697,8.36552],[-80.72455,8.36086],[-80.7257,8.35219],[-80.7174,8.34165],[-80.70531,8.33559],[-80.70224,8.32798],[-80.70505,8.30976],[-80.7036,8.29859],[-80.70904,8.29168],[-80.71052,8.27881],[-80.71637,8.27444],[-80.71621,8.27114],[-80.71386,8.27146],[-80.71638,8.26945],[-80.71721,8.25658],[-80.71165,8.2507],[-80.71727,8.24455],[-80.71655,8.23803],[-80.72417,8.22117],[-80.72317,8.21202],[-80.73377,8.20384],[-80.73443,8.19829],[-80.74027,8.19876],[-80.74133,8.19426],[-80.74418,8.19409],[-80.7466,8.18878],[-80.74171,8.18236],[-80.74697,8.18609],[-80.76855,8.17734],[-80.77114,8.18256],[-80.77508,8.18361],[-80.78506,8.17635],[-80.79415,8.17773],[-80.80763,8.18083],[-80.82326,8.19657],[-80.82983,8.1781],[-80.83242,8.17808],[-80.83112,8.18697],[-80.83425,8.18893],[-80.83971,8.17976],[-80.84749,8.17733],[-80.84997,8.18552],[-80.86361,8.18897],[-80.86306,8.19585],[-80.87014,8.20487],[-80.88074,8.19798],[-80.88927,8.20096],[-80.89363,8.2077],[-80.90747,8.19839],[-80.91217,8.20947],[-80.91782,8.20906],[-80.93354,8.21789],[-80.94435,8.20668],[-80.95098,8.21731],[-80.95413,8.2124],[-80.95935,8.21336],[-80.96142,8.21079],[-80.9664,8.2152],[-80.97454,8.21525],[-80.97843,8.21146],[-80.98604,8.21159],[-80.99313,8.20353],[-81.00192,8.20096],[-81.08092,8.22649],[-81.09415,8.25536]],[[-80.853,8.46307],[-80.85843,8.46352],[-80.86207,8.46017],[-80.85652,8.44715],[-80.85144,8.45434],[-80.853,8.46307]],[[-81.39954,8.30684],[-81.39481,8.30466],[-81.38328,8.30931],[-81.38696,8.31753],[-81.383,8.32335],[-81.3785,8.31543],[-81.36813,8.31763],[-81.37366,8.3283],[-81.3646,8.33627],[-81.36346,8.34721],[-81.36041,8.34801],[-81.35971,8.34334],[-81.36247,8.34088],[-81.35955,8.33579],[-81.36486,8.3328],[-81.35818,8.32169],[-81.35817,8.31708],[-81.35206,8.31636],[-81.35167,8.32821],[-81.34691,8.32538],[-81.3425,8.32638],[-81.33553,8.33252],[-81.33869,8.33346],[-81.33336,8.34065],[-81.33649,8.34584],[-81.33372,8.34959],[-81.32727,8.34313],[-81.32085,8.3528],[-81.31083,8.34931],[-81.31912,8.35687],[-81.31978,8.3672],[-81.31596,8.37154],[-81.31655,8.3745],[-81.32581,8.3604],[-81.33264,8.36275],[-81.3454,8.36023],[-81.35448,8.37132],[-81.37111,8.36897],[-81.37629,8.36051],[-81.38082,8.37114],[-81.37685,8.37448],[-81.38278,8.38449],[-81.38357,8.37989],[-81.39378,8.37473],[-81.38856,8.37422],[-81.38727,8.37052],[-81.39289,8.37186],[-81.39435,8.36594],[-81.40094,8.36954],[-81.39655,8.3637],[-81.40057,8.34899],[-81.40944,8.3476],[-81.4155,8.34336],[-81.4214,8.34548],[-81.41674,8.35044],[-81.42827,8.35542],[-81.42732,8.3579],[-81.41109,8.35767],[-81.40993,8.36038],[-81.42375,8.36269],[-81.42781,8.36004],[-81.43672,8.36437],[-81.44131,8.3629],[-81.44201,8.35653],[-81.43795,8.35191],[-81.43921,8.34753],[-81.43589,8.3424],[-81.43265,8.34327],[-81.43352,8.34868],[-81.43058,8.34886],[-81.43053,8.34461],[-81.41755,8.33914],[-81.42027,8.33564],[-81.42568,8.33936],[-81.42876,8.33821],[-81.42944,8.32478],[-81.42589,8.32163],[-81.41881,8.32473],[-81.41947,8.32772],[-81.4145,8.32809],[-81.41589,8.32498],[-81.41271,8.32345],[-81.40436,8.32738],[-81.39718,8.34992],[-81.3924,8.34999],[-81.38853,8.34332],[-81.38581,8.34329],[-81.38419,8.33925],[-81.38795,8.32779],[-81.39049,8.32502],[-81.39265,8.32912],[-81.39879,8.32699],[-81.39869,8.32448],[-81.3941,8.32588],[-81.399,8.31994],[-81.39303,8.31507],[-81.39808,8.31269],[-81.39954,8.30684]]]}}]}