{"type":"FeatureCollection","features":[{"type":"Feature","properties":{"codigo":"9-4","provincia":"Veraguas","descripcion":"Atalaya, Montijo, Río de Jesús y Mariato","diputados_a_elegir":1,"poblacion_electores_2022":25388,"bbox":[-81.89199,7.20346,-80.61188,8.0941]},"geometry":{"type":"MultiPolygon","coordinates":[[[[-80.95122,7.75469],[-80.94908,7.74844],[-80.93494,7.74388],[-80.93339,7.73961],[-80.92284,7.73829],[-80.91636,7.73412],[-80.91291,7.73773],[-80.89132,7.70056],[-80.80067,7.5725],[-80.79326,7.57438],[-80.78718,7.57072],[-80.78003,7.57405],[-80.77628,7.5699],[-80.76892,7.56862],[-80.75614,7.57128],[-80.74206,7.5573],[-80.74124,7.54577],[-80.73252,7.54037],[-80.71923,7.54016],[-80.72753,7.53545],[-80.72855,7.53084],[-80.73594,7.52464],[-80.72908,7.52015],[-80.73006,7.51133],[-80.72271,7.50685],[-80.71558,7.49301],[-80.73142,7.46902],[-80.7208,7.45717],[-80.71483,7.4564],[-80.71492,7.44953],[-80.70916,7.44126],[-80.7091,7.43678],[-80.70148,7.42868],[-80.71292,7.42234],[-80.71938,7.41383],[-80.71524,7.40754],[-80.70314,7.40361],[-80.697,7.39716],[-80.68399,7.39332],[-80.66925,7.37324],[-80.66923,7.3584],[-80.66413,7.35411],[-80.66956,7.35181],[-80.66671,7.34826],[-80.66957,7.3406],[-80.66729,7.33704],[-80.68011,7.32685],[-80.68312,7.32185],[-80.68177,7.31858],[-80.67802,7.32703],[-80.67039,7.33007],[-80.65967,7.32448],[-80.65983,7.31703],[-80.65033,7.30486],[-80.63851,7.3017],[-80.6352,7.29777],[-80.61735,7.29708],[-80.61189,7.26105],[-80.61488,7.24894],[-80.61188,7.2435],[-80.6141,7.23064],[-80.62159,7.23315],[-80.62752,7.23053],[-80.63798,7.23223],[-80.65723,7.22326],[-80.66708,7.22326],[-80.68431,7.21236],[-80.69521,7.21525],[-80.70185,7.21321],[-80.70184,7.2101],[-80.7055,7.21169],[-80.71325,7.20723],[-80.74838,7.21548],[-80.75188,7.20997],[-80.75339,7.21353],[-80.77376,7.21751],[-80.77873,7.21699],[-80.7817,7.21262],[-80.78486,7.21385],[-80.78697,7.20816],[-80.7952,7.20841],[-80.80062,7.20346],[-80.80165,7.20816],[-80.80535,7.2067],[-80.80824,7.21038],[-80.82941,7.21539],[-80.83287,7.21164],[-80.8363,7.21252],[-80.83676,7.2091],[-80.84691,7.20963],[-80.84897,7.21693],[-80.85622,7.21472],[-80.85569,7.21027],[-80.85877,7.20742],[-80.86322,7.20693],[-80.86499,7.21186],[-80.86789,7.21213],[-80.87053,7.20465],[-80.87881,7.20409],[-80.88149,7.20867],[-80.88806,7.20385],[-80.88857,7.20907],[-80.89214,7.21173],[-80.88635,7.22159],[-80.89431,7.22744],[-80.89582,7.23223],[-80.89909,7.23254],[-80.89669,7.23447],[-80.89803,7.23908],[-80.90699,7.2406],[-80.91489,7.24961],[-80.92407,7.24598],[-80.93,7.2506],[-80.93435,7.24869],[-80.93371,7.25532],[-80.94079,7.2571],[-80.93114,7.26859],[-80.93203,7.27088],[-80.92374,7.27109],[-80.92041,7.27825],[-80.92559,7.28034],[-80.92234,7.28715],[-80.92672,7.29484],[-80.92367,7.30698],[-80.92033,7.30759],[-80.92177,7.31219],[-80.91724,7.31545],[-80.91795,7.3208],[-80.90946,7.31861],[-80.90152,7.32785],[-80.89096,7.33101],[-80.90008,7.3677],[-80.91832,7.39213],[-80.92736,7.40035],[-80.9298,7.39962],[-80.92677,7.40623],[-80.93341,7.41499],[-80.93194,7.42303],[-80.92482,7.42739],[-80.92596,7.43143],[-80.92244,7.43203],[-80.9228,7.43528],[-80.91685,7.43429],[-80.91747,7.44258],[-80.92659,7.45867],[-80.94124,7.47116],[-80.94288,7.47581],[-80.93986,7.47707],[-80.94715,7.48677],[-80.96299,7.495],[-80.96653,7.49385],[-80.96984,7.49916],[-80.97623,7.50064],[-80.97259,7.5009],[-80.96777,7.515],[-80.96016,7.51424],[-80.95678,7.51875],[-80.95909,7.5345],[-80.94909,7.54717],[-80.94927,7.55361],[-80.95561,7.56332],[-80.96678,7.57742],[-80.979,7.58624],[-80.97992,7.58927],[-80.9739,7.60071],[-80.97619,7.60816],[-80.98439,7.618],[-81.00452,7.62467],[-81.00598,7.63712],[-81.03668,7.65076],[-81.04956,7.66313],[-81.05195,7.67301],[-81.0504,7.68145],[-81.03967,7.67812],[-81.04205,7.68191],[-81.03997,7.68901],[-81.03357,7.69174],[-81.03213,7.69611],[-81.04166,7.7032],[-81.05067,7.72119],[-81.04812,7.73047],[-81.04069,7.73004],[-81.03821,7.73309],[-81.04377,7.73777],[-81.03636,7.74616],[-81.03564,7.75153],[-81.02836,7.74253],[-81.01508,7.74358],[-81.01949,7.73605],[-81.01445,7.72887],[-81.00381,7.7316],[-80.99828,7.72755],[-80.99351,7.73195],[-80.99138,7.73009],[-80.98286,7.73326],[-80.98704,7.73851],[-80.98535,7.74235],[-80.98067,7.74347],[-80.97339,7.73777],[-80.96252,7.74848],[-80.96452,7.75106],[-80.9623,7.75357],[-80.95742,7.75096],[-80.95122,7.75469]]],[[[-80.91671,7.95602],[-80.94656,7.95315],[-80.95578,7.96173],[-80.95861,7.98047],[-80.9639,7.9861],[-80.96393,7.99001],[-80.97117,7.99365],[-80.96444,8.00084],[-80.97129,8.01541],[-80.97048,8.02314],[-80.96486,8.02886],[-80.9738,8.03327],[-80.97321,8.03796],[-80.96845,8.03747],[-80.9666,8.04244],[-80.96159,8.0414],[-80.95898,8.04482],[-80.95843,8.05351],[-80.95515,8.05649],[-80.9587,8.06447],[-80.94907,8.06917],[-80.94618,8.07856],[-80.9486,8.0941],[-80.92792,8.07221],[-80.88276,8.08465],[-80.86362,8.0776],[-80.86175,8.06674],[-80.85758,8.06842],[-80.85076,8.06469],[-80.85414,8.06123],[-80.86276,8.06302],[-80.86231,8.05941],[-80.86957,8.05319],[-80.86348,8.04405],[-80.86574,8.04228],[-80.86061,8.03744],[-80.86343,8.03048],[-80.85472,8.02955],[-80.85097,8.02274],[-80.84574,8.02209],[-80.8471,8.01919],[-80.83994,8.00475],[-80.85347,8.0011],[-80.85778,7.98353],[-80.86333,7.9846],[-80.86518,7.96872],[-80.88137,7.96279],[-80.88254,7.95729],[-80.89431,7.94411],[-80.89439,7.94978],[-80.90091,7.9537],[-80.90301,7.94945],[-80.90935,7.94922],[-80.91671,7.95602]]],[[[-81.215,7.89981],[-81.23039,7.91538],[-81.23539,7.9303],[-81.23418,7.9339],[-81.23957,7.93688],[-81.23448,7.94497],[-81.23445,7.94921],[-81.23706,7.95021],[-81.23474,7.95304],[-81.23863,7.95866],[-81.2357,7.96467],[-81.23972,7.9712],[-81.24407,7.97392],[-81.24664,7.97258],[-81.24646,7.9892],[-81.22976,7.99113],[-81.20994,7.99941],[-81.22376,8.01036],[-81.22067,8.01296],[-81.22387,8.01671],[-81.21626,8.0271],[-81.2188,8.03131],[-81.20532,8.03728],[-81.20236,8.0414],[-81.19694,8.04114],[-81.19275,8.04633],[-81.18051,8.04925],[-81.17228,8.04761],[-81.16364,8.0675],[-81.15793,8.06918],[-81.15522,8.06662],[-81.15329,8.06905],[-81.14138,8.07051],[-81.13833,8.06851],[-81.11954,8.07714],[-81.11149,8.0699],[-81.10939,8.05451],[-81.10141,8.05611],[-81.10112,8.05412],[-81.09647,8.05786],[-81.09384,8.05551],[-81.09535,8.0528],[-81.09178,8.05125],[-81.09363,8.03979],[-81.09002,8.04404],[-81.06615,8.0545],[-81.05965,8.06086],[-81.05089,8.05953],[-81.04634,8.0564],[-81.04455,8.04639],[-81.04768,8.03353],[-81.04323,8.02217],[-81.03121,8.02901],[-81.02288,8.01665],[-81.01265,8.01552],[-81.00831,8.01148],[-81.00607,8.00368],[-81.01705,8.00757],[-81.0277,7.99979],[-81.0261,7.99759],[-81.02966,7.99294],[-81.02411,7.9897],[-81.0228,7.98123],[-81.02642,7.98038],[-81.02317,7.97232],[-81.03276,7.96063],[-81.03315,7.95545],[-81.02228,7.95959],[-81.01714,7.95526],[-81.0058,7.95639],[-81.00457,7.94952],[-81.01424,7.92697],[-81.00883,7.9166],[-81.06714,7.88157],[-81.07655,7.88372],[-81.07666,7.87417],[-81.0802,7.87351],[-81.08796,7.85887],[-81.09701,7.86093],[-81.09948,7.85615],[-81.09178,7.85063],[-81.09279,7.84558],[-81.11602,7.84487],[-81.11795,7.8511],[-81.12356,7.84763],[-81.14024,7.84516],[-81.14964,7.85355],[-81.15899,7.85389],[-81.17072,7.86112],[-81.1788,7.86169],[-81.18048,7.86857],[-81.19236,7.87814],[-81.20031,7.87358],[-81.20105,7.86453],[-81.21652,7.86926],[-81.21995,7.87318],[-81.21985,7.88081],[-81.2016,7.88406],[-81.19664,7.89211],[-81.20068,7.89888],[-81.215,7.89981]]],[[[-81.09991,7.58167],[-81.07277,7.58096],[-81.07141,7.57799],[-81.05716,7.57828],[-81.05389,7.58067],[-81.03859,7.57141],[-81.04668,7.56758],[-81.05515,7.55476],[-81.05644,7.54621],[-81.07827,7.53563],[-81.07813,7.53218],[-81.08357,7.52809],[-81.10603,7.54307],[-81.12511,7.54793],[-81.13359,7.54529],[-81.13611,7.541],[-81.14369,7.54011],[-81.14727,7.53678],[-81.14751,7.5278],[-81.15822,7.52343],[-81.15957,7.5191],[-81.16622,7.51738],[-81.17287,7.50903],[-81.18482,7.50581],[-81.18845,7.50136],[-81.18587,7.49425],[-81.19198,7.49126],[-81.19638,7.49393],[-81.19826,7.49019],[-81.20401,7.49224],[-81.21689,7.48762],[-81.2162,7.48575],[-81.22634,7.4858],[-81.21944,7.49262],[-81.22503,7.49872],[-81.23847,7.49475],[-81.24404,7.48946],[-81.24145,7.48564],[-81.24711,7.48119],[-81.25869,7.48722],[-81.23038,7.51853],[-81.2188,7.52062],[-81.21258,7.52757],[-81.20241,7.52563],[-81.19237,7.53141],[-81.17104,7.53254],[-81.16343,7.54658],[-81.14695,7.56446],[-81.13952,7.5689],[-81.12322,7.56998],[-81.09991,7.58167]]],[[[-81.08221,7.83949],[-81.07721,7.83669],[-81.07414,7.82407],[-81.09027,7.81896],[-81.0981,7.82881],[-81.09136,7.83881],[-81.08221,7.83949]]],[[[-81.13156,7.76398],[-81.1056,7.74703],[-81.10158,7.72765],[-81.10655,7.71802],[-81.12279,7.72049],[-81.1344,7.72944],[-81.14467,7.73245],[-81.14598,7.73774],[-81.15257,7.74368],[-81.12845,7.74048],[-81.13242,7.75981],[-81.13156,7.76398]]],[[[-81.20929,7.57622],[-81.18766,7.56371],[-81.18435,7.55877],[-81.19486,7.55653],[-81.20303,7.55091],[-81.22236,7.54951],[-81.2243,7.55633],[-81.22067,7.55817],[-81.22175,7.56758],[-81.20929,7.57622]]],[[[-81.74874,7.64726],[-81.74579,7.6386],[-81.73609,7.63598],[-81.74158,7.63209],[-81.74087,7.62689],[-81.73051,7.63194],[-81.7271,7.62638],[-81.73041,7.62268],[-81.73443,7.62323],[-81.73483,7.62068],[-81.72757,7.61398],[-81.72346,7.59817],[-81.72058,7.59899],[-81.72534,7.59598],[-81.72291,7.59251],[-81.72729,7.58875],[-81.72359,7.58544],[-81.72482,7.57415],[-81.71374,7.55315],[-81.71345,7.54674],[-81.7073,7.53908],[-81.69744,7.54358],[-81.68119,7.54375],[-81.67658,7.52592],[-81.67618,7.51295],[-81.68128,7.50418],[-81.69347,7.5032],[-81.70095,7.49791],[-81.71315,7.49469],[-81.71931,7.48707],[-81.71807,7.46558],[-81.72041,7.45823],[-81.72305,7.46122],[-81.72469,7.45887],[-81.72266,7.45227],[-81.7284,7.44733],[-81.728,7.44019],[-81.71082,7.42813],[-81.69909,7.42436],[-81.69755,7.42105],[-81.70248,7.41884],[-81.69901,7.40076],[-81.6877,7.38708],[-81.68202,7.38874],[-81.68072,7.392],[-81.66909,7.38629],[-81.66156,7.38606],[-81.65229,7.38923],[-81.65107,7.3951],[-81.64991,7.39273],[-81.64376,7.39252],[-81.63923,7.39639],[-81.62836,7.39148],[-81.62125,7.37833],[-81.61207,7.37528],[-81.6115,7.36501],[-81.60258,7.35916],[-81.60325,7.34083],[-81.60074,7.33633],[-81.59233,7.33394],[-81.59142,7.32659],[-81.6158,7.32786],[-81.63216,7.32198],[-81.63603,7.31785],[-81.64431,7.31711],[-81.66801,7.326],[-81.67138,7.33069],[-81.69325,7.3405],[-81.7057,7.34054],[-81.72275,7.34646],[-81.725,7.34982],[-81.73254,7.34752],[-81.75025,7.3493],[-81.75157,7.35175],[-81.75833,7.35061],[-81.77384,7.3613],[-81.77696,7.359],[-81.78992,7.3818],[-81.79941,7.39045],[-81.80277,7.3897],[-81.80255,7.39487],[-81.80625,7.40007],[-81.81276,7.40611],[-81.82062,7.40736],[-81.81951,7.41032],[-81.82648,7.41678],[-81.84683,7.4279],[-81.84915,7.43313],[-81.85924,7.43901],[-81.86156,7.44553],[-81.86549,7.44507],[-81.86344,7.44846],[-81.86583,7.4625],[-81.86342,7.46324],[-81.86745,7.47057],[-81.87031,7.46955],[-81.86828,7.47629],[-81.86948,7.47992],[-81.87239,7.48179],[-81.87389,7.47996],[-81.87537,7.48274],[-81.87306,7.48834],[-81.87533,7.4918],[-81.88808,7.48739],[-81.8863,7.48944],[-81.88821,7.49084],[-81.88166,7.49649],[-81.88392,7.50165],[-81.87973,7.50568],[-81.88428,7.51358],[-81.88854,7.51387],[-81.88694,7.51995],[-81.89199,7.52161],[-81.89152,7.52394],[-81.88157,7.52359],[-81.86911,7.51557],[-81.86262,7.5155],[-81.85533,7.53075],[-81.85843,7.53419],[-81.85866,7.54386],[-81.85269,7.54559],[-81.84696,7.54325],[-81.84415,7.54655],[-81.84048,7.55518],[-81.84162,7.57402],[-81.83149,7.58408],[-81.8342,7.58697],[-81.82778,7.58861],[-81.82774,7.59247],[-81.81825,7.59265],[-81.81417,7.58972],[-81.80433,7.59569],[-81.79075,7.61313],[-81.78718,7.61262],[-81.78623,7.61565],[-81.78894,7.6171],[-81.78415,7.62392],[-81.77399,7.62156],[-81.77534,7.62685],[-81.76525,7.61974],[-81.75825,7.61923],[-81.75647,7.62228],[-81.76209,7.62763],[-81.76209,7.63255],[-81.76825,7.6318],[-81.77,7.6344],[-81.7626,7.63833],[-81.76442,7.64321],[-81.76027,7.64668],[-81.75952,7.64176],[-81.75802,7.64303],[-81.7546,7.6392],[-81.75084,7.64286],[-81.75249,7.64899],[-81.74874,7.64726]]],[[[-81.81789,7.28988],[-81.78924,7.29107],[-81.78368,7.2865],[-81.77114,7.29116],[-81.76814,7.28457],[-81.78572,7.27429],[-81.78536,7.26629],[-81.80192,7.24189],[-81.79888,7.23279],[-81.80259,7.22819],[-81.81093,7.24299],[-81.80993,7.24564],[-81.81928,7.26758],[-81.82402,7.27306],[-81.8197,7.28237],[-81.82046,7.29429],[-81.81789,7.28988]]]]}}]}